{
"type": "FeatureCollection",
"features": [
{ "type": "Feature", "properties": { "id": 0, "type": 2, "existence": true }, "geometry": { "type": "LineString", "coordinates": [ [ 0.0, 0.0 ], [ 432.0, 0.0 ] ] } },
{ "type": "Feature", "properties": { "id": 1, "type": 2, "existence": true }, "geometry": { "type": "LineString", "coordinates": [ [ 432.0, 0.0 ], [ 1224.0, 0.0 ] ] } },
{ "type": "Feature", "properties": { "id": 2, "type": 2, "existence": true }, "geometry": { "type": "LineString", "coordinates": [ [ 1224.0, 0.0 ], [ 1867.0, 0.0 ] ] } },
{ "type": "Feature", "properties": { "id": 3, "type": 2, "existence": true }, "geometry": { "type": "LineString", "coordinates": [ [ 0.0, 2768.0 ], [ 0.0, 2414.0 ] ] } },
{ "type": "Feature", "properties": { "id": 4, "type": 2, "existence": true }, "geometry": { "type": "LineString", "coordinates": [ [ 0.0, 2414.0 ], [ 0.0, 1932.0 ] ] } },
{ "type": "Feature", "properties": { "id": 5, "type": 2, "existence": true }, "geometry": { "type": "LineString", "coordinates": [ [ 0.0, 1932.0 ], [ 0.0, 1522.0 ] ] } },
{ "type": "Feature", "properties": { "id": 6, "type": 2, "existence": true }, "geometry": { "type": "LineString", "coordinates": [ [ 0.0, 1522.0 ], [ 0.0, 873.0 ] ] } },
{ "type": "Feature", "properties": { "id": 7, "type": 2, "existence": true }, "geometry": { "type": "LineString", "coordinates": [ [ 0.0, 873.0 ], [ 0.0, 509.0 ] ] } },
{ "type": "Feature", "properties": { "id": 8, "type": 2, "existence": true }, "geometry": { "type": "LineString", "coordinates": [ [ 0.0, 509.0 ], [ 0.0, 0.0 ] ] } },
{ "type": "Feature", "properties": { "id": 9, "type": 2, "existence": true }, "geometry": { "type": "LineString", "coordinates": [ [ 0.0, 2768.0 ], [ 842.0, 2768.0 ] ] } },
{ "type": "Feature", "properties": { "id": 10, "type": 2, "existence": true }, "geometry": { "type": "LineString", "coordinates": [ [ 842.0, 2768.0 ], [ 1224.0, 2768.0 ] ] } },
{ "type": "Feature", "properties": { "id": 11, "type": 2, "existence": true }, "geometry": { "type": "LineString", "coordinates": [ [ 1224.0, 2768.0 ], [ 1639.0, 2768.0 ] ] } },
{ "type": "Feature", "properties": { "id": 12, "type": 2, "existence": true }, "geometry": { "type": "LineString", "coordinates": [ [ 1639.0, 2768.0 ], [ 1867.0, 2768.0 ] ] } },
{ "type": "Feature", "properties": { "id": 13, "type": 2, "existence": true }, "geometry": { "type": "LineString", "coordinates": [ [ 1867.0, 2768.0 ], [ 1867.0, 2496.0 ] ] } },
{ "type": "Feature", "properties": { "id": 14, "type": 2, "existence": true }, "geometry": { "type": "LineString", "coordinates": [ [ 1867.0, 2496.0 ], [ 1867.0, 2396.0 ] ] } },
{ "type": "Feature", "properties": { "id": 15, "type": 2, "existence": true }, "geometry": { "type": "LineString", "coordinates": [ [ 1867.0, 2396.0 ], [ 1867.0, 1943.0 ] ] } },
{ "type": "Feature", "properties": { "id": 16, "type": 2, "existence": true }, "geometry": { "type": "LineString", "coordinates": [ [ 1867.0, 1943.0 ], [ 1867.0, 1694.0 ] ] } },
{ "type": "Feature", "properties": { "id": 17, "type": 2, "existence": true }, "geometry": { "type": "LineString", "coordinates": [ [ 1867.0, 1694.0 ], [ 1867.0, 1522.0 ] ] } },
{ "type": "Feature", "properties": { "id": 18, "type": 2, "existence": true }, "geometry": { "type": "LineString", "coordinates": [ [ 1867.0, 1522.0 ], [ 1867.0, 1303.0 ] ] } },
{ "type": "Feature", "properties": { "id": 19, "type": 2, "existence": true }, "geometry": { "type": "LineString", "coordinates": [ [ 1867.0, 1303.0 ], [ 1867.0, 1122.0 ] ] } },
{ "type": "Feature", "properties": { "id": 20, "type": 2, "existence": true }, "geometry": { "type": "LineString", "coordinates": [ [ 1867.0, 1122.0 ], [ 1867.0, 942.0 ] ] } },
{ "type": "Feature", "properties": { "id": 21, "type": 2, "existence": true }, "geometry": { "type": "LineString", "coordinates": [ [ 1867.0, 942.0 ], [ 1867.0, 758.0 ] ] } },
{ "type": "Feature", "properties": { "id": 22, "type": 2, "existence": true }, "geometry": { "type": "LineString", "coordinates": [ [ 1867.0, 758.0 ], [ 1867.0, 490.0 ] ] } },
{ "type": "Feature", "properties": { "id": 23, "type": 2, "existence": true }, "geometry": { "type": "LineString", "coordinates": [ [ 1867.0, 490.0 ], [ 1867.0, 231.0 ] ] } },
{ "type": "Feature", "properties": { "id": 24, "type": 2, "existence": true }, "geometry": { "type": "LineString", "coordinates": [ [ 1867.0, 231.0 ], [ 1867.0, 0.0 ] ] } },
{ "type": "Feature", "properties": { "id": 25, "type": 2, "existence": true }, "geometry": { "type": "LineString", "coordinates": [ [ 1224.0, 2768.0 ], [ 1224.0, 2496.0 ] ] } },
{ "type": "Feature", "properties": { "id": 26, "type": 2, "existence": true }, "geometry": { "type": "LineString", "coordinates": [ [ 1224.0, 2496.0 ], [ 1224.0, 2414.0 ] ] } },
{ "type": "Feature", "properties": { "id": 27, "type": 2, "existence": true }, "geometry": { "type": "LineString", "coordinates": [ [ 1224.0, 2414.0 ], [ 1224.0, 1943.0 ] ] } },
{ "type": "Feature", "properties": { "id": 28, "type": 2, "existence": true }, "geometry": { "type": "LineString", "coordinates": [ [ 1224.0, 1943.0 ], [ 1224.0, 1932.0 ] ] } },
{ "type": "Feature", "properties": { "id": 29, "type": 2, "existence": true }, "geometry": { "type": "LineString", "coordinates": [ [ 1224.0, 1932.0 ], [ 1224.0, 1785.0 ] ] } },
{ "type": "Feature", "properties": { "id": 30, "type": 2, "existence": true }, "geometry": { "type": "LineString", "coordinates": [ [ 1224.0, 1785.0 ], [ 1224.0, 1522.0 ] ] } },
{ "type": "Feature", "properties": { "id": 31, "type": 2, "existence": true }, "geometry": { "type": "LineString", "coordinates": [ [ 1224.0, 1522.0 ], [ 1224.0, 1303.0 ] ] } },
{ "type": "Feature", "properties": { "id": 32, "type": 2, "existence": true }, "geometry": { "type": "LineString", "coordinates": [ [ 1224.0, 1303.0 ], [ 1224.0, 1122.0 ] ] } },
{ "type": "Feature", "properties": { "id": 33, "type": 2, "existence": true }, "geometry": { "type": "LineString", "coordinates": [ [ 1224.0, 1122.0 ], [ 1224.0, 942.0 ] ] } },
{ "type": "Feature", "properties": { "id": 34, "type": 2, "existence": true }, "geometry": { "type": "LineString", "coordinates": [ [ 1224.0, 942.0 ], [ 1224.0, 808.0 ] ] } },
{ "type": "Feature", "properties": { "id": 35, "type": 2, "existence": true }, "geometry": { "type": "LineString", "coordinates": [ [ 1224.0, 808.0 ], [ 1224.0, 695.0 ] ] } },
{ "type": "Feature", "properties": { "id": 36, "type": 2, "existence": true }, "geometry": { "type": "LineString", "coordinates": [ [ 1224.0, 695.0 ], [ 1224.0, 490.0 ] ] } },
{ "type": "Feature", "properties": { "id": 37, "type": 2, "existence": true }, "geometry": { "type": "LineString", "coordinates": [ [ 1224.0, 490.0 ], [ 1224.0, 231.0 ] ] } },
{ "type": "Feature", "properties": { "id": 38, "type": 2, "existence": true }, "geometry": { "type": "LineString", "coordinates": [ [ 1224.0, 231.0 ], [ 1224.0, 0.0 ] ] } },
{ "type": "Feature", "properties": { "id": 39, "type": 2, "existence": true }, "geometry": { "type": "LineString", "coordinates": [ [ 0.0, 1522.0 ], [ 233.0, 1522.0 ] ] } },
{ "type": "Feature", "properties": { "id": 40, "type": 2, "existence": true }, "geometry": { "type": "LineString", "coordinates": [ [ 233.0, 1522.0 ], [ 573.0, 1522.0 ] ] } },
{ "type": "Feature", "properties": { "id": 41, "type": 2, "existence": true }, "geometry": { "type": "LineString", "coordinates": [ [ 573.0, 1522.0 ], [ 842.0, 1522.0 ] ] } },
{ "type": "Feature", "properties": { "id": 42, "type": 2, "existence": true }, "geometry": { "type": "LineString", "coordinates": [ [ 842.0, 1522.0 ], [ 933.0, 1522.0 ] ] } },
{ "type": "Feature", "properties": { "id": 43, "type": 2, "existence": true }, "geometry": { "type": "LineString", "coordinates": [ [ 933.0, 1522.0 ], [ 1033.0, 1522.0 ] ] } },
{ "type": "Feature", "properties": { "id": 44, "type": 2, "existence": true }, "geometry": { "type": "LineString", "coordinates": [ [ 1033.0, 1522.0 ], [ 1224.0, 1522.0 ] ] } },
{ "type": "Feature", "properties": { "id": 45, "type": 2, "existence": true }, "geometry": { "type": "LineString", "coordinates": [ [ 1224.0, 1522.0 ], [ 1368.0, 1522.0 ] ] } },
{ "type": "Feature", "properties": { "id": 46, "type": 2, "existence": true }, "geometry": { "type": "LineString", "coordinates": [ [ 1368.0, 1522.0 ], [ 1618.0, 1522.0 ] ] } },
{ "type": "Feature", "properties": { "id": 47, "type": 2, "existence": true }, "geometry": { "type": "LineString", "coordinates": [ [ 1618.0, 1522.0 ], [ 1867.0, 1522.0 ] ] } },
{ "type": "Feature", "properties": { "id": 48, "type": 2, "existence": true }, "geometry": { "type": "LineString", "coordinates": [ [ 0.0, 2414.0 ], [ 159.0, 2414.0 ] ] } },
{ "type": "Feature", "properties": { "id": 49, "type": 2, "existence": true }, "geometry": { "type": "LineString", "coordinates": [ [ 159.0, 2414.0 ], [ 842.0, 2414.0 ] ] } },
{ "type": "Feature", "properties": { "id": 50, "type": 2, "existence": true }, "geometry": { "type": "LineString", "coordinates": [ [ 842.0, 2414.0 ], [ 1224.0, 2414.0 ] ] } },
{ "type": "Feature", "properties": { "id": 51, "type": 2, "existence": true }, "geometry": { "type": "LineString", "coordinates": [ [ 0.0, 1932.0 ], [ 348.0, 1932.0 ] ] } },
{ "type": "Feature", "properties": { "id": 52, "type": 2, "existence": true }, "geometry": { "type": "LineString", "coordinates": [ [ 348.0, 1932.0 ], [ 842.0, 1932.0 ] ] } },
{ "type": "Feature", "properties": { "id": 53, "type": 2, "existence": true }, "geometry": { "type": "LineString", "coordinates": [ [ 842.0, 1932.0 ], [ 1224.0, 1932.0 ] ] } },
{ "type": "Feature", "properties": { "id": 54, "type": 2, "existence": true }, "geometry": { "type": "LineString", "coordinates": [ [ 407.0, 1785.0 ], [ 842.0, 1785.0 ] ] } },
{ "type": "Feature", "properties": { "id": 55, "type": 2, "existence": true }, "geometry": { "type": "LineString", "coordinates": [ [ 842.0, 1785.0 ], [ 1224.0, 1785.0 ] ] } },
{ "type": "Feature", "properties": { "id": 56, "type": 2, "existence": true }, "geometry": { "type": "LineString", "coordinates": [ [ 1224.0, 1785.0 ], [ 1368.0, 1785.0 ] ] } },
{ "type": "Feature", "properties": { "id": 57, "type": 2, "existence": true }, "geometry": { "type": "LineString", "coordinates": [ [ 1368.0, 1785.0 ], [ 1457.0, 1785.0 ] ] } },
{ "type": "Feature", "properties": { "id": 58, "type": 2, "existence": true }, "geometry": { "type": "LineString", "coordinates": [ [ 1457.0, 1785.0 ], [ 1545.0, 1785.0 ] ] } },
{ "type": "Feature", "properties": { "id": 59, "type": 2, "existence": true }, "geometry": { "type": "LineString", "coordinates": [ [ 1545.0, 1785.0 ], [ 1618.0, 1694.0 ] ] } },
{ "type": "Feature", "properties": { "id": 60, "type": 2, "existence": true }, "geometry": { "type": "LineString", "coordinates": [ [ 1618.0, 1694.0 ], [ 1663.0, 1694.0 ] ] } },
{ "type": "Feature", "properties": { "id": 61, "type": 2, "existence": true }, "geometry": { "type": "LineString", "coordinates": [ [ 1663.0, 1694.0 ], [ 1867.0, 1694.0 ] ] } },
{ "type": "Feature", "properties": { "id": 62, "type": 2, "existence": true }, "geometry": { "type": "LineString", "coordinates": [ [ 1368.0, 1785.0 ], [ 1368.0, 1522.0 ] ] } },
{ "type": "Feature", "properties": { "id": 63, "type": 2, "existence": true }, "geometry": { "type": "LineString", "coordinates": [ [ 1618.0, 1694.0 ], [ 1618.0, 1522.0 ] ] } },
{ "type": "Feature", "properties": { "id": 64, "type": 2, "existence": true }, "geometry": { "type": "LineString", "coordinates": [ [ 1457.0, 1943.0 ], [ 1457.0, 1785.0 ] ] } },
{ "type": "Feature", "properties": { "id": 65, "type": 2, "existence": true }, "geometry": { "type": "LineString", "coordinates": [ [ 1545.0, 1943.0 ], [ 1545.0, 1815.0 ] ] } },
{ "type": "Feature", "properties": { "id": 66, "type": 2, "existence": true }, "geometry": { "type": "LineString", "coordinates": [ [ 1545.0, 1815.0 ], [ 1545.0, 1785.0 ] ] } },
{ "type": "Feature", "properties": { "id": 67, "type": 2, "existence": true }, "geometry": { "type": "LineString", "coordinates": [ [ 1545.0, 1815.0 ], [ 1663.0, 1815.0 ] ] } },
{ "type": "Feature", "properties": { "id": 68, "type": 2, "existence": true }, "geometry": { "type": "LineString", "coordinates": [ [ 1663.0, 1815.0 ], [ 1663.0, 1694.0 ] ] } },
{ "type": "Feature", "properties": { "id": 69, "type": 2, "existence": true }, "geometry": { "type": "LineString", "coordinates": [ [ 1368.0, 1522.0 ], [ 1368.0, 1303.0 ] ] } },
{ "type": "Feature", "properties": { "id": 70, "type": 2, "existence": true }, "geometry": { "type": "LineString", "coordinates": [ [ 1224.0, 1303.0 ], [ 1368.0, 1303.0 ] ] } },
{ "type": "Feature", "properties": { "id": 71, "type": 2, "existence": true }, "geometry": { "type": "LineString", "coordinates": [ [ 1368.0, 1303.0 ], [ 1513.0, 1303.0 ] ] } },
{ "type": "Feature", "properties": { "id": 72, "type": 2, "existence": true }, "geometry": { "type": "LineString", "coordinates": [ [ 1513.0, 1303.0 ], [ 1618.0, 1303.0 ] ] } },
{ "type": "Feature", "properties": { "id": 73, "type": 2, "existence": true }, "geometry": { "type": "LineString", "coordinates": [ [ 1618.0, 1303.0 ], [ 1867.0, 1303.0 ] ] } },
{ "type": "Feature", "properties": { "id": 74, "type": 2, "existence": true }, "geometry": { "type": "LineString", "coordinates": [ [ 1618.0, 1522.0 ], [ 1618.0, 1418.0 ] ] } },
{ "type": "Feature", "properties": { "id": 75, "type": 2, "existence": true }, "geometry": { "type": "LineString", "coordinates": [ [ 1618.0, 1418.0 ], [ 1618.0, 1303.0 ] ] } },
{ "type": "Feature", "properties": { "id": 76, "type": 2, "existence": true }, "geometry": { "type": "LineString", "coordinates": [ [ 1513.0, 1418.0 ], [ 1513.0, 1303.0 ] ] } },
{ "type": "Feature", "properties": { "id": 77, "type": 2, "existence": true }, "geometry": { "type": "LineString", "coordinates": [ [ 1513.0, 1418.0 ], [ 1618.0, 1418.0 ] ] } },
{ "type": "Feature", "properties": { "id": 78, "type": 2, "existence": true }, "geometry": { "type": "LineString", "coordinates": [ [ 842.0, 2768.0 ], [ 842.0, 2414.0 ] ] } },
{ "type": "Feature", "properties": { "id": 79, "type": 2, "existence": true }, "geometry": { "type": "LineString", "coordinates": [ [ 842.0, 2414.0 ], [ 842.0, 2284.0 ] ] } },
{ "type": "Feature", "properties": { "id": 80, "type": 2, "existence": true }, "geometry": { "type": "LineString", "coordinates": [ [ 842.0, 2284.0 ], [ 842.0, 1932.0 ] ] } },
{ "type": "Feature", "properties": { "id": 81, "type": 2, "existence": true }, "geometry": { "type": "LineString", "coordinates": [ [ 842.0, 1932.0 ], [ 842.0, 1785.0 ] ] } },
{ "type": "Feature", "properties": { "id": 82, "type": 2, "existence": true }, "geometry": { "type": "LineString", "coordinates": [ [ 842.0, 1785.0 ], [ 842.0, 1522.0 ] ] } },
{ "type": "Feature", "properties": { "id": 83, "type": 2, "existence": true }, "geometry": { "type": "LineString", "coordinates": [ [ 212.0, 2284.0 ], [ 842.0, 2284.0 ] ] } },
{ "type": "Feature", "properties": { "id": 84, "type": 2, "existence": true }, "geometry": { "type": "LineString", "coordinates": [ [ 0.0, 2768.0 ], [ 159.0, 2414.0 ] ] } },
{ "type": "Feature", "properties": { "id": 85, "type": 2, "existence": true }, "geometry": { "type": "LineString", "coordinates": [ [ 159.0, 2414.0 ], [ 212.0, 2284.0 ] ] } },
{ "type": "Feature", "properties": { "id": 86, "type": 2, "existence": true }, "geometry": { "type": "LineString", "coordinates": [ [ 212.0, 2284.0 ], [ 348.0, 1932.0 ] ] } },
{ "type": "Feature", "properties": { "id": 87, "type": 2, "existence": true }, "geometry": { "type": "LineString", "coordinates": [ [ 348.0, 1932.0 ], [ 407.0, 1785.0 ] ] } },
{ "type": "Feature", "properties": { "id": 88, "type": 2, "existence": true }, "geometry": { "type": "LineString", "coordinates": [ [ 407.0, 1785.0 ], [ 573.0, 1522.0 ] ] } },
{ "type": "Feature", "properties": { "id": 89, "type": 2, "existence": true }, "geometry": { "type": "LineString", "coordinates": [ [ 573.0, 1522.0 ], [ 573.0, 1322.0 ] ] } },
{ "type": "Feature", "properties": { "id": 90, "type": 2, "existence": true }, "geometry": { "type": "LineString", "coordinates": [ [ 573.0, 1322.0 ], [ 573.0, 1122.0 ] ] } },
{ "type": "Feature", "properties": { "id": 91, "type": 2, "existence": true }, "geometry": { "type": "LineString", "coordinates": [ [ 573.0, 1122.0 ], [ 573.0, 873.0 ] ] } },
{ "type": "Feature", "properties": { "id": 92, "type": 2, "existence": true }, "geometry": { "type": "LineString", "coordinates": [ [ 573.0, 873.0 ], [ 432.0, 509.0 ] ] } },
{ "type": "Feature", "properties": { "id": 93, "type": 2, "existence": true }, "geometry": { "type": "LineString", "coordinates": [ [ 432.0, 509.0 ], [ 0.0, 509.0 ] ] } },
{ "type": "Feature", "properties": { "id": 94, "type": 2, "existence": true }, "geometry": { "type": "LineString", "coordinates": [ [ 432.0, 509.0 ], [ 432.0, 0.0 ] ] } },
{ "type": "Feature", "properties": { "id": 95, "type": 2, "existence": true }, "geometry": { "type": "LineString", "coordinates": [ [ 1033.0, 1522.0 ], [ 1033.0, 1122.0 ] ] } },
{ "type": "Feature", "properties": { "id": 96, "type": 2, "existence": true }, "geometry": { "type": "LineString", "coordinates": [ [ 933.0, 1122.0 ], [ 933.0, 808.0 ] ] } },
{ "type": "Feature", "properties": { "id": 97, "type": 2, "existence": true }, "geometry": { "type": "LineString", "coordinates": [ [ 933.0, 808.0 ], [ 1224.0, 808.0 ] ] } },
{ "type": "Feature", "properties": { "id": 98, "type": 2, "existence": true }, "geometry": { "type": "LineString", "coordinates": [ [ 233.0, 1785.0 ], [ 407.0, 1785.0 ] ] } },
{ "type": "Feature", "properties": { "id": 99, "type": 2, "existence": true }, "geometry": { "type": "LineString", "coordinates": [ [ 233.0, 1785.0 ], [ 233.0, 1522.0 ] ] } },
{ "type": "Feature", "properties": { "id": 100, "type": 2, "existence": true }, "geometry": { "type": "LineString", "coordinates": [ [ 0.0, 873.0 ], [ 573.0, 873.0 ] ] } },
{ "type": "Feature", "properties": { "id": 101, "type": 2, "existence": true }, "geometry": { "type": "LineString", "coordinates": [ [ 0.0, 1522.0 ], [ 573.0, 873.0 ] ] } },
{ "type": "Feature", "properties": { "id": 102, "type": 2, "existence": true }, "geometry": { "type": "LineString", "coordinates": [ [ 573.0, 873.0 ], [ 1224.0, 231.0 ] ] } },
{ "type": "Feature", "properties": { "id": 103, "type": 2, "existence": true }, "geometry": { "type": "LineString", "coordinates": [ [ 1224.0, 231.0 ], [ 1867.0, 231.0 ] ] } },
{ "type": "Feature", "properties": { "id": 104, "type": 2, "existence": true }, "geometry": { "type": "LineString", "coordinates": [ [ 1224.0, 2496.0 ], [ 1695.0, 2095.0 ] ] } },
{ "type": "Feature", "properties": { "id": 105, "type": 2, "existence": true }, "geometry": { "type": "LineString", "coordinates": [ [ 1695.0, 2095.0 ], [ 1867.0, 1943.0 ] ] } },
{ "type": "Feature", "properties": { "id": 106, "type": 2, "existence": true }, "geometry": { "type": "LineString", "coordinates": [ [ 1639.0, 2768.0 ], [ 1695.0, 2496.0 ] ] } },
{ "type": "Feature", "properties": { "id": 107, "type": 2, "existence": true }, "geometry": { "type": "LineString", "coordinates": [ [ 1695.0, 2496.0 ], [ 1695.0, 2396.0 ] ] } },
{ "type": "Feature", "properties": { "id": 108, "type": 2, "existence": true }, "geometry": { "type": "LineString", "coordinates": [ [ 1695.0, 2396.0 ], [ 1695.0, 2095.0 ] ] } },
{ "type": "Feature", "properties": { "id": 109, "type": 2, "existence": true }, "geometry": { "type": "LineString", "coordinates": [ [ 1695.0, 2396.0 ], [ 1867.0, 2396.0 ] ] } },
{ "type": "Feature", "properties": { "id": 110, "type": 2, "existence": true }, "geometry": { "type": "LineString", "coordinates": [ [ 1695.0, 2496.0 ], [ 1867.0, 2496.0 ] ] } },
{ "type": "Feature", "properties": { "id": 111, "type": 2, "existence": true }, "geometry": { "type": "LineString", "coordinates": [ [ 1224.0, 1943.0 ], [ 1457.0, 1943.0 ] ] } },
{ "type": "Feature", "properties": { "id": 112, "type": 2, "existence": true }, "geometry": { "type": "LineString", "coordinates": [ [ 1457.0, 1943.0 ], [ 1545.0, 1943.0 ] ] } },
{ "type": "Feature", "properties": { "id": 113, "type": 2, "existence": true }, "geometry": { "type": "LineString", "coordinates": [ [ 1545.0, 1943.0 ], [ 1867.0, 1943.0 ] ] } },
{ "type": "Feature", "properties": { "id": 114, "type": 2, "existence": true }, "geometry": { "type": "LineString", "coordinates": [ [ 573.0, 1122.0 ], [ 753.0, 1122.0 ] ] } },
{ "type": "Feature", "properties": { "id": 115, "type": 2, "existence": true }, "geometry": { "type": "LineString", "coordinates": [ [ 753.0, 1122.0 ], [ 933.0, 1122.0 ] ] } },
{ "type": "Feature", "properties": { "id": 116, "type": 2, "existence": true }, "geometry": { "type": "LineString", "coordinates": [ [ 933.0, 1122.0 ], [ 1033.0, 1122.0 ] ] } },
{ "type": "Feature", "properties": { "id": 117, "type": 2, "existence": true }, "geometry": { "type": "LineString", "coordinates": [ [ 1033.0, 1122.0 ], [ 1224.0, 1122.0 ] ] } },
{ "type": "Feature", "properties": { "id": 118, "type": 2, "existence": true }, "geometry": { "type": "LineString", "coordinates": [ [ 1224.0, 1122.0 ], [ 1867.0, 1122.0 ] ] } },
{ "type": "Feature", "properties": { "id": 119, "type": 2, "existence": true }, "geometry": { "type": "LineString", "coordinates": [ [ 573.0, 1322.0 ], [ 753.0, 1322.0 ] ] } },
{ "type": "Feature", "properties": { "id": 120, "type": 2, "existence": true }, "geometry": { "type": "LineString", "coordinates": [ [ 753.0, 1322.0 ], [ 753.0, 1122.0 ] ] } },
{ "type": "Feature", "properties": { "id": 121, "type": 2, "existence": true }, "geometry": { "type": "LineString", "coordinates": [ [ 753.0, 1322.0 ], [ 933.0, 1322.0 ] ] } },
{ "type": "Feature", "properties": { "id": 122, "type": 2, "existence": true }, "geometry": { "type": "LineString", "coordinates": [ [ 933.0, 1322.0 ], [ 933.0, 1122.0 ] ] } },
{ "type": "Feature", "properties": { "id": 123, "type": 2, "existence": true }, "geometry": { "type": "LineString", "coordinates": [ [ 933.0, 1522.0 ], [ 933.0, 1322.0 ] ] } },
{ "type": "Feature", "properties": { "id": 124, "type": 2, "existence": true }, "geometry": { "type": "LineString", "coordinates": [ [ 1224.0, 490.0 ], [ 1535.0, 490.0 ] ] } },
{ "type": "Feature", "properties": { "id": 125, "type": 2, "existence": true }, "geometry": { "type": "LineString", "coordinates": [ [ 1535.0, 490.0 ], [ 1867.0, 490.0 ] ] } },
{ "type": "Feature", "properties": { "id": 126, "type": 2, "existence": true }, "geometry": { "type": "LineString", "coordinates": [ [ 1224.0, 942.0 ], [ 1463.0, 942.0 ] ] } },
{ "type": "Feature", "properties": { "id": 127, "type": 2, "existence": true }, "geometry": { "type": "LineString", "coordinates": [ [ 1463.0, 942.0 ], [ 1867.0, 942.0 ] ] } },
{ "type": "Feature", "properties": { "id": 128, "type": 2, "existence": true }, "geometry": { "type": "LineString", "coordinates": [ [ 1224.0, 695.0 ], [ 1373.0, 695.0 ] ] } },
{ "type": "Feature", "properties": { "id": 129, "type": 2, "existence": true }, "geometry": { "type": "LineString", "coordinates": [ [ 1373.0, 695.0 ], [ 1463.0, 758.0 ] ] } },
{ "type": "Feature", "properties": { "id": 130, "type": 2, "existence": true }, "geometry": { "type": "LineString", "coordinates": [ [ 1463.0, 758.0 ], [ 1535.0, 758.0 ] ] } },
{ "type": "Feature", "properties": { "id": 131, "type": 2, "existence": true }, "geometry": { "type": "LineString", "coordinates": [ [ 1535.0, 758.0 ], [ 1867.0, 758.0 ] ] } },
{ "type": "Feature", "properties": { "id": 132, "type": 2, "existence": true }, "geometry": { "type": "LineString", "coordinates": [ [ 1463.0, 942.0 ], [ 1463.0, 758.0 ] ] } },
{ "type": "Feature", "properties": { "id": 133, "type": 2, "existence": true }, "geometry": { "type": "LineString", "coordinates": [ [ 1535.0, 758.0 ], [ 1535.0, 490.0 ] ] } },
{ "type": "Feature", "properties": { "id": 134, "type": 13, "existence": true }, "geometry": { "type": "Point", "coordinates": [ 0.0, 0.0 ] } },
{ "type": "Feature", "properties": { "id": 135, "type": 13, "existence": true }, "geometry": { "type": "Point", "coordinates": [ 0.0, 509.0 ] } },
{ "type": "Feature", "properties": { "id": 136, "type": 13, "existence": true }, "geometry": { "type": "Point", "coordinates": [ 0.0, 873.0 ] } },
{ "type": "Feature", "properties": { "id": 137, "type": 13, "existence": true }, "geometry": { "type": "Point", "coordinates": [ 0.0, 1522.0 ] } },
{ "type": "Feature", "properties": { "id": 138, "type": 13, "existence": true }, "geometry": { "type": "Point", "coordinates": [ 0.0, 1932.0 ] } },
{ "type": "Feature", "properties": { "id": 139, "type": 13, "existence": true }, "geometry": { "type": "Point", "coordinates": [ 0.0, 2414.0 ] } },
{ "type": "Feature", "properties": { "id": 140, "type": 13, "existence": true }, "geometry": { "type": "Point", "coordinates": [ 0.0, 2768.0 ] } },
{ "type": "Feature", "properties": { "id": 141, "type": 13, "existence": true }, "geometry": { "type": "Point", "coordinates": [ 159.0, 2414.0 ] } },
{ "type": "Feature", "properties": { "id": 142, "type": 13, "existence": true }, "geometry": { "type": "Point", "coordinates": [ 212.0, 2284.0 ] } },
{ "type": "Feature", "properties": { "id": 143, "type": 13, "existence": true }, "geometry": { "type": "Point", "coordinates": [ 233.0, 1522.0 ] } },
{ "type": "Feature", "properties": { "id": 144, "type": 13, "existence": true }, "geometry": { "type": "Point", "coordinates": [ 233.0, 1785.0 ] } },
{ "type": "Feature", "properties": { "id": 145, "type": 13, "existence": true }, "geometry": { "type": "Point", "coordinates": [ 348.0, 1932.0 ] } },
{ "type": "Feature", "properties": { "id": 146, "type": 13, "existence": true }, "geometry": { "type": "Point", "coordinates": [ 407.0, 1785.0 ] } },
{ "type": "Feature", "properties": { "id": 147, "type": 13, "existence": true }, "geometry": { "type": "Point", "coordinates": [ 432.0, 0.0 ] } },
{ "type": "Feature", "properties": { "id": 148, "type": 13, "existence": true }, "geometry": { "type": "Point", "coordinates": [ 432.0, 509.0 ] } },
{ "type": "Feature", "properties": { "id": 149, "type": 13, "existence": true }, "geometry": { "type": "Point", "coordinates": [ 573.0, 873.0 ] } },
{ "type": "Feature", "properties": { "id": 150, "type": 13, "existence": true }, "geometry": { "type": "Point", "coordinates": [ 573.0, 1122.0 ] } },
{ "type": "Feature", "properties": { "id": 151, "type": 13, "existence": true }, "geometry": { "type": "Point", "coordinates": [ 573.0, 1322.0 ] } },
{ "type": "Feature", "properties": { "id": 152, "type": 13, "existence": true }, "geometry": { "type": "Point", "coordinates": [ 573.0, 1522.0 ] } },
{ "type": "Feature", "properties": { "id": 153, "type": 13, "existence": true }, "geometry": { "type": "Point", "coordinates": [ 753.0, 1122.0 ] } },
{ "type": "Feature", "properties": { "id": 154, "type": 13, "existence": true }, "geometry": { "type": "Point", "coordinates": [ 753.0, 1322.0 ] } },
{ "type": "Feature", "properties": { "id": 155, "type": 13, "existence": true }, "geometry": { "type": "Point", "coordinates": [ 842.0, 1522.0 ] } },
{ "type": "Feature", "properties": { "id": 156, "type": 13, "existence": true }, "geometry": { "type": "Point", "coordinates": [ 842.0, 1785.0 ] } },
{ "type": "Feature", "properties": { "id": 157, "type": 13, "existence": true }, "geometry": { "type": "Point", "coordinates": [ 842.0, 1932.0 ] } },
{ "type": "Feature", "properties": { "id": 158, "type": 13, "existence": true }, "geometry": { "type": "Point", "coordinates": [ 842.0, 2284.0 ] } },
{ "type": "Feature", "properties": { "id": 159, "type": 13, "existence": true }, "geometry": { "type": "Point", "coordinates": [ 842.0, 2414.0 ] } },
{ "type": "Feature", "properties": { "id": 160, "type": 13, "existence": true }, "geometry": { "type": "Point", "coordinates": [ 842.0, 2768.0 ] } },
{ "type": "Feature", "properties": { "id": 161, "type": 13, "existence": true }, "geometry": { "type": "Point", "coordinates": [ 933.0, 808.0 ] } },
{ "type": "Feature", "properties": { "id": 162, "type": 13, "existence": true }, "geometry": { "type": "Point", "coordinates": [ 933.0, 1122.0 ] } },
{ "type": "Feature", "properties": { "id": 163, "type": 13, "existence": true }, "geometry": { "type": "Point", "coordinates": [ 933.0, 1322.0 ] } },
{ "type": "Feature", "properties": { "id": 164, "type": 13, "existence": true }, "geometry": { "type": "Point", "coordinates": [ 933.0, 1522.0 ] } },
{ "type": "Feature", "properties": { "id": 165, "type": 13, "existence": true }, "geometry": { "type": "Point", "coordinates": [ 1033.0, 1122.0 ] } },
{ "type": "Feature", "properties": { "id": 166, "type": 13, "existence": true }, "geometry": { "type": "Point", "coordinates": [ 1033.0, 1522.0 ] } },
{ "type": "Feature", "properties": { "id": 167, "type": 13, "existence": true }, "geometry": { "type": "Point", "coordinates": [ 1224.0, 0.0 ] } },
{ "type": "Feature", "properties": { "id": 168, "type": 13, "existence": true }, "geometry": { "type": "Point", "coordinates": [ 1224.0, 231.0 ] } },
{ "type": "Feature", "properties": { "id": 169, "type": 13, "existence": true }, "geometry": { "type": "Point", "coordinates": [ 1224.0, 490.0 ] } },
{ "type": "Feature", "properties": { "id": 170, "type": 13, "existence": true }, "geometry": { "type": "Point", "coordinates": [ 1224.0, 695.0 ] } },
{ "type": "Feature", "properties": { "id": 171, "type": 13, "existence": true }, "geometry": { "type": "Point", "coordinates": [ 1224.0, 808.0 ] } },
{ "type": "Feature", "properties": { "id": 172, "type": 13, "existence": true }, "geometry": { "type": "Point", "coordinates": [ 1224.0, 942.0 ] } },
{ "type": "Feature", "properties": { "id": 173, "type": 13, "existence": true }, "geometry": { "type": "Point", "coordinates": [ 1224.0, 1122.0 ] } },
{ "type": "Feature", "properties": { "id": 174, "type": 13, "existence": true }, "geometry": { "type": "Point", "coordinates": [ 1224.0, 1303.0 ] } },
{ "type": "Feature", "properties": { "id": 175, "type": 13, "existence": true }, "geometry": { "type": "Point", "coordinates": [ 1224.0, 1522.0 ] } },
{ "type": "Feature", "properties": { "id": 176, "type": 13, "existence": true }, "geometry": { "type": "Point", "coordinates": [ 1224.0, 1785.0 ] } },
{ "type": "Feature", "properties": { "id": 177, "type": 13, "existence": true }, "geometry": { "type": "Point", "coordinates": [ 1224.0, 1932.0 ] } },
{ "type": "Feature", "properties": { "id": 178, "type": 13, "existence": true }, "geometry": { "type": "Point", "coordinates": [ 1224.0, 1943.0 ] } },
{ "type": "Feature", "properties": { "id": 179, "type": 13, "existence": true }, "geometry": { "type": "Point", "coordinates": [ 1224.0, 2414.0 ] } },
{ "type": "Feature", "properties": { "id": 180, "type": 13, "existence": true }, "geometry": { "type": "Point", "coordinates": [ 1224.0, 2496.0 ] } },
{ "type": "Feature", "properties": { "id": 181, "type": 13, "existence": true }, "geometry": { "type": "Point", "coordinates": [ 1224.0, 2768.0 ] } },
{ "type": "Feature", "properties": { "id": 182, "type": 13, "existence": true }, "geometry": { "type": "Point", "coordinates": [ 1368.0, 1303.0 ] } },
{ "type": "Feature", "properties": { "id": 183, "type": 13, "existence": true }, "geometry": { "type": "Point", "coordinates": [ 1368.0, 1522.0 ] } },
{ "type": "Feature", "properties": { "id": 184, "type": 13, "existence": true }, "geometry": { "type": "Point", "coordinates": [ 1368.0, 1785.0 ] } },
{ "type": "Feature", "properties": { "id": 185, "type": 13, "existence": true }, "geometry": { "type": "Point", "coordinates": [ 1373.0, 695.0 ] } },
{ "type": "Feature", "properties": { "id": 186, "type": 13, "existence": true }, "geometry": { "type": "Point", "coordinates": [ 1457.0, 1785.0 ] } },
{ "type": "Feature", "properties": { "id": 187, "type": 13, "existence": true }, "geometry": { "type": "Point", "coordinates": [ 1457.0, 1943.0 ] } },
{ "type": "Feature", "properties": { "id": 188, "type": 13, "existence": true }, "geometry": { "type": "Point", "coordinates": [ 1463.0, 758.0 ] } },
{ "type": "Feature", "properties": { "id": 189, "type": 13, "existence": true }, "geometry": { "type": "Point", "coordinates": [ 1463.0, 942.0 ] } },
{ "type": "Feature", "properties": { "id": 190, "type": 13, "existence": true }, "geometry": { "type": "Point", "coordinates": [ 1513.0, 1303.0 ] } },
{ "type": "Feature", "properties": { "id": 191, "type": 13, "existence": true }, "geometry": { "type": "Point", "coordinates": [ 1513.0, 1418.0 ] } },
{ "type": "Feature", "properties": { "id": 192, "type": 13, "existence": true }, "geometry": { "type": "Point", "coordinates": [ 1535.0, 490.0 ] } },
{ "type": "Feature", "properties": { "id": 193, "type": 13, "existence": true }, "geometry": { "type": "Point", "coordinates": [ 1535.0, 758.0 ] } },
{ "type": "Feature", "properties": { "id": 194, "type": 13, "existence": true }, "geometry": { "type": "Point", "coordinates": [ 1545.0, 1785.0 ] } },
{ "type": "Feature", "properties": { "id": 195, "type": 13, "existence": true }, "geometry": { "type": "Point", "coordinates": [ 1545.0, 1815.0 ] } },
{ "type": "Feature", "properties": { "id": 196, "type": 13, "existence": true }, "geometry": { "type": "Point", "coordinates": [ 1545.0, 1943.0 ] } },
{ "type": "Feature", "properties": { "id": 197, "type": 13, "existence": true }, "geometry": { "type": "Point", "coordinates": [ 1618.0, 1303.0 ] } },
{ "type": "Feature", "properties": { "id": 198, "type": 13, "existence": true }, "geometry": { "type": "Point", "coordinates": [ 1618.0, 1418.0 ] } },
{ "type": "Feature", "properties": { "id": 199, "type": 13, "existence": true }, "geometry": { "type": "Point", "coordinates": [ 1618.0, 1522.0 ] } },
{ "type": "Feature", "properties": { "id": 200, "type": 13, "existence": true }, "geometry": { "type": "Point", "coordinates": [ 1618.0, 1694.0 ] } },
{ "type": "Feature", "properties": { "id": 201, "type": 13, "existence": true }, "geometry": { "type": "Point", "coordinates": [ 1639.0, 2768.0 ] } },
{ "type": "Feature", "properties": { "id": 202, "type": 13, "existence": true }, "geometry": { "type": "Point", "coordinates": [ 1663.0, 1694.0 ] } },
{ "type": "Feature", "properties": { "id": 203, "type": 13, "existence": true }, "geometry": { "type": "Point", "coordinates": [ 1663.0, 1815.0 ] } },
{ "type": "Feature", "properties": { "id": 204, "type": 13, "existence": true }, "geometry": { "type": "Point", "coordinates": [ 1695.0, 2095.0 ] } },
{ "type": "Feature", "properties": { "id": 205, "type": 13, "existence": true }, "geometry": { "type": "Point", "coordinates": [ 1695.0, 2396.0 ] } },
{ "type": "Feature", "properties": { "id": 206, "type": 13, "existence": true }, "geometry": { "type": "Point", "coordinates": [ 1695.0, 2496.0 ] } },
{ "type": "Feature", "properties": { "id": 207, "type": 13, "existence": true }, "geometry": { "type": "Point", "coordinates": [ 1867.0, 0.0 ] } },
{ "type": "Feature", "properties": { "id": 208, "type": 13, "existence": true }, "geometry": { "type": "Point", "coordinates": [ 1867.0, 231.0 ] } },
{ "type": "Feature", "properties": { "id": 209, "type": 13, "existence": true }, "geometry": { "type": "Point", "coordinates": [ 1867.0, 490.0 ] } },
{ "type": "Feature", "properties": { "id": 210, "type": 13, "existence": true }, "geometry": { "type": "Point", "coordinates": [ 1867.0, 758.0 ] } },
{ "type": "Feature", "properties": { "id": 211, "type": 13, "existence": true }, "geometry": { "type": "Point", "coordinates": [ 1867.0, 942.0 ] } },
{ "type": "Feature", "properties": { "id": 212, "type": 13, "existence": true }, "geometry": { "type": "Point", "coordinates": [ 1867.0, 1122.0 ] } },
{ "type": "Feature", "properties": { "id": 213, "type": 13, "existence": true }, "geometry": { "type": "Point", "coordinates": [ 1867.0, 1303.0 ] } },
{ "type": "Feature", "properties": { "id": 214, "type": 13, "existence": true }, "geometry": { "type": "Point", "coordinates": [ 1867.0, 1522.0 ] } },
{ "type": "Feature", "properties": { "id": 215, "type": 13, "existence": true }, "geometry": { "type": "Point", "coordinates": [ 1867.0, 1694.0 ] } },
{ "type": "Feature", "properties": { "id": 216, "type": 13, "existence": true }, "geometry": { "type": "Point", "coordinates": [ 1867.0, 1943.0 ] } },
{ "type": "Feature", "properties": { "id": 217, "type": 13, "existence": true }, "geometry": { "type": "Point", "coordinates": [ 1867.0, 2396.0 ] } },
{ "type": "Feature", "properties": { "id": 218, "type": 13, "existence": true }, "geometry": { "type": "Point", "coordinates": [ 1867.0, 2496.0 ] } },
{ "type": "Feature", "properties": { "id": 219, "type": 13, "existence": true }, "geometry": { "type": "Point", "coordinates": [ 1867.0, 2768.0 ] } },
{ "type": "Feature", "properties": { "id": 220, "type": 4, "existence": true }, "geometry": { "type": "Polygon", "coordinates": [ [ [ 432.0, 0.0 ], [ 0.0, 0.0 ], [ 0.0, 509.0 ], [ 432.0, 509.0 ], [ 432.0, 0.0 ] ] ] } },
{ "type": "Feature", "properties": { "id": 221, "type": 6, "existence": true }, "geometry": { "type": "Polygon", "coordinates": [ [ [ 1224.0, 0.0 ], [ 432.0, 0.0 ], [ 432.0, 509.0 ], [ 573.0, 873.0 ], [ 1224.0, 231.0 ], [ 1224.0, 0.0 ] ] ] } },
{ "type": "Feature", "properties": { "id": 222, "type": 7, "existence": true }, "geometry": { "type": "Polygon", "coordinates": [ [ [ 1867.0, 0.0 ], [ 1224.0, 0.0 ], [ 1224.0, 231.0 ], [ 1867.0, 231.0 ], [ 1867.0, 0.0 ] ] ] } },
{ "type": "Feature", "properties": { "id": 223, "type": 1, "existence": true }, "geometry": { "type": "Polygon", "coordinates": [ [ [ 0.0, 2414.0 ], [ 0.0, 2768.0 ], [ 159.0, 2414.0 ], [ 0.0, 2414.0 ] ] ] } },
{ "type": "Feature", "properties": { "id": 224, "type": 1, "existence": true }, "geometry": { "type": "Polygon", "coordinates": [ [ [ 0.0, 1932.0 ], [ 0.0, 2414.0 ], [ 159.0, 2414.0 ], [ 212.0, 2284.0 ], [ 348.0, 1932.0 ], [ 0.0, 1932.0 ] ] ] } },
{ "type": "Feature", "properties": { "id": 225, "type": 7, "existence": true }, "geometry": { "type": "Polygon", "coordinates": [ [ [ 0.0, 1522.0 ], [ 0.0, 1932.0 ], [ 348.0, 1932.0 ], [ 407.0, 1785.0 ], [ 233.0, 1785.0 ], [ 233.0, 1522.0 ], [ 0.0, 1522.0 ] ] ] } },
{ "type": "Feature", "properties": { "id": 226, "type": 4, "existence": true }, "geometry": { "type": "Polygon", "coordinates": [ [ [ 0.0, 873.0 ], [ 0.0, 1522.0 ], [ 573.0, 873.0 ], [ 0.0, 873.0 ] ] ] } },
{ "type": "Feature", "properties": { "id": 227, "type": 1, "existence": true }, "geometry": { "type": "Polygon", "coordinates": [ [ [ 0.0, 509.0 ], [ 0.0, 873.0 ], [ 573.0, 873.0 ], [ 432.0, 509.0 ], [ 0.0, 509.0 ] ] ] } },
{ "type": "Feature", "properties": { "id": 228, "type": 4, "existence": true }, "geometry": { "type": "Polygon", "coordinates": [ [ [ 0.0, 2768.0 ], [ 842.0, 2768.0 ], [ 842.0, 2414.0 ], [ 159.0, 2414.0 ], [ 0.0, 2768.0 ] ] ] } },
{ "type": "Feature", "properties": { "id": 229, "type": 4, "existence": true }, "geometry": { "type": "Polygon", "coordinates": [ [ [ 842.0, 2768.0 ], [ 1224.0, 2768.0 ], [ 1224.0, 2496.0 ], [ 1224.0, 2414.0 ], [ 842.0, 2414.0 ], [ 842.0, 2768.0 ] ] ] } },
{ "type": "Feature", "properties": { "id": 230, "type": 6, "existence": true }, "geometry": { "type": "Polygon", "coordinates": [ [ [ 1224.0, 2768.0 ], [ 1639.0, 2768.0 ], [ 1695.0, 2496.0 ], [ 1695.0, 2396.0 ], [ 1695.0, 2095.0 ], [ 1224.0, 2496.0 ], [ 1224.0, 2768.0 ] ] ] } },
{ "type": "Feature", "properties": { "id": 231, "type": 4, "existence": true }, "geometry": { "type": "Polygon", "coordinates": [ [ [ 1639.0, 2768.0 ], [ 1867.0, 2768.0 ], [ 1867.0, 2496.0 ], [ 1695.0, 2496.0 ], [ 1639.0, 2768.0 ] ] ] } },
{ "type": "Feature", "properties": { "id": 232, "type": 1, "existence": true }, "geometry": { "type": "Polygon", "coordinates": [ [ [ 1867.0, 2496.0 ], [ 1867.0, 2396.0 ], [ 1695.0, 2396.0 ], [ 1695.0, 2496.0 ], [ 1867.0, 2496.0 ] ] ] } },
{ "type": "Feature", "properties": { "id": 233, "type": 1, "existence": true }, "geometry": { "type": "Polygon", "coordinates": [ [ [ 1867.0, 2396.0 ], [ 1867.0, 1943.0 ], [ 1695.0, 2095.0 ], [ 1695.0, 2396.0 ], [ 1867.0, 2396.0 ] ] ] } },
{ "type": "Feature", "properties": { "id": 234, "type": 4, "existence": true }, "geometry": { "type": "Polygon", "coordinates": [ [ [ 1867.0, 1943.0 ], [ 1867.0, 1694.0 ], [ 1663.0, 1694.0 ], [ 1663.0, 1815.0 ], [ 1545.0, 1815.0 ], [ 1545.0, 1943.0 ], [ 1867.0, 1943.0 ] ] ] } },
{ "type": "Feature", "properties": { "id": 235, "type": 1, "existence": true }, "geometry": { "type": "Polygon", "coordinates": [ [ [ 1867.0, 1694.0 ], [ 1867.0, 1522.0 ], [ 1618.0, 1522.0 ], [ 1618.0, 1694.0 ], [ 1663.0, 1694.0 ], [ 1867.0, 1694.0 ] ] ] } },
{ "type": "Feature", "properties": { "id": 236, "type": 4, "existence": true }, "geometry": { "type": "Polygon", "coordinates": [ [ [ 1867.0, 1522.0 ], [ 1867.0, 1303.0 ], [ 1618.0, 1303.0 ], [ 1618.0, 1418.0 ], [ 1618.0, 1522.0 ], [ 1867.0, 1522.0 ] ] ] } },
{ "type": "Feature", "properties": { "id": 237, "type": 4, "existence": true }, "geometry": { "type": "Polygon", "coordinates": [ [ [ 1867.0, 1303.0 ], [ 1867.0, 1122.0 ], [ 1224.0, 1122.0 ], [ 1224.0, 1303.0 ], [ 1368.0, 1303.0 ], [ 1513.0, 1303.0 ], [ 1618.0, 1303.0 ], [ 1867.0, 1303.0 ] ] ] } },
{ "type": "Feature", "properties": { "id": 238, "type": 1, "existence": true }, "geometry": { "type": "Polygon", "coordinates": [ [ [ 1867.0, 1122.0 ], [ 1867.0, 942.0 ], [ 1463.0, 942.0 ], [ 1224.0, 942.0 ], [ 1224.0, 1122.0 ], [ 1867.0, 1122.0 ] ] ] } },
{ "type": "Feature", "properties": { "id": 239, "type": 1, "existence": true }, "geometry": { "type": "Polygon", "coordinates": [ [ [ 1867.0, 942.0 ], [ 1867.0, 758.0 ], [ 1535.0, 758.0 ], [ 1463.0, 758.0 ], [ 1463.0, 942.0 ], [ 1867.0, 942.0 ] ] ] } },
{ "type": "Feature", "properties": { "id": 240, "type": 4, "existence": true }, "geometry": { "type": "Polygon", "coordinates": [ [ [ 1867.0, 758.0 ], [ 1867.0, 490.0 ], [ 1535.0, 490.0 ], [ 1535.0, 758.0 ], [ 1867.0, 758.0 ] ] ] } },
{ "type": "Feature", "properties": { "id": 241, "type": 4, "existence": true }, "geometry": { "type": "Polygon", "coordinates": [ [ [ 1867.0, 490.0 ], [ 1867.0, 231.0 ], [ 1224.0, 231.0 ], [ 1224.0, 490.0 ], [ 1535.0, 490.0 ], [ 1867.0, 490.0 ] ] ] } },
{ "type": "Feature", "properties": { "id": 242, "type": 4, "existence": true }, "geometry": { "type": "Polygon", "coordinates": [ [ [ 1224.0, 2414.0 ], [ 1224.0, 2496.0 ], [ 1695.0, 2095.0 ], [ 1867.0, 1943.0 ], [ 1545.0, 1943.0 ], [ 1457.0, 1943.0 ], [ 1224.0, 1943.0 ], [ 1224.0, 2414.0 ] ] ] } },
{ "type": "Feature", "properties": { "id": 243, "type": 9, "existence": true }, "geometry": { "type": "Polygon", "coordinates": [ [ [ 1224.0, 2414.0 ], [ 1224.0, 1943.0 ], [ 1224.0, 1932.0 ], [ 842.0, 1932.0 ], [ 842.0, 2284.0 ], [ 842.0, 2414.0 ], [ 1224.0, 2414.0 ] ] ] } },
{ "type": "Feature", "properties": { "id": 244, "type": 4, "existence": true }, "geometry": { "type": "Polygon", "coordinates": [ [ [ 1224.0, 1932.0 ], [ 1224.0, 1943.0 ], [ 1457.0, 1943.0 ], [ 1457.0, 1785.0 ], [ 1368.0, 1785.0 ], [ 1224.0, 1785.0 ], [ 1224.0, 1932.0 ] ] ] } },
{ "type": "Feature", "properties": { "id": 245, "type": 1, "existence": true }, "geometry": { "type": "Polygon", "coordinates": [ [ [ 1224.0, 1932.0 ], [ 1224.0, 1785.0 ], [ 842.0, 1785.0 ], [ 842.0, 1932.0 ], [ 1224.0, 1932.0 ] ] ] } },
{ "type": "Feature", "properties": { "id": 246, "type": 4, "existence": true }, "geometry": { "type": "Polygon", "coordinates": [ [ [ 1224.0, 1785.0 ], [ 1224.0, 1522.0 ], [ 1033.0, 1522.0 ], [ 933.0, 1522.0 ], [ 842.0, 1522.0 ], [ 842.0, 1785.0 ], [ 1224.0, 1785.0 ] ] ] } },
{ "type": "Feature", "properties": { "id": 247, "type": 4, "existence": true }, "geometry": { "type": "Polygon", "coordinates": [ [ [ 1224.0, 1522.0 ], [ 1224.0, 1785.0 ], [ 1368.0, 1785.0 ], [ 1368.0, 1522.0 ], [ 1224.0, 1522.0 ] ] ] } },
{ "type": "Feature", "properties": { "id": 248, "type": 1, "existence": true }, "geometry": { "type": "Polygon", "coordinates": [ [ [ 1224.0, 1522.0 ], [ 1224.0, 1303.0 ], [ 1224.0, 1122.0 ], [ 1033.0, 1122.0 ], [ 1033.0, 1522.0 ], [ 1224.0, 1522.0 ] ] ] } },
{ "type": "Feature", "properties": { "id": 249, "type": 1, "existence": true }, "geometry": { "type": "Polygon", "coordinates": [ [ [ 1224.0, 1303.0 ], [ 1224.0, 1522.0 ], [ 1368.0, 1522.0 ], [ 1368.0, 1303.0 ], [ 1224.0, 1303.0 ] ] ] } },
{ "type": "Feature", "properties": { "id": 250, "type": 1, "existence": true }, "geometry": { "type": "Polygon", "coordinates": [ [ [ 1224.0, 1122.0 ], [ 1224.0, 942.0 ], [ 1224.0, 808.0 ], [ 933.0, 808.0 ], [ 933.0, 1122.0 ], [ 1033.0, 1122.0 ], [ 1224.0, 1122.0 ] ] ] } },
{ "type": "Feature", "properties": { "id": 251, "type": 4, "existence": true }, "geometry": { "type": "Polygon", "coordinates": [ [ [ 1224.0, 808.0 ], [ 1224.0, 942.0 ], [ 1463.0, 942.0 ], [ 1463.0, 758.0 ], [ 1373.0, 695.0 ], [ 1224.0, 695.0 ], [ 1224.0, 808.0 ] ] ] } },
{ "type": "Feature", "properties": { "id": 252, "type": 4, "existence": true }, "geometry": { "type": "Polygon", "coordinates": [ [ [ 1224.0, 808.0 ], [ 1224.0, 695.0 ], [ 1224.0, 490.0 ], [ 1224.0, 231.0 ], [ 573.0, 873.0 ], [ 573.0, 1122.0 ], [ 753.0, 1122.0 ], [ 933.0, 1122.0 ], [ 933.0, 808.0 ], [ 1224.0, 808.0 ] ] ] } },
{ "type": "Feature", "properties": { "id": 253, "type": 4, "existence": true }, "geometry": { "type": "Polygon", "coordinates": [ [ [ 1224.0, 490.0 ], [ 1224.0, 695.0 ], [ 1373.0, 695.0 ], [ 1463.0, 758.0 ], [ 1535.0, 758.0 ], [ 1535.0, 490.0 ], [ 1224.0, 490.0 ] ] ] } },
{ "type": "Feature", "properties": { "id": 254, "type": 4, "existence": true }, "geometry": { "type": "Polygon", "coordinates": [ [ [ 0.0, 1522.0 ], [ 233.0, 1522.0 ], [ 573.0, 1522.0 ], [ 573.0, 1322.0 ], [ 573.0, 1122.0 ], [ 573.0, 873.0 ], [ 0.0, 1522.0 ] ] ] } },
{ "type": "Feature", "properties": { "id": 255, "type": 1, "existence": true }, "geometry": { "type": "Polygon", "coordinates": [ [ [ 573.0, 1522.0 ], [ 233.0, 1522.0 ], [ 233.0, 1785.0 ], [ 407.0, 1785.0 ], [ 573.0, 1522.0 ] ] ] } },
{ "type": "Feature", "properties": { "id": 256, "type": 4, "existence": true }, "geometry": { "type": "Polygon", "coordinates": [ [ [ 573.0, 1522.0 ], [ 842.0, 1522.0 ], [ 933.0, 1522.0 ], [ 933.0, 1322.0 ], [ 753.0, 1322.0 ], [ 573.0, 1322.0 ], [ 573.0, 1522.0 ] ] ] } },
{ "type": "Feature", "properties": { "id": 257, "type": 1, "existence": true }, "geometry": { "type": "Polygon", "coordinates": [ [ [ 842.0, 1522.0 ], [ 573.0, 1522.0 ], [ 407.0, 1785.0 ], [ 842.0, 1785.0 ], [ 842.0, 1522.0 ] ] ] } },
{ "type": "Feature", "properties": { "id": 258, "type": 4, "existence": true }, "geometry": { "type": "Polygon", "coordinates": [ [ [ 933.0, 1522.0 ], [ 1033.0, 1522.0 ], [ 1033.0, 1122.0 ], [ 933.0, 1122.0 ], [ 933.0, 1322.0 ], [ 933.0, 1522.0 ] ] ] } },
{ "type": "Feature", "properties": { "id": 259, "type": 4, "existence": true }, "geometry": { "type": "Polygon", "coordinates": [ [ [ 1368.0, 1522.0 ], [ 1618.0, 1522.0 ], [ 1618.0, 1418.0 ], [ 1513.0, 1418.0 ], [ 1513.0, 1303.0 ], [ 1368.0, 1303.0 ], [ 1368.0, 1522.0 ] ] ] } },
{ "type": "Feature", "properties": { "id": 260, "type": 4, "existence": true }, "geometry": { "type": "Polygon", "coordinates": [ [ [ 1618.0, 1522.0 ], [ 1368.0, 1522.0 ], [ 1368.0, 1785.0 ], [ 1457.0, 1785.0 ], [ 1545.0, 1785.0 ], [ 1618.0, 1694.0 ], [ 1618.0, 1522.0 ] ] ] } },
{ "type": "Feature", "properties": { "id": 261, "type": 1, "existence": true }, "geometry": { "type": "Polygon", "coordinates": [ [ [ 159.0, 2414.0 ], [ 842.0, 2414.0 ], [ 842.0, 2284.0 ], [ 212.0, 2284.0 ], [ 159.0, 2414.0 ] ] ] } },
{ "type": "Feature", "properties": { "id": 262, "type": 1, "existence": true }, "geometry": { "type": "Polygon", "coordinates": [ [ [ 348.0, 1932.0 ], [ 842.0, 1932.0 ], [ 842.0, 1785.0 ], [ 407.0, 1785.0 ], [ 348.0, 1932.0 ] ] ] } },
{ "type": "Feature", "properties": { "id": 263, "type": 4, "existence": true }, "geometry": { "type": "Polygon", "coordinates": [ [ [ 842.0, 1932.0 ], [ 348.0, 1932.0 ], [ 212.0, 2284.0 ], [ 842.0, 2284.0 ], [ 842.0, 1932.0 ] ] ] } },
{ "type": "Feature", "properties": { "id": 264, "type": 1, "existence": true }, "geometry": { "type": "Polygon", "coordinates": [ [ [ 1545.0, 1785.0 ], [ 1457.0, 1785.0 ], [ 1457.0, 1943.0 ], [ 1545.0, 1943.0 ], [ 1545.0, 1815.0 ], [ 1545.0, 1785.0 ] ] ] } },
{ "type": "Feature", "properties": { "id": 265, "type": 1, "existence": true }, "geometry": { "type": "Polygon", "coordinates": [ [ [ 1618.0, 1694.0 ], [ 1545.0, 1785.0 ], [ 1545.0, 1815.0 ], [ 1663.0, 1815.0 ], [ 1663.0, 1694.0 ], [ 1618.0, 1694.0 ] ] ] } },
{ "type": "Feature", "properties": { "id": 266, "type": 1, "existence": true }, "geometry": { "type": "Polygon", "coordinates": [ [ [ 1618.0, 1303.0 ], [ 1513.0, 1303.0 ], [ 1513.0, 1418.0 ], [ 1618.0, 1418.0 ], [ 1618.0, 1303.0 ] ] ] } },
{ "type": "Feature", "properties": { "id": 267, "type": 1, "existence": true }, "geometry": { "type": "Polygon", "coordinates": [ [ [ 573.0, 1122.0 ], [ 573.0, 1322.0 ], [ 753.0, 1322.0 ], [ 753.0, 1122.0 ], [ 573.0, 1122.0 ] ] ] } },
{ "type": "Feature", "properties": { "id": 268, "type": 1, "existence": true }, "geometry": { "type": "Polygon", "coordinates": [ [ [ 933.0, 1122.0 ], [ 753.0, 1122.0 ], [ 753.0, 1322.0 ], [ 933.0, 1322.0 ], [ 933.0, 1122.0 ] ] ] } }
]
}
