{"type": "FeatureCollection", "features": [{"type": "Feature", "geometry": {"type": "Point", "coordinates": [0, 0]}, "properties": {"id": 1, "type": 13, "existence": true}}, {"type": "Feature", "geometry": {"type": "Point", "coordinates": [500, 0]}, "properties": {"id": 2, "type": 13, "existence": true}}, {"type": "Feature", "geometry": {"type": "Point", "coordinates": [500, 500]}, "properties": {"id": 3, "type": 13, "existence": true}}, {"type": "Feature", "geometry": {"type": "Point", "coordinates": [0, 500]}, "properties": {"id": 4, "type": 13, "existence": true}}, {"type": "Feature", "geometry": {"type": "LineString", "coordinates": [[0, 0], [500, 0]]}, "properties": {"id": 5, "type": 2, "existence": true}}, {"type": "Feature", "geometry": {"type": "LineString", "coordinates": [[500, 0], [500, 500]]}, "properties": {"id": 6, "type": 2, "existence": true}}, {"type": "Feature", "geometry": {"type": "LineString", "coordinates": [[500, 500], [0, 500]]}, "properties": {"id": 7, "type": 2, "existence": true}}, {"type": "Feature", "geometry": {"type": "LineString", "coordinates": [[0, 500], [0, 0]]}, "properties": {"id": 8, "type": 2, "existence": true}}, {"type": "Feature", "geometry": {"type": "Polygon", "coordinates": [[[0, 0], [500, 0], [500, 500], [0, 500], [0, 0]]]}, "properties": {"id": 9, "type": 1, "existence": true}}, {"type": "Feature", "geometry": {"type": "Point", "coordinates": [0, 500]}, "properties": {"id": 10, "type": 13, "existence": true}}, {"type": "Feature", "geometry": {"type": "Point", "coordinates": [500, 500]}, "properties": {"id": 11, "type": 13, "existence": true}}, {"type": "Feature", "geometry": {"type": "Point", "coordinates": [500, 1000]}, "properties": {"id": 12, "type": 13, "existence": true}}, {"type": "Feature", "geometry": {"type": "Point", "coordinates": [0, 1000]}, "properties": {"id": 13, "type": 13, "existence": true}}, {"type": "Feature", "geometry": {"type": "LineString", "coordinates": [[0, 500], [500, 500]]}, "properties": {"id": 14, "type": 2, "existence": true}}, {"type": "Feature", "geometry": {"type": "LineString", "coordinates": [[500, 500], [500, 1000]]}, "properties": {"id": 15, "type": 2, "existence": true}}, {"type": "Feature", "geometry": {"type": "LineString", "coordinates": [[500, 1000], [0, 1000]]}, "properties": {"id": 16, "type": 2, "existence": true}}, {"type": "Feature", "geometry": {"type": "LineString", "coordinates": [[0, 1000], [0, 500]]}, "properties": {"id": 17, "type": 2, "existence": true}}, {"type": "Feature", "geometry": {"type": "Polygon", "coordinates": [[[0, 500], [500, 500], [500, 1000], [0, 1000], [0, 500]]]}, "properties": {"id": 18, "type": 1, "existence": true}}, {"type": "Feature", "geometry": {"type": "Point", "coordinates": [0, 1000]}, "properties": {"id": 19, "type": 13, "existence": true}}, {"type": "Feature", "geometry": {"type": "Point", "coordinates": [500, 1000]}, "properties": {"id": 20, "type": 13, "existence": true}}, {"type": "Feature", "geometry": {"type": "Point", "coordinates": [500, 1500]}, "properties": {"id": 21, "type": 13, "existence": true}}, {"type": "Feature", "geometry": {"type": "Point", "coordinates": [0, 1500]}, "properties": {"id": 22, "type": 13, "existence": true}}, {"type": "Feature", "geometry": {"type": "LineString", "coordinates": [[0, 1000], [500, 1000]]}, "properties": {"id": 23, "type": 2, "existence": true}}, {"type": "Feature", "geometry": {"type": "LineString", "coordinates": [[500, 1000], [500, 1500]]}, "properties": {"id": 24, "type": 2, "existence": true}}, {"type": "Feature", "geometry": {"type": "LineString", "coordinates": [[500, 1500], [0, 1500]]}, "properties": {"id": 25, "type": 2, "existence": true}}, {"type": "Feature", "geometry": {"type": "LineString", "coordinates": [[0, 1500], [0, 1000]]}, "properties": {"id": 26, "type": 2, "existence": true}}, {"type": "Feature", "geometry": {"type": "Polygon", "coordinates": [[[0, 1000], [500, 1000], [500, 1500], [0, 1500], [0, 1000]]]}, "properties": {"id": 27, "type": 1, "existence": true}}, {"type": "Feature", "geometry": {"type": "Point", "coordinates": [0, 1500]}, "properties": {"id": 28, "type": 13, "existence": true}}, {"type": "Feature", "geometry": {"type": "Point", "coordinates": [500, 1500]}, "properties": {"id": 29, "type": 13, "existence": true}}, {"type": "Feature", "geometry": {"type": "Point", "coordinates": [500, 2000]}, "properties": {"id": 30, "type": 13, "existence": true}}, {"type": "Feature", "geometry": {"type": "Point", "coordinates": [0, 2000]}, "properties": {"id": 31, "type": 13, "existence": true}}, {"type": "Feature", "geometry": {"type": "LineString", "coordinates": [[0, 1500], [500, 1500]]}, "properties": {"id": 32, "type": 2, "existence": true}}, {"type": "Feature", "geometry": {"type": "LineString", "coordinates": [[500, 1500], [500, 2000]]}, "properties": {"id": 33, "type": 2, "existence": true}}, {"type": "Feature", "geometry": {"type": "LineString", "coordinates": [[500, 2000], [0, 2000]]}, "properties": {"id": 34, "type": 2, "existence": true}}, {"type": "Feature", "geometry": {"type": "LineString", "coordinates": [[0, 2000], [0, 1500]]}, "properties": {"id": 35, "type": 2, "existence": true}}, {"type": "Feature", "geometry": {"type": "Polygon", "coordinates": [[[0, 1500], [500, 1500], [500, 2000], [0, 2000], [0, 1500]]]}, "properties": {"id": 36, "type": 1, "existence": true}}, {"type": "Feature", "geometry": {"type": "Point", "coordinates": [0, 2000]}, "properties": {"id": 37, "type": 13, "existence": true}}, {"type": "Feature", "geometry": {"type": "Point", "coordinates": [500, 2000]}, "properties": {"id": 38, "type": 13, "existence": true}}, {"type": "Feature", "geometry": {"type": "Point", "coordinates": [500, 2500]}, "properties": {"id": 39, "type": 13, "existence": true}}, {"type": "Feature", "geometry": {"type": "Point", "coordinates": [0, 2500]}, "properties": {"id": 40, "type": 13, "existence": true}}, {"type": "Feature", "geometry": {"type": "LineString", "coordinates": [[0, 2000], [500, 2000]]}, "properties": {"id": 41, "type": 2, "existence": true}}, {"type": "Feature", "geometry": {"type": "LineString", "coordinates": [[500, 2000], [500, 2500]]}, "properties": {"id": 42, "type": 2, "existence": true}}, {"type": "Feature", "geometry": {"type": "LineString", "coordinates": [[500, 2500], [0, 2500]]}, "properties": {"id": 43, "type": 2, "existence": true}}, {"type": "Feature", "geometry": {"type": "LineString", "coordinates": [[0, 2500], [0, 2000]]}, "properties": {"id": 44, "type": 2, "existence": true}}, {"type": "Feature", "geometry": {"type": "Polygon", "coordinates": [[[0, 2000], [500, 2000], [500, 2500], [0, 2500], [0, 2000]]]}, "properties": {"id": 45, "type": 1, "existence": true}}, {"type": "Feature", "geometry": {"type": "Point", "coordinates": [0, 2500]}, "properties": {"id": 46, "type": 13, "existence": true}}, {"type": "Feature", "geometry": {"type": "Point", "coordinates": [500, 2500]}, "properties": {"id": 47, "type": 13, "existence": true}}, {"type": "Feature", "geometry": {"type": "Point", "coordinates": [500, 3000]}, "properties": {"id": 48, "type": 13, "existence": true}}, {"type": "Feature", "geometry": {"type": "Point", "coordinates": [0, 3000]}, "properties": {"id": 49, "type": 13, "existence": true}}, {"type": "Feature", "geometry": {"type": "LineString", "coordinates": [[0, 2500], [500, 2500]]}, "properties": {"id": 50, "type": 2, "existence": true}}, {"type": "Feature", "geometry": {"type": "LineString", "coordinates": [[500, 2500], [500, 3000]]}, "properties": {"id": 51, "type": 2, "existence": true}}, {"type": "Feature", "geometry": {"type": "LineString", "coordinates": [[500, 3000], [0, 3000]]}, "properties": {"id": 52, "type": 2, "existence": true}}, {"type": "Feature", "geometry": {"type": "LineString", "coordinates": [[0, 3000], [0, 2500]]}, "properties": {"id": 53, "type": 2, "existence": true}}, {"type": "Feature", "geometry": {"type": "Polygon", "coordinates": [[[0, 2500], [500, 2500], [500, 3000], [0, 3000], [0, 2500]]]}, "properties": {"id": 54, "type": 1, "existence": true}}, {"type": "Feature", "geometry": {"type": "Point", "coordinates": [500, 0]}, "properties": {"id": 55, "type": 13, "existence": true}}, {"type": "Feature", "geometry": {"type": "Point", "coordinates": [1000, 0]}, "properties": {"id": 56, "type": 13, "existence": true}}, {"type": "Feature", "geometry": {"type": "Point", "coordinates": [1000, 500]}, "properties": {"id": 57, "type": 13, "existence": true}}, {"type": "Feature", "geometry": {"type": "Point", "coordinates": [500, 500]}, "properties": {"id": 58, "type": 13, "existence": true}}, {"type": "Feature", "geometry": {"type": "LineString", "coordinates": [[500, 0], [1000, 0]]}, "properties": {"id": 59, "type": 2, "existence": true}}, {"type": "Feature", "geometry": {"type": "LineString", "coordinates": [[1000, 0], [1000, 500]]}, "properties": {"id": 60, "type": 2, "existence": true}}, {"type": "Feature", "geometry": {"type": "LineString", "coordinates": [[1000, 500], [500, 500]]}, "properties": {"id": 61, "type": 2, "existence": true}}, {"type": "Feature", "geometry": {"type": "LineString", "coordinates": [[500, 500], [500, 0]]}, "properties": {"id": 62, "type": 2, "existence": true}}, {"type": "Feature", "geometry": {"type": "Polygon", "coordinates": [[[500, 0], [1000, 0], [1000, 500], [500, 500], [500, 0]]]}, "properties": {"id": 63, "type": 1, "existence": true}}, {"type": "Feature", "geometry": {"type": "Point", "coordinates": [500, 500]}, "properties": {"id": 64, "type": 13, "existence": true}}, {"type": "Feature", "geometry": {"type": "Point", "coordinates": [1000, 500]}, "properties": {"id": 65, "type": 13, "existence": true}}, {"type": "Feature", "geometry": {"type": "Point", "coordinates": [1000, 1000]}, "properties": {"id": 66, "type": 13, "existence": true}}, {"type": "Feature", "geometry": {"type": "Point", "coordinates": [500, 1000]}, "properties": {"id": 67, "type": 13, "existence": true}}, {"type": "Feature", "geometry": {"type": "LineString", "coordinates": [[500, 500], [1000, 500]]}, "properties": {"id": 68, "type": 2, "existence": true}}, {"type": "Feature", "geometry": {"type": "LineString", "coordinates": [[1000, 500], [1000, 1000]]}, "properties": {"id": 69, "type": 2, "existence": true}}, {"type": "Feature", "geometry": {"type": "LineString", "coordinates": [[1000, 1000], [500, 1000]]}, "properties": {"id": 70, "type": 2, "existence": true}}, {"type": "Feature", "geometry": {"type": "LineString", "coordinates": [[500, 1000], [500, 500]]}, "properties": {"id": 71, "type": 2, "existence": true}}, {"type": "Feature", "geometry": {"type": "Polygon", "coordinates": [[[500, 500], [1000, 500], [1000, 1000], [500, 1000], [500, 500]]]}, "properties": {"id": 72, "type": 1, "existence": true}}, {"type": "Feature", "geometry": {"type": "Point", "coordinates": [500, 1000]}, "properties": {"id": 73, "type": 13, "existence": true}}, {"type": "Feature", "geometry": {"type": "Point", "coordinates": [1000, 1000]}, "properties": {"id": 74, "type": 13, "existence": true}}, {"type": "Feature", "geometry": {"type": "Point", "coordinates": [1000, 1500]}, "properties": {"id": 75, "type": 13, "existence": true}}, {"type": "Feature", "geometry": {"type": "Point", "coordinates": [500, 1500]}, "properties": {"id": 76, "type": 13, "existence": true}}, {"type": "Feature", "geometry": {"type": "LineString", "coordinates": [[500, 1000], [1000, 1000]]}, "properties": {"id": 77, "type": 2, "existence": true}}, {"type": "Feature", "geometry": {"type": "LineString", "coordinates": [[1000, 1000], [1000, 1500]]}, "properties": {"id": 78, "type": 2, "existence": true}}, {"type": "Feature", "geometry": {"type": "LineString", "coordinates": [[1000, 1500], [500, 1500]]}, "properties": {"id": 79, "type": 2, "existence": true}}, {"type": "Feature", "geometry": {"type": "LineString", "coordinates": [[500, 1500], [500, 1000]]}, "properties": {"id": 80, "type": 2, "existence": true}}, {"type": "Feature", "geometry": {"type": "Polygon", "coordinates": [[[500, 1000], [1000, 1000], [1000, 1500], [500, 1500], [500, 1000]]]}, "properties": {"id": 81, "type": 1, "existence": true}}, {"type": "Feature", "geometry": {"type": "Point", "coordinates": [500, 1500]}, "properties": {"id": 82, "type": 13, "existence": true}}, {"type": "Feature", "geometry": {"type": "Point", "coordinates": [1000, 1500]}, "properties": {"id": 83, "type": 13, "existence": true}}, {"type": "Feature", "geometry": {"type": "Point", "coordinates": [1000, 2000]}, "properties": {"id": 84, "type": 13, "existence": true}}, {"type": "Feature", "geometry": {"type": "Point", "coordinates": [500, 2000]}, "properties": {"id": 85, "type": 13, "existence": true}}, {"type": "Feature", "geometry": {"type": "LineString", "coordinates": [[500, 1500], [1000, 1500]]}, "properties": {"id": 86, "type": 2, "existence": true}}, {"type": "Feature", "geometry": {"type": "LineString", "coordinates": [[1000, 1500], [1000, 2000]]}, "properties": {"id": 87, "type": 2, "existence": true}}, {"type": "Feature", "geometry": {"type": "LineString", "coordinates": [[1000, 2000], [500, 2000]]}, "properties": {"id": 88, "type": 2, "existence": true}}, {"type": "Feature", "geometry": {"type": "LineString", "coordinates": [[500, 2000], [500, 1500]]}, "properties": {"id": 89, "type": 2, "existence": true}}, {"type": "Feature", "geometry": {"type": "Polygon", "coordinates": [[[500, 1500], [1000, 1500], [1000, 2000], [500, 2000], [500, 1500]]]}, "properties": {"id": 90, "type": 1, "existence": true}}, {"type": "Feature", "geometry": {"type": "Point", "coordinates": [500, 2000]}, "properties": {"id": 91, "type": 13, "existence": true}}, {"type": "Feature", "geometry": {"type": "Point", "coordinates": [1000, 2000]}, "properties": {"id": 92, "type": 13, "existence": true}}, {"type": "Feature", "geometry": {"type": "Point", "coordinates": [1000, 2500]}, "properties": {"id": 93, "type": 13, "existence": true}}, {"type": "Feature", "geometry": {"type": "Point", "coordinates": [500, 2500]}, "properties": {"id": 94, "type": 13, "existence": true}}, {"type": "Feature", "geometry": {"type": "LineString", "coordinates": [[500, 2000], [1000, 2000]]}, "properties": {"id": 95, "type": 2, "existence": true}}, {"type": "Feature", "geometry": {"type": "LineString", "coordinates": [[1000, 2000], [1000, 2500]]}, "properties": {"id": 96, "type": 2, "existence": true}}, {"type": "Feature", "geometry": {"type": "LineString", "coordinates": [[1000, 2500], [500, 2500]]}, "properties": {"id": 97, "type": 2, "existence": true}}, {"type": "Feature", "geometry": {"type": "LineString", "coordinates": [[500, 2500], [500, 2000]]}, "properties": {"id": 98, "type": 2, "existence": true}}, {"type": "Feature", "geometry": {"type": "Polygon", "coordinates": [[[500, 2000], [1000, 2000], [1000, 2500], [500, 2500], [500, 2000]]]}, "properties": {"id": 99, "type": 1, "existence": true}}, {"type": "Feature", "geometry": {"type": "Point", "coordinates": [500, 2500]}, "properties": {"id": 100, "type": 13, "existence": true}}, {"type": "Feature", "geometry": {"type": "Point", "coordinates": [1000, 2500]}, "properties": {"id": 101, "type": 13, "existence": true}}, {"type": "Feature", "geometry": {"type": "Point", "coordinates": [1000, 3000]}, "properties": {"id": 102, "type": 13, "existence": true}}, {"type": "Feature", "geometry": {"type": "Point", "coordinates": [500, 3000]}, "properties": {"id": 103, "type": 13, "existence": true}}, {"type": "Feature", "geometry": {"type": "LineString", "coordinates": [[500, 2500], [1000, 2500]]}, "properties": {"id": 104, "type": 2, "existence": true}}, {"type": "Feature", "geometry": {"type": "LineString", "coordinates": [[1000, 2500], [1000, 3000]]}, "properties": {"id": 105, "type": 2, "existence": true}}, {"type": "Feature", "geometry": {"type": "LineString", "coordinates": [[1000, 3000], [500, 3000]]}, "properties": {"id": 106, "type": 2, "existence": true}}, {"type": "Feature", "geometry": {"type": "LineString", "coordinates": [[500, 3000], [500, 2500]]}, "properties": {"id": 107, "type": 2, "existence": true}}, {"type": "Feature", "geometry": {"type": "Polygon", "coordinates": [[[500, 2500], [1000, 2500], [1000, 3000], [500, 3000], [500, 2500]]]}, "properties": {"id": 108, "type": 1, "existence": true}}, {"type": "Feature", "geometry": {"type": "Point", "coordinates": [1000, 0]}, "properties": {"id": 109, "type": 13, "existence": true}}, {"type": "Feature", "geometry": {"type": "Point", "coordinates": [1500, 0]}, "properties": {"id": 110, "type": 13, "existence": true}}, {"type": "Feature", "geometry": {"type": "Point", "coordinates": [1500, 500]}, "properties": {"id": 111, "type": 13, "existence": true}}, {"type": "Feature", "geometry": {"type": "Point", "coordinates": [1000, 500]}, "properties": {"id": 112, "type": 13, "existence": true}}, {"type": "Feature", "geometry": {"type": "LineString", "coordinates": [[1000, 0], [1500, 0]]}, "properties": {"id": 113, "type": 2, "existence": true}}, {"type": "Feature", "geometry": {"type": "LineString", "coordinates": [[1500, 0], [1500, 500]]}, "properties": {"id": 114, "type": 2, "existence": true}}, {"type": "Feature", "geometry": {"type": "LineString", "coordinates": [[1500, 500], [1000, 500]]}, "properties": {"id": 115, "type": 2, "existence": true}}, {"type": "Feature", "geometry": {"type": "LineString", "coordinates": [[1000, 500], [1000, 0]]}, "properties": {"id": 116, "type": 2, "existence": true}}, {"type": "Feature", "geometry": {"type": "Polygon", "coordinates": [[[1000, 0], [1500, 0], [1500, 500], [1000, 500], [1000, 0]]]}, "properties": {"id": 117, "type": 1, "existence": true}}, {"type": "Feature", "geometry": {"type": "Point", "coordinates": [1000, 500]}, "properties": {"id": 118, "type": 13, "existence": true}}, {"type": "Feature", "geometry": {"type": "Point", "coordinates": [1500, 500]}, "properties": {"id": 119, "type": 13, "existence": true}}, {"type": "Feature", "geometry": {"type": "Point", "coordinates": [1500, 1000]}, "properties": {"id": 120, "type": 13, "existence": true}}, {"type": "Feature", "geometry": {"type": "Point", "coordinates": [1000, 1000]}, "properties": {"id": 121, "type": 13, "existence": true}}, {"type": "Feature", "geometry": {"type": "LineString", "coordinates": [[1000, 500], [1500, 500]]}, "properties": {"id": 122, "type": 2, "existence": true}}, {"type": "Feature", "geometry": {"type": "LineString", "coordinates": [[1500, 500], [1500, 1000]]}, "properties": {"id": 123, "type": 2, "existence": true}}, {"type": "Feature", "geometry": {"type": "LineString", "coordinates": [[1500, 1000], [1000, 1000]]}, "properties": {"id": 124, "type": 2, "existence": true}}, {"type": "Feature", "geometry": {"type": "LineString", "coordinates": [[1000, 1000], [1000, 500]]}, "properties": {"id": 125, "type": 2, "existence": true}}, {"type": "Feature", "geometry": {"type": "Polygon", "coordinates": [[[1000, 500], [1500, 500], [1500, 1000], [1000, 1000], [1000, 500]]]}, "properties": {"id": 126, "type": 1, "existence": true}}, {"type": "Feature", "geometry": {"type": "Point", "coordinates": [1000, 1000]}, "properties": {"id": 127, "type": 13, "existence": true}}, {"type": "Feature", "geometry": {"type": "Point", "coordinates": [1500, 1000]}, "properties": {"id": 128, "type": 13, "existence": true}}, {"type": "Feature", "geometry": {"type": "Point", "coordinates": [1500, 1500]}, "properties": {"id": 129, "type": 13, "existence": true}}, {"type": "Feature", "geometry": {"type": "Point", "coordinates": [1000, 1500]}, "properties": {"id": 130, "type": 13, "existence": true}}, {"type": "Feature", "geometry": {"type": "LineString", "coordinates": [[1000, 1000], [1500, 1000]]}, "properties": {"id": 131, "type": 2, "existence": true}}, {"type": "Feature", "geometry": {"type": "LineString", "coordinates": [[1500, 1000], [1500, 1500]]}, "properties": {"id": 132, "type": 2, "existence": true}}, {"type": "Feature", "geometry": {"type": "LineString", "coordinates": [[1500, 1500], [1000, 1500]]}, "properties": {"id": 133, "type": 2, "existence": true}}, {"type": "Feature", "geometry": {"type": "LineString", "coordinates": [[1000, 1500], [1000, 1000]]}, "properties": {"id": 134, "type": 2, "existence": true}}, {"type": "Feature", "geometry": {"type": "Polygon", "coordinates": [[[1000, 1000], [1500, 1000], [1500, 1500], [1000, 1500], [1000, 1000]]]}, "properties": {"id": 135, "type": 1, "existence": true}}, {"type": "Feature", "geometry": {"type": "Point", "coordinates": [1000, 1500]}, "properties": {"id": 136, "type": 13, "existence": true}}, {"type": "Feature", "geometry": {"type": "Point", "coordinates": [1500, 1500]}, "properties": {"id": 137, "type": 13, "existence": true}}, {"type": "Feature", "geometry": {"type": "Point", "coordinates": [1500, 2000]}, "properties": {"id": 138, "type": 13, "existence": true}}, {"type": "Feature", "geometry": {"type": "Point", "coordinates": [1000, 2000]}, "properties": {"id": 139, "type": 13, "existence": true}}, {"type": "Feature", "geometry": {"type": "LineString", "coordinates": [[1000, 1500], [1500, 1500]]}, "properties": {"id": 140, "type": 2, "existence": true}}, {"type": "Feature", "geometry": {"type": "LineString", "coordinates": [[1500, 1500], [1500, 2000]]}, "properties": {"id": 141, "type": 2, "existence": true}}, {"type": "Feature", "geometry": {"type": "LineString", "coordinates": [[1500, 2000], [1000, 2000]]}, "properties": {"id": 142, "type": 2, "existence": true}}, {"type": "Feature", "geometry": {"type": "LineString", "coordinates": [[1000, 2000], [1000, 1500]]}, "properties": {"id": 143, "type": 2, "existence": true}}, {"type": "Feature", "geometry": {"type": "Polygon", "coordinates": [[[1000, 1500], [1500, 1500], [1500, 2000], [1000, 2000], [1000, 1500]]]}, "properties": {"id": 144, "type": 1, "existence": true}}, {"type": "Feature", "geometry": {"type": "Point", "coordinates": [1000, 2000]}, "properties": {"id": 145, "type": 13, "existence": true}}, {"type": "Feature", "geometry": {"type": "Point", "coordinates": [1500, 2000]}, "properties": {"id": 146, "type": 13, "existence": true}}, {"type": "Feature", "geometry": {"type": "Point", "coordinates": [1500, 2500]}, "properties": {"id": 147, "type": 13, "existence": true}}, {"type": "Feature", "geometry": {"type": "Point", "coordinates": [1000, 2500]}, "properties": {"id": 148, "type": 13, "existence": true}}, {"type": "Feature", "geometry": {"type": "LineString", "coordinates": [[1000, 2000], [1500, 2000]]}, "properties": {"id": 149, "type": 2, "existence": true}}, {"type": "Feature", "geometry": {"type": "LineString", "coordinates": [[1500, 2000], [1500, 2500]]}, "properties": {"id": 150, "type": 2, "existence": true}}, {"type": "Feature", "geometry": {"type": "LineString", "coordinates": [[1500, 2500], [1000, 2500]]}, "properties": {"id": 151, "type": 2, "existence": true}}, {"type": "Feature", "geometry": {"type": "LineString", "coordinates": [[1000, 2500], [1000, 2000]]}, "properties": {"id": 152, "type": 2, "existence": true}}, {"type": "Feature", "geometry": {"type": "Polygon", "coordinates": [[[1000, 2000], [1500, 2000], [1500, 2500], [1000, 2500], [1000, 2000]]]}, "properties": {"id": 153, "type": 1, "existence": true}}, {"type": "Feature", "geometry": {"type": "Point", "coordinates": [1000, 2500]}, "properties": {"id": 154, "type": 13, "existence": true}}, {"type": "Feature", "geometry": {"type": "Point", "coordinates": [1500, 2500]}, "properties": {"id": 155, "type": 13, "existence": true}}, {"type": "Feature", "geometry": {"type": "Point", "coordinates": [1500, 3000]}, "properties": {"id": 156, "type": 13, "existence": true}}, {"type": "Feature", "geometry": {"type": "Point", "coordinates": [1000, 3000]}, "properties": {"id": 157, "type": 13, "existence": true}}, {"type": "Feature", "geometry": {"type": "LineString", "coordinates": [[1000, 2500], [1500, 2500]]}, "properties": {"id": 158, "type": 2, "existence": true}}, {"type": "Feature", "geometry": {"type": "LineString", "coordinates": [[1500, 2500], [1500, 3000]]}, "properties": {"id": 159, "type": 2, "existence": true}}, {"type": "Feature", "geometry": {"type": "LineString", "coordinates": [[1500, 3000], [1000, 3000]]}, "properties": {"id": 160, "type": 2, "existence": true}}, {"type": "Feature", "geometry": {"type": "LineString", "coordinates": [[1000, 3000], [1000, 2500]]}, "properties": {"id": 161, "type": 2, "existence": true}}, {"type": "Feature", "geometry": {"type": "Polygon", "coordinates": [[[1000, 2500], [1500, 2500], [1500, 3000], [1000, 3000], [1000, 2500]]]}, "properties": {"id": 162, "type": 1, "existence": true}}, {"type": "Feature", "geometry": {"type": "Point", "coordinates": [1500, 0]}, "properties": {"id": 163, "type": 13, "existence": true}}, {"type": "Feature", "geometry": {"type": "Point", "coordinates": [2000, 0]}, "properties": {"id": 164, "type": 13, "existence": true}}, {"type": "Feature", "geometry": {"type": "Point", "coordinates": [2000, 500]}, "properties": {"id": 165, "type": 13, "existence": true}}, {"type": "Feature", "geometry": {"type": "Point", "coordinates": [1500, 500]}, "properties": {"id": 166, "type": 13, "existence": true}}, {"type": "Feature", "geometry": {"type": "LineString", "coordinates": [[1500, 0], [2000, 0]]}, "properties": {"id": 167, "type": 2, "existence": true}}, {"type": "Feature", "geometry": {"type": "LineString", "coordinates": [[2000, 0], [2000, 500]]}, "properties": {"id": 168, "type": 2, "existence": true}}, {"type": "Feature", "geometry": {"type": "LineString", "coordinates": [[2000, 500], [1500, 500]]}, "properties": {"id": 169, "type": 2, "existence": true}}, {"type": "Feature", "geometry": {"type": "LineString", "coordinates": [[1500, 500], [1500, 0]]}, "properties": {"id": 170, "type": 2, "existence": true}}, {"type": "Feature", "geometry": {"type": "Polygon", "coordinates": [[[1500, 0], [2000, 0], [2000, 500], [1500, 500], [1500, 0]]]}, "properties": {"id": 171, "type": 1, "existence": true}}, {"type": "Feature", "geometry": {"type": "Point", "coordinates": [1500, 500]}, "properties": {"id": 172, "type": 13, "existence": true}}, {"type": "Feature", "geometry": {"type": "Point", "coordinates": [2000, 500]}, "properties": {"id": 173, "type": 13, "existence": true}}, {"type": "Feature", "geometry": {"type": "Point", "coordinates": [2000, 1000]}, "properties": {"id": 174, "type": 13, "existence": true}}, {"type": "Feature", "geometry": {"type": "Point", "coordinates": [1500, 1000]}, "properties": {"id": 175, "type": 13, "existence": true}}, {"type": "Feature", "geometry": {"type": "LineString", "coordinates": [[1500, 500], [2000, 500]]}, "properties": {"id": 176, "type": 2, "existence": true}}, {"type": "Feature", "geometry": {"type": "LineString", "coordinates": [[2000, 500], [2000, 1000]]}, "properties": {"id": 177, "type": 2, "existence": true}}, {"type": "Feature", "geometry": {"type": "LineString", "coordinates": [[2000, 1000], [1500, 1000]]}, "properties": {"id": 178, "type": 2, "existence": true}}, {"type": "Feature", "geometry": {"type": "LineString", "coordinates": [[1500, 1000], [1500, 500]]}, "properties": {"id": 179, "type": 2, "existence": true}}, {"type": "Feature", "geometry": {"type": "Polygon", "coordinates": [[[1500, 500], [2000, 500], [2000, 1000], [1500, 1000], [1500, 500]]]}, "properties": {"id": 180, "type": 1, "existence": true}}, {"type": "Feature", "geometry": {"type": "Point", "coordinates": [1500, 1000]}, "properties": {"id": 181, "type": 13, "existence": true}}, {"type": "Feature", "geometry": {"type": "Point", "coordinates": [2000, 1000]}, "properties": {"id": 182, "type": 13, "existence": true}}, {"type": "Feature", "geometry": {"type": "Point", "coordinates": [2000, 1500]}, "properties": {"id": 183, "type": 13, "existence": true}}, {"type": "Feature", "geometry": {"type": "Point", "coordinates": [1500, 1500]}, "properties": {"id": 184, "type": 13, "existence": true}}, {"type": "Feature", "geometry": {"type": "LineString", "coordinates": [[1500, 1000], [2000, 1000]]}, "properties": {"id": 185, "type": 2, "existence": true}}, {"type": "Feature", "geometry": {"type": "LineString", "coordinates": [[2000, 1000], [2000, 1500]]}, "properties": {"id": 186, "type": 2, "existence": true}}, {"type": "Feature", "geometry": {"type": "LineString", "coordinates": [[2000, 1500], [1500, 1500]]}, "properties": {"id": 187, "type": 2, "existence": true}}, {"type": "Feature", "geometry": {"type": "LineString", "coordinates": [[1500, 1500], [1500, 1000]]}, "properties": {"id": 188, "type": 2, "existence": true}}, {"type": "Feature", "geometry": {"type": "Polygon", "coordinates": [[[1500, 1000], [2000, 1000], [2000, 1500], [1500, 1500], [1500, 1000]]]}, "properties": {"id": 189, "type": 1, "existence": true}}, {"type": "Feature", "geometry": {"type": "Point", "coordinates": [1500, 1500]}, "properties": {"id": 190, "type": 13, "existence": true}}, {"type": "Feature", "geometry": {"type": "Point", "coordinates": [2000, 1500]}, "properties": {"id": 191, "type": 13, "existence": true}}, {"type": "Feature", "geometry": {"type": "Point", "coordinates": [2000, 2000]}, "properties": {"id": 192, "type": 13, "existence": true}}, {"type": "Feature", "geometry": {"type": "Point", "coordinates": [1500, 2000]}, "properties": {"id": 193, "type": 13, "existence": true}}, {"type": "Feature", "geometry": {"type": "LineString", "coordinates": [[1500, 1500], [2000, 1500]]}, "properties": {"id": 194, "type": 2, "existence": true}}, {"type": "Feature", "geometry": {"type": "LineString", "coordinates": [[2000, 1500], [2000, 2000]]}, "properties": {"id": 195, "type": 2, "existence": true}}, {"type": "Feature", "geometry": {"type": "LineString", "coordinates": [[2000, 2000], [1500, 2000]]}, "properties": {"id": 196, "type": 2, "existence": true}}, {"type": "Feature", "geometry": {"type": "LineString", "coordinates": [[1500, 2000], [1500, 1500]]}, "properties": {"id": 197, "type": 2, "existence": true}}, {"type": "Feature", "geometry": {"type": "Polygon", "coordinates": [[[1500, 1500], [2000, 1500], [2000, 2000], [1500, 2000], [1500, 1500]]]}, "properties": {"id": 198, "type": 1, "existence": true}}, {"type": "Feature", "geometry": {"type": "Point", "coordinates": [1500, 2000]}, "properties": {"id": 199, "type": 13, "existence": true}}, {"type": "Feature", "geometry": {"type": "Point", "coordinates": [2000, 2000]}, "properties": {"id": 200, "type": 13, "existence": true}}, {"type": "Feature", "geometry": {"type": "Point", "coordinates": [2000, 2500]}, "properties": {"id": 201, "type": 13, "existence": true}}, {"type": "Feature", "geometry": {"type": "Point", "coordinates": [1500, 2500]}, "properties": {"id": 202, "type": 13, "existence": true}}, {"type": "Feature", "geometry": {"type": "LineString", "coordinates": [[1500, 2000], [2000, 2000]]}, "properties": {"id": 203, "type": 2, "existence": true}}, {"type": "Feature", "geometry": {"type": "LineString", "coordinates": [[2000, 2000], [2000, 2500]]}, "properties": {"id": 204, "type": 2, "existence": true}}, {"type": "Feature", "geometry": {"type": "LineString", "coordinates": [[2000, 2500], [1500, 2500]]}, "properties": {"id": 205, "type": 2, "existence": true}}, {"type": "Feature", "geometry": {"type": "LineString", "coordinates": [[1500, 2500], [1500, 2000]]}, "properties": {"id": 206, "type": 2, "existence": true}}, {"type": "Feature", "geometry": {"type": "Polygon", "coordinates": [[[1500, 2000], [2000, 2000], [2000, 2500], [1500, 2500], [1500, 2000]]]}, "properties": {"id": 207, "type": 1, "existence": true}}, {"type": "Feature", "geometry": {"type": "Point", "coordinates": [1500, 2500]}, "properties": {"id": 208, "type": 13, "existence": true}}, {"type": "Feature", "geometry": {"type": "Point", "coordinates": [2000, 2500]}, "properties": {"id": 209, "type": 13, "existence": true}}, {"type": "Feature", "geometry": {"type": "Point", "coordinates": [2000, 3000]}, "properties": {"id": 210, "type": 13, "existence": true}}, {"type": "Feature", "geometry": {"type": "Point", "coordinates": [1500, 3000]}, "properties": {"id": 211, "type": 13, "existence": true}}, {"type": "Feature", "geometry": {"type": "LineString", "coordinates": [[1500, 2500], [2000, 2500]]}, "properties": {"id": 212, "type": 2, "existence": true}}, {"type": "Feature", "geometry": {"type": "LineString", "coordinates": [[2000, 2500], [2000, 3000]]}, "properties": {"id": 213, "type": 2, "existence": true}}, {"type": "Feature", "geometry": {"type": "LineString", "coordinates": [[2000, 3000], [1500, 3000]]}, "properties": {"id": 214, "type": 2, "existence": true}}, {"type": "Feature", "geometry": {"type": "LineString", "coordinates": [[1500, 3000], [1500, 2500]]}, "properties": {"id": 215, "type": 2, "existence": true}}, {"type": "Feature", "geometry": {"type": "Polygon", "coordinates": [[[1500, 2500], [2000, 2500], [2000, 3000], [1500, 3000], [1500, 2500]]]}, "properties": {"id": 216, "type": 1, "existence": true}}, {"type": "Feature", "geometry": {"type": "Point", "coordinates": [2000, 0]}, "properties": {"id": 217, "type": 13, "existence": true}}, {"type": "Feature", "geometry": {"type": "Point", "coordinates": [2500, 0]}, "properties": {"id": 218, "type": 13, "existence": true}}, {"type": "Feature", "geometry": {"type": "Point", "coordinates": [2500, 500]}, "properties": {"id": 219, "type": 13, "existence": true}}, {"type": "Feature", "geometry": {"type": "Point", "coordinates": [2000, 500]}, "properties": {"id": 220, "type": 13, "existence": true}}, {"type": "Feature", "geometry": {"type": "LineString", "coordinates": [[2000, 0], [2500, 0]]}, "properties": {"id": 221, "type": 2, "existence": true}}, {"type": "Feature", "geometry": {"type": "LineString", "coordinates": [[2500, 0], [2500, 500]]}, "properties": {"id": 222, "type": 2, "existence": true}}, {"type": "Feature", "geometry": {"type": "LineString", "coordinates": [[2500, 500], [2000, 500]]}, "properties": {"id": 223, "type": 2, "existence": true}}, {"type": "Feature", "geometry": {"type": "LineString", "coordinates": [[2000, 500], [2000, 0]]}, "properties": {"id": 224, "type": 2, "existence": true}}, {"type": "Feature", "geometry": {"type": "Polygon", "coordinates": [[[2000, 0], [2500, 0], [2500, 500], [2000, 500], [2000, 0]]]}, "properties": {"id": 225, "type": 1, "existence": true}}, {"type": "Feature", "geometry": {"type": "Point", "coordinates": [2000, 500]}, "properties": {"id": 226, "type": 13, "existence": true}}, {"type": "Feature", "geometry": {"type": "Point", "coordinates": [2500, 500]}, "properties": {"id": 227, "type": 13, "existence": true}}, {"type": "Feature", "geometry": {"type": "Point", "coordinates": [2500, 1000]}, "properties": {"id": 228, "type": 13, "existence": true}}, {"type": "Feature", "geometry": {"type": "Point", "coordinates": [2000, 1000]}, "properties": {"id": 229, "type": 13, "existence": true}}, {"type": "Feature", "geometry": {"type": "LineString", "coordinates": [[2000, 500], [2500, 500]]}, "properties": {"id": 230, "type": 2, "existence": true}}, {"type": "Feature", "geometry": {"type": "LineString", "coordinates": [[2500, 500], [2500, 1000]]}, "properties": {"id": 231, "type": 2, "existence": true}}, {"type": "Feature", "geometry": {"type": "LineString", "coordinates": [[2500, 1000], [2000, 1000]]}, "properties": {"id": 232, "type": 2, "existence": true}}, {"type": "Feature", "geometry": {"type": "LineString", "coordinates": [[2000, 1000], [2000, 500]]}, "properties": {"id": 233, "type": 2, "existence": true}}, {"type": "Feature", "geometry": {"type": "Polygon", "coordinates": [[[2000, 500], [2500, 500], [2500, 1000], [2000, 1000], [2000, 500]]]}, "properties": {"id": 234, "type": 1, "existence": true}}, {"type": "Feature", "geometry": {"type": "Point", "coordinates": [2000, 1000]}, "properties": {"id": 235, "type": 13, "existence": true}}, {"type": "Feature", "geometry": {"type": "Point", "coordinates": [2500, 1000]}, "properties": {"id": 236, "type": 13, "existence": true}}, {"type": "Feature", "geometry": {"type": "Point", "coordinates": [2500, 1500]}, "properties": {"id": 237, "type": 13, "existence": true}}, {"type": "Feature", "geometry": {"type": "Point", "coordinates": [2000, 1500]}, "properties": {"id": 238, "type": 13, "existence": true}}, {"type": "Feature", "geometry": {"type": "LineString", "coordinates": [[2000, 1000], [2500, 1000]]}, "properties": {"id": 239, "type": 2, "existence": true}}, {"type": "Feature", "geometry": {"type": "LineString", "coordinates": [[2500, 1000], [2500, 1500]]}, "properties": {"id": 240, "type": 2, "existence": true}}, {"type": "Feature", "geometry": {"type": "LineString", "coordinates": [[2500, 1500], [2000, 1500]]}, "properties": {"id": 241, "type": 2, "existence": true}}, {"type": "Feature", "geometry": {"type": "LineString", "coordinates": [[2000, 1500], [2000, 1000]]}, "properties": {"id": 242, "type": 2, "existence": true}}, {"type": "Feature", "geometry": {"type": "Polygon", "coordinates": [[[2000, 1000], [2500, 1000], [2500, 1500], [2000, 1500], [2000, 1000]]]}, "properties": {"id": 243, "type": 1, "existence": true}}, {"type": "Feature", "geometry": {"type": "Point", "coordinates": [2000, 1500]}, "properties": {"id": 244, "type": 13, "existence": true}}, {"type": "Feature", "geometry": {"type": "Point", "coordinates": [2500, 1500]}, "properties": {"id": 245, "type": 13, "existence": true}}, {"type": "Feature", "geometry": {"type": "Point", "coordinates": [2500, 2000]}, "properties": {"id": 246, "type": 13, "existence": true}}, {"type": "Feature", "geometry": {"type": "Point", "coordinates": [2000, 2000]}, "properties": {"id": 247, "type": 13, "existence": true}}, {"type": "Feature", "geometry": {"type": "LineString", "coordinates": [[2000, 1500], [2500, 1500]]}, "properties": {"id": 248, "type": 2, "existence": true}}, {"type": "Feature", "geometry": {"type": "LineString", "coordinates": [[2500, 1500], [2500, 2000]]}, "properties": {"id": 249, "type": 2, "existence": true}}, {"type": "Feature", "geometry": {"type": "LineString", "coordinates": [[2500, 2000], [2000, 2000]]}, "properties": {"id": 250, "type": 2, "existence": true}}, {"type": "Feature", "geometry": {"type": "LineString", "coordinates": [[2000, 2000], [2000, 1500]]}, "properties": {"id": 251, "type": 2, "existence": true}}, {"type": "Feature", "geometry": {"type": "Polygon", "coordinates": [[[2000, 1500], [2500, 1500], [2500, 2000], [2000, 2000], [2000, 1500]]]}, "properties": {"id": 252, "type": 1, "existence": true}}, {"type": "Feature", "geometry": {"type": "Point", "coordinates": [2000, 2000]}, "properties": {"id": 253, "type": 13, "existence": true}}, {"type": "Feature", "geometry": {"type": "Point", "coordinates": [2500, 2000]}, "properties": {"id": 254, "type": 13, "existence": true}}, {"type": "Feature", "geometry": {"type": "Point", "coordinates": [2500, 2500]}, "properties": {"id": 255, "type": 13, "existence": true}}, {"type": "Feature", "geometry": {"type": "Point", "coordinates": [2000, 2500]}, "properties": {"id": 256, "type": 13, "existence": true}}, {"type": "Feature", "geometry": {"type": "LineString", "coordinates": [[2000, 2000], [2500, 2000]]}, "properties": {"id": 257, "type": 2, "existence": true}}, {"type": "Feature", "geometry": {"type": "LineString", "coordinates": [[2500, 2000], [2500, 2500]]}, "properties": {"id": 258, "type": 2, "existence": true}}, {"type": "Feature", "geometry": {"type": "LineString", "coordinates": [[2500, 2500], [2000, 2500]]}, "properties": {"id": 259, "type": 2, "existence": true}}, {"type": "Feature", "geometry": {"type": "LineString", "coordinates": [[2000, 2500], [2000, 2000]]}, "properties": {"id": 260, "type": 2, "existence": true}}, {"type": "Feature", "geometry": {"type": "Polygon", "coordinates": [[[2000, 2000], [2500, 2000], [2500, 2500], [2000, 2500], [2000, 2000]]]}, "properties": {"id": 261, "type": 1, "existence": true}}, {"type": "Feature", "geometry": {"type": "Point", "coordinates": [2000, 2500]}, "properties": {"id": 262, "type": 13, "existence": true}}, {"type": "Feature", "geometry": {"type": "Point", "coordinates": [2500, 2500]}, "properties": {"id": 263, "type": 13, "existence": true}}, {"type": "Feature", "geometry": {"type": "Point", "coordinates": [2500, 3000]}, "properties": {"id": 264, "type": 13, "existence": true}}, {"type": "Feature", "geometry": {"type": "Point", "coordinates": [2000, 3000]}, "properties": {"id": 265, "type": 13, "existence": true}}, {"type": "Feature", "geometry": {"type": "LineString", "coordinates": [[2000, 2500], [2500, 2500]]}, "properties": {"id": 266, "type": 2, "existence": true}}, {"type": "Feature", "geometry": {"type": "LineString", "coordinates": [[2500, 2500], [2500, 3000]]}, "properties": {"id": 267, "type": 2, "existence": true}}, {"type": "Feature", "geometry": {"type": "LineString", "coordinates": [[2500, 3000], [2000, 3000]]}, "properties": {"id": 268, "type": 2, "existence": true}}, {"type": "Feature", "geometry": {"type": "LineString", "coordinates": [[2000, 3000], [2000, 2500]]}, "properties": {"id": 269, "type": 2, "existence": true}}, {"type": "Feature", "geometry": {"type": "Polygon", "coordinates": [[[2000, 2500], [2500, 2500], [2500, 3000], [2000, 3000], [2000, 2500]]]}, "properties": {"id": 270, "type": 1, "existence": true}}, {"type": "Feature", "geometry": {"type": "Point", "coordinates": [2500, 0]}, "properties": {"id": 271, "type": 13, "existence": true}}, {"type": "Feature", "geometry": {"type": "Point", "coordinates": [3000, 0]}, "properties": {"id": 272, "type": 13, "existence": true}}, {"type": "Feature", "geometry": {"type": "Point", "coordinates": [3000, 500]}, "properties": {"id": 273, "type": 13, "existence": true}}, {"type": "Feature", "geometry": {"type": "Point", "coordinates": [2500, 500]}, "properties": {"id": 274, "type": 13, "existence": true}}, {"type": "Feature", "geometry": {"type": "LineString", "coordinates": [[2500, 0], [3000, 0]]}, "properties": {"id": 275, "type": 2, "existence": true}}, {"type": "Feature", "geometry": {"type": "LineString", "coordinates": [[3000, 0], [3000, 500]]}, "properties": {"id": 276, "type": 2, "existence": true}}, {"type": "Feature", "geometry": {"type": "LineString", "coordinates": [[3000, 500], [2500, 500]]}, "properties": {"id": 277, "type": 2, "existence": true}}, {"type": "Feature", "geometry": {"type": "LineString", "coordinates": [[2500, 500], [2500, 0]]}, "properties": {"id": 278, "type": 2, "existence": true}}, {"type": "Feature", "geometry": {"type": "Polygon", "coordinates": [[[2500, 0], [3000, 0], [3000, 500], [2500, 500], [2500, 0]]]}, "properties": {"id": 279, "type": 1, "existence": true}}, {"type": "Feature", "geometry": {"type": "Point", "coordinates": [2500, 500]}, "properties": {"id": 280, "type": 13, "existence": true}}, {"type": "Feature", "geometry": {"type": "Point", "coordinates": [3000, 500]}, "properties": {"id": 281, "type": 13, "existence": true}}, {"type": "Feature", "geometry": {"type": "Point", "coordinates": [3000, 1000]}, "properties": {"id": 282, "type": 13, "existence": true}}, {"type": "Feature", "geometry": {"type": "Point", "coordinates": [2500, 1000]}, "properties": {"id": 283, "type": 13, "existence": true}}, {"type": "Feature", "geometry": {"type": "LineString", "coordinates": [[2500, 500], [3000, 500]]}, "properties": {"id": 284, "type": 2, "existence": true}}, {"type": "Feature", "geometry": {"type": "LineString", "coordinates": [[3000, 500], [3000, 1000]]}, "properties": {"id": 285, "type": 2, "existence": true}}, {"type": "Feature", "geometry": {"type": "LineString", "coordinates": [[3000, 1000], [2500, 1000]]}, "properties": {"id": 286, "type": 2, "existence": true}}, {"type": "Feature", "geometry": {"type": "LineString", "coordinates": [[2500, 1000], [2500, 500]]}, "properties": {"id": 287, "type": 2, "existence": true}}, {"type": "Feature", "geometry": {"type": "Polygon", "coordinates": [[[2500, 500], [3000, 500], [3000, 1000], [2500, 1000], [2500, 500]]]}, "properties": {"id": 288, "type": 1, "existence": true}}, {"type": "Feature", "geometry": {"type": "Point", "coordinates": [2500, 1000]}, "properties": {"id": 289, "type": 13, "existence": true}}, {"type": "Feature", "geometry": {"type": "Point", "coordinates": [3000, 1000]}, "properties": {"id": 290, "type": 13, "existence": true}}, {"type": "Feature", "geometry": {"type": "Point", "coordinates": [3000, 1500]}, "properties": {"id": 291, "type": 13, "existence": true}}, {"type": "Feature", "geometry": {"type": "Point", "coordinates": [2500, 1500]}, "properties": {"id": 292, "type": 13, "existence": true}}, {"type": "Feature", "geometry": {"type": "LineString", "coordinates": [[2500, 1000], [3000, 1000]]}, "properties": {"id": 293, "type": 2, "existence": true}}, {"type": "Feature", "geometry": {"type": "LineString", "coordinates": [[3000, 1000], [3000, 1500]]}, "properties": {"id": 294, "type": 2, "existence": true}}, {"type": "Feature", "geometry": {"type": "LineString", "coordinates": [[3000, 1500], [2500, 1500]]}, "properties": {"id": 295, "type": 2, "existence": true}}, {"type": "Feature", "geometry": {"type": "LineString", "coordinates": [[2500, 1500], [2500, 1000]]}, "properties": {"id": 296, "type": 2, "existence": true}}, {"type": "Feature", "geometry": {"type": "Polygon", "coordinates": [[[2500, 1000], [3000, 1000], [3000, 1500], [2500, 1500], [2500, 1000]]]}, "properties": {"id": 297, "type": 1, "existence": true}}, {"type": "Feature", "geometry": {"type": "Point", "coordinates": [2500, 1500]}, "properties": {"id": 298, "type": 13, "existence": true}}, {"type": "Feature", "geometry": {"type": "Point", "coordinates": [3000, 1500]}, "properties": {"id": 299, "type": 13, "existence": true}}, {"type": "Feature", "geometry": {"type": "Point", "coordinates": [3000, 2000]}, "properties": {"id": 300, "type": 13, "existence": true}}, {"type": "Feature", "geometry": {"type": "Point", "coordinates": [2500, 2000]}, "properties": {"id": 301, "type": 13, "existence": true}}, {"type": "Feature", "geometry": {"type": "LineString", "coordinates": [[2500, 1500], [3000, 1500]]}, "properties": {"id": 302, "type": 2, "existence": true}}, {"type": "Feature", "geometry": {"type": "LineString", "coordinates": [[3000, 1500], [3000, 2000]]}, "properties": {"id": 303, "type": 2, "existence": true}}, {"type": "Feature", "geometry": {"type": "LineString", "coordinates": [[3000, 2000], [2500, 2000]]}, "properties": {"id": 304, "type": 2, "existence": true}}, {"type": "Feature", "geometry": {"type": "LineString", "coordinates": [[2500, 2000], [2500, 1500]]}, "properties": {"id": 305, "type": 2, "existence": true}}, {"type": "Feature", "geometry": {"type": "Polygon", "coordinates": [[[2500, 1500], [3000, 1500], [3000, 2000], [2500, 2000], [2500, 1500]]]}, "properties": {"id": 306, "type": 1, "existence": true}}, {"type": "Feature", "geometry": {"type": "Point", "coordinates": [2500, 2000]}, "properties": {"id": 307, "type": 13, "existence": true}}, {"type": "Feature", "geometry": {"type": "Point", "coordinates": [3000, 2000]}, "properties": {"id": 308, "type": 13, "existence": true}}, {"type": "Feature", "geometry": {"type": "Point", "coordinates": [3000, 2500]}, "properties": {"id": 309, "type": 13, "existence": true}}, {"type": "Feature", "geometry": {"type": "Point", "coordinates": [2500, 2500]}, "properties": {"id": 310, "type": 13, "existence": true}}, {"type": "Feature", "geometry": {"type": "LineString", "coordinates": [[2500, 2000], [3000, 2000]]}, "properties": {"id": 311, "type": 2, "existence": true}}, {"type": "Feature", "geometry": {"type": "LineString", "coordinates": [[3000, 2000], [3000, 2500]]}, "properties": {"id": 312, "type": 2, "existence": true}}, {"type": "Feature", "geometry": {"type": "LineString", "coordinates": [[3000, 2500], [2500, 2500]]}, "properties": {"id": 313, "type": 2, "existence": true}}, {"type": "Feature", "geometry": {"type": "LineString", "coordinates": [[2500, 2500], [2500, 2000]]}, "properties": {"id": 314, "type": 2, "existence": true}}, {"type": "Feature", "geometry": {"type": "Polygon", "coordinates": [[[2500, 2000], [3000, 2000], [3000, 2500], [2500, 2500], [2500, 2000]]]}, "properties": {"id": 315, "type": 1, "existence": true}}, {"type": "Feature", "geometry": {"type": "Point", "coordinates": [2500, 2500]}, "properties": {"id": 316, "type": 13, "existence": true}}, {"type": "Feature", "geometry": {"type": "Point", "coordinates": [3000, 2500]}, "properties": {"id": 317, "type": 13, "existence": true}}, {"type": "Feature", "geometry": {"type": "Point", "coordinates": [3000, 3000]}, "properties": {"id": 318, "type": 13, "existence": true}}, {"type": "Feature", "geometry": {"type": "Point", "coordinates": [2500, 3000]}, "properties": {"id": 319, "type": 13, "existence": true}}, {"type": "Feature", "geometry": {"type": "LineString", "coordinates": [[2500, 2500], [3000, 2500]]}, "properties": {"id": 320, "type": 2, "existence": true}}, {"type": "Feature", "geometry": {"type": "LineString", "coordinates": [[3000, 2500], [3000, 3000]]}, "properties": {"id": 321, "type": 2, "existence": true}}, {"type": "Feature", "geometry": {"type": "LineString", "coordinates": [[3000, 3000], [2500, 3000]]}, "properties": {"id": 322, "type": 2, "existence": true}}, {"type": "Feature", "geometry": {"type": "LineString", "coordinates": [[2500, 3000], [2500, 2500]]}, "properties": {"id": 323, "type": 2, "existence": true}}, {"type": "Feature", "geometry": {"type": "Polygon", "coordinates": [[[2500, 2500], [3000, 2500], [3000, 3000], [2500, 3000], [2500, 2500]]]}, "properties": {"id": 324, "type": 1, "existence": true}}]}