{"type": "FeatureCollection", "features": [{"type": "Feature", "geometry": {"type": "Point", "coordinates": [0.0, 0.0]}, "properties": {"id": 1, "type": 13, "existence": true}}, {"type": "Feature", "geometry": {"type": "Point", "coordinates": [0.0, 500.0]}, "properties": {"id": 2, "type": 13, "existence": true}}, {"type": "Feature", "geometry": {"type": "Point", "coordinates": [0.0, 1000.0]}, "properties": {"id": 3, "type": 13, "existence": true}}, {"type": "Feature", "geometry": {"type": "Point", "coordinates": [0.0, 1500.0]}, "properties": {"id": 4, "type": 13, "existence": true}}, {"type": "Feature", "geometry": {"type": "Point", "coordinates": [0.0, 2000.0]}, "properties": {"id": 5, "type": 13, "existence": true}}, {"type": "Feature", "geometry": {"type": "Point", "coordinates": [0.0, 2500.0]}, "properties": {"id": 6, "type": 13, "existence": true}}, {"type": "Feature", "geometry": {"type": "Point", "coordinates": [0.0, 3000.0]}, "properties": {"id": 7, "type": 13, "existence": true}}, {"type": "Feature", "geometry": {"type": "Point", "coordinates": [500.0, 0.0]}, "properties": {"id": 8, "type": 13, "existence": true}}, {"type": "Feature", "geometry": {"type": "Point", "coordinates": [500.0, 500.0]}, "properties": {"id": 9, "type": 13, "existence": true}}, {"type": "Feature", "geometry": {"type": "Point", "coordinates": [500.0, 1000.0]}, "properties": {"id": 10, "type": 13, "existence": true}}, {"type": "Feature", "geometry": {"type": "Point", "coordinates": [500.0, 1500.0]}, "properties": {"id": 11, "type": 13, "existence": true}}, {"type": "Feature", "geometry": {"type": "Point", "coordinates": [500.0, 2000.0]}, "properties": {"id": 12, "type": 13, "existence": true}}, {"type": "Feature", "geometry": {"type": "Point", "coordinates": [500.0, 2500.0]}, "properties": {"id": 13, "type": 13, "existence": true}}, {"type": "Feature", "geometry": {"type": "Point", "coordinates": [500.0, 3000.0]}, "properties": {"id": 14, "type": 13, "existence": true}}, {"type": "Feature", "geometry": {"type": "Point", "coordinates": [1000.0, 0.0]}, "properties": {"id": 15, "type": 13, "existence": true}}, {"type": "Feature", "geometry": {"type": "Point", "coordinates": [1000.0, 500.0]}, "properties": {"id": 16, "type": 13, "existence": true}}, {"type": "Feature", "geometry": {"type": "Point", "coordinates": [1000.0, 1000.0]}, "properties": {"id": 17, "type": 13, "existence": true}}, {"type": "Feature", "geometry": {"type": "Point", "coordinates": [1000.0, 1500.0]}, "properties": {"id": 18, "type": 13, "existence": true}}, {"type": "Feature", "geometry": {"type": "Point", "coordinates": [1000.0, 2000.0]}, "properties": {"id": 19, "type": 13, "existence": true}}, {"type": "Feature", "geometry": {"type": "Point", "coordinates": [1000.0, 2500.0]}, "properties": {"id": 20, "type": 13, "existence": true}}, {"type": "Feature", "geometry": {"type": "Point", "coordinates": [1000.0, 3000.0]}, "properties": {"id": 21, "type": 13, "existence": true}}, {"type": "Feature", "geometry": {"type": "Point", "coordinates": [1500.0, 0.0]}, "properties": {"id": 22, "type": 13, "existence": true}}, {"type": "Feature", "geometry": {"type": "Point", "coordinates": [1500.0, 500.0]}, "properties": {"id": 23, "type": 13, "existence": true}}, {"type": "Feature", "geometry": {"type": "Point", "coordinates": [1500.0, 1000.0]}, "properties": {"id": 24, "type": 13, "existence": true}}, {"type": "Feature", "geometry": {"type": "Point", "coordinates": [1500.0, 1500.0]}, "properties": {"id": 25, "type": 13, "existence": true}}, {"type": "Feature", "geometry": {"type": "Point", "coordinates": [1500.0, 2000.0]}, "properties": {"id": 26, "type": 13, "existence": true}}, {"type": "Feature", "geometry": {"type": "Point", "coordinates": [1500.0, 2500.0]}, "properties": {"id": 27, "type": 13, "existence": true}}, {"type": "Feature", "geometry": {"type": "Point", "coordinates": [1500.0, 3000.0]}, "properties": {"id": 28, "type": 13, "existence": true}}, {"type": "Feature", "geometry": {"type": "Point", "coordinates": [2000.0, 0.0]}, "properties": {"id": 29, "type": 13, "existence": true}}, {"type": "Feature", "geometry": {"type": "Point", "coordinates": [2000.0, 500.0]}, "properties": {"id": 30, "type": 13, "existence": true}}, {"type": "Feature", "geometry": {"type": "Point", "coordinates": [2000.0, 1000.0]}, "properties": {"id": 31, "type": 13, "existence": true}}, {"type": "Feature", "geometry": {"type": "Point", "coordinates": [2000.0, 1500.0]}, "properties": {"id": 32, "type": 13, "existence": true}}, {"type": "Feature", "geometry": {"type": "Point", "coordinates": [2000.0, 2000.0]}, "properties": {"id": 33, "type": 13, "existence": true}}, {"type": "Feature", "geometry": {"type": "Point", "coordinates": [2000.0, 2500.0]}, "properties": {"id": 34, "type": 13, "existence": true}}, {"type": "Feature", "geometry": {"type": "Point", "coordinates": [2000.0, 3000.0]}, "properties": {"id": 35, "type": 13, "existence": true}}, {"type": "Feature", "geometry": {"type": "Point", "coordinates": [2500.0, 0.0]}, "properties": {"id": 36, "type": 13, "existence": true}}, {"type": "Feature", "geometry": {"type": "Point", "coordinates": [2500.0, 500.0]}, "properties": {"id": 37, "type": 13, "existence": true}}, {"type": "Feature", "geometry": {"type": "Point", "coordinates": [2500.0, 1000.0]}, "properties": {"id": 38, "type": 13, "existence": true}}, {"type": "Feature", "geometry": {"type": "Point", "coordinates": [2500.0, 1500.0]}, "properties": {"id": 39, "type": 13, "existence": true}}, {"type": "Feature", "geometry": {"type": "Point", "coordinates": [2500.0, 2000.0]}, "properties": {"id": 40, "type": 13, "existence": true}}, {"type": "Feature", "geometry": {"type": "Point", "coordinates": [2500.0, 2500.0]}, "properties": {"id": 41, "type": 13, "existence": true}}, {"type": "Feature", "geometry": {"type": "Point", "coordinates": [2500.0, 3000.0]}, "properties": {"id": 42, "type": 13, "existence": true}}, {"type": "Feature", "geometry": {"type": "Point", "coordinates": [3000.0, 0.0]}, "properties": {"id": 43, "type": 13, "existence": true}}, {"type": "Feature", "geometry": {"type": "Point", "coordinates": [3000.0, 500.0]}, "properties": {"id": 44, "type": 13, "existence": true}}, {"type": "Feature", "geometry": {"type": "Point", "coordinates": [3000.0, 1000.0]}, "properties": {"id": 45, "type": 13, "existence": true}}, {"type": "Feature", "geometry": {"type": "Point", "coordinates": [3000.0, 1500.0]}, "properties": {"id": 46, "type": 13, "existence": true}}, {"type": "Feature", "geometry": {"type": "Point", "coordinates": [3000.0, 2000.0]}, "properties": {"id": 47, "type": 13, "existence": true}}, {"type": "Feature", "geometry": {"type": "Point", "coordinates": [3000.0, 2500.0]}, "properties": {"id": 48, "type": 13, "existence": true}}, {"type": "Feature", "geometry": {"type": "Point", "coordinates": [3000.0, 3000.0]}, "properties": {"id": 49, "type": 13, "existence": true}}, {"type": "Feature", "geometry": {"type": "LineString", "coordinates": [[0.0, 0.0], [500.0, 0.0]]}, "properties": {"id": 50, "type": 2, "existence": true}}, {"type": "Feature", "geometry": {"type": "LineString", "coordinates": [[0.0, 0.0], [0.0, 500.0]]}, "properties": {"id": 51, "type": 2, "existence": true}}, {"type": "Feature", "geometry": {"type": "LineString", "coordinates": [[0.0, 500.0], [500.0, 500.0]]}, "properties": {"id": 52, "type": 2, "existence": true}}, {"type": "Feature", "geometry": {"type": "LineString", "coordinates": [[0.0, 500.0], [0.0, 1000.0]]}, "properties": {"id": 53, "type": 2, "existence": true}}, {"type": "Feature", "geometry": {"type": "LineString", "coordinates": [[0.0, 1000.0], [500.0, 1000.0]]}, "properties": {"id": 54, "type": 2, "existence": true}}, {"type": "Feature", "geometry": {"type": "LineString", "coordinates": [[0.0, 1000.0], [0.0, 1500.0]]}, "properties": {"id": 55, "type": 2, "existence": true}}, {"type": "Feature", "geometry": {"type": "LineString", "coordinates": [[0.0, 1500.0], [500.0, 1500.0]]}, "properties": {"id": 56, "type": 2, "existence": true}}, {"type": "Feature", "geometry": {"type": "LineString", "coordinates": [[0.0, 1500.0], [0.0, 2000.0]]}, "properties": {"id": 57, "type": 2, "existence": true}}, {"type": "Feature", "geometry": {"type": "LineString", "coordinates": [[0.0, 2000.0], [500.0, 2000.0]]}, "properties": {"id": 58, "type": 2, "existence": true}}, {"type": "Feature", "geometry": {"type": "LineString", "coordinates": [[0.0, 2000.0], [0.0, 2500.0]]}, "properties": {"id": 59, "type": 2, "existence": true}}, {"type": "Feature", "geometry": {"type": "LineString", "coordinates": [[0.0, 2500.0], [500.0, 2500.0]]}, "properties": {"id": 60, "type": 2, "existence": true}}, {"type": "Feature", "geometry": {"type": "LineString", "coordinates": [[0.0, 2500.0], [0.0, 3000.0]]}, "properties": {"id": 61, "type": 2, "existence": true}}, {"type": "Feature", "geometry": {"type": "LineString", "coordinates": [[0.0, 3000.0], [500.0, 3000.0]]}, "properties": {"id": 62, "type": 2, "existence": true}}, {"type": "Feature", "geometry": {"type": "LineString", "coordinates": [[500.0, 0.0], [1000.0, 0.0]]}, "properties": {"id": 63, "type": 2, "existence": true}}, {"type": "Feature", "geometry": {"type": "LineString", "coordinates": [[500.0, 0.0], [500.0, 500.0]]}, "properties": {"id": 64, "type": 2, "existence": true}}, {"type": "Feature", "geometry": {"type": "LineString", "coordinates": [[500.0, 500.0], [1000.0, 500.0]]}, "properties": {"id": 65, "type": 2, "existence": true}}, {"type": "Feature", "geometry": {"type": "LineString", "coordinates": [[500.0, 500.0], [500.0, 1000.0]]}, "properties": {"id": 66, "type": 2, "existence": true}}, {"type": "Feature", "geometry": {"type": "LineString", "coordinates": [[500.0, 1000.0], [1000.0, 1000.0]]}, "properties": {"id": 67, "type": 2, "existence": true}}, {"type": "Feature", "geometry": {"type": "LineString", "coordinates": [[500.0, 1000.0], [500.0, 1500.0]]}, "properties": {"id": 68, "type": 2, "existence": true}}, {"type": "Feature", "geometry": {"type": "LineString", "coordinates": [[500.0, 1500.0], [1000.0, 1500.0]]}, "properties": {"id": 69, "type": 2, "existence": true}}, {"type": "Feature", "geometry": {"type": "LineString", "coordinates": [[500.0, 1500.0], [500.0, 2000.0]]}, "properties": {"id": 70, "type": 2, "existence": true}}, {"type": "Feature", "geometry": {"type": "LineString", "coordinates": [[500.0, 2000.0], [1000.0, 2000.0]]}, "properties": {"id": 71, "type": 2, "existence": true}}, {"type": "Feature", "geometry": {"type": "LineString", "coordinates": [[500.0, 2000.0], [500.0, 2500.0]]}, "properties": {"id": 72, "type": 2, "existence": true}}, {"type": "Feature", "geometry": {"type": "LineString", "coordinates": [[500.0, 2500.0], [1000.0, 2500.0]]}, "properties": {"id": 73, "type": 2, "existence": true}}, {"type": "Feature", "geometry": {"type": "LineString", "coordinates": [[500.0, 2500.0], [500.0, 3000.0]]}, "properties": {"id": 74, "type": 2, "existence": true}}, {"type": "Feature", "geometry": {"type": "LineString", "coordinates": [[500.0, 3000.0], [1000.0, 3000.0]]}, "properties": {"id": 75, "type": 2, "existence": true}}, {"type": "Feature", "geometry": {"type": "LineString", "coordinates": [[1000.0, 0.0], [1500.0, 0.0]]}, "properties": {"id": 76, "type": 2, "existence": true}}, {"type": "Feature", "geometry": {"type": "LineString", "coordinates": [[1000.0, 0.0], [1000.0, 500.0]]}, "properties": {"id": 77, "type": 2, "existence": true}}, {"type": "Feature", "geometry": {"type": "LineString", "coordinates": [[1000.0, 500.0], [1500.0, 500.0]]}, "properties": {"id": 78, "type": 2, "existence": true}}, {"type": "Feature", "geometry": {"type": "LineString", "coordinates": [[1000.0, 500.0], [1000.0, 1000.0]]}, "properties": {"id": 79, "type": 2, "existence": true}}, {"type": "Feature", "geometry": {"type": "LineString", "coordinates": [[1000.0, 1000.0], [1500.0, 1000.0]]}, "properties": {"id": 80, "type": 2, "existence": true}}, {"type": "Feature", "geometry": {"type": "LineString", "coordinates": [[1000.0, 1000.0], [1000.0, 1500.0]]}, "properties": {"id": 81, "type": 2, "existence": true}}, {"type": "Feature", "geometry": {"type": "LineString", "coordinates": [[1000.0, 1500.0], [1500.0, 1500.0]]}, "properties": {"id": 82, "type": 2, "existence": true}}, {"type": "Feature", "geometry": {"type": "LineString", "coordinates": [[1000.0, 1500.0], [1000.0, 2000.0]]}, "properties": {"id": 83, "type": 2, "existence": true}}, {"type": "Feature", "geometry": {"type": "LineString", "coordinates": [[1000.0, 2000.0], [1500.0, 2000.0]]}, "properties": {"id": 84, "type": 2, "existence": true}}, {"type": "Feature", "geometry": {"type": "LineString", "coordinates": [[1000.0, 2000.0], [1000.0, 2500.0]]}, "properties": {"id": 85, "type": 2, "existence": true}}, {"type": "Feature", "geometry": {"type": "LineString", "coordinates": [[1000.0, 2500.0], [1500.0, 2500.0]]}, "properties": {"id": 86, "type": 2, "existence": true}}, {"type": "Feature", "geometry": {"type": "LineString", "coordinates": [[1000.0, 2500.0], [1000.0, 3000.0]]}, "properties": {"id": 87, "type": 2, "existence": true}}, {"type": "Feature", "geometry": {"type": "LineString", "coordinates": [[1000.0, 3000.0], [1500.0, 3000.0]]}, "properties": {"id": 88, "type": 2, "existence": true}}, {"type": "Feature", "geometry": {"type": "LineString", "coordinates": [[1500.0, 0.0], [2000.0, 0.0]]}, "properties": {"id": 89, "type": 2, "existence": true}}, {"type": "Feature", "geometry": {"type": "LineString", "coordinates": [[1500.0, 0.0], [1500.0, 500.0]]}, "properties": {"id": 90, "type": 2, "existence": true}}, {"type": "Feature", "geometry": {"type": "LineString", "coordinates": [[1500.0, 500.0], [2000.0, 500.0]]}, "properties": {"id": 91, "type": 2, "existence": true}}, {"type": "Feature", "geometry": {"type": "LineString", "coordinates": [[1500.0, 500.0], [1500.0, 1000.0]]}, "properties": {"id": 92, "type": 2, "existence": true}}, {"type": "Feature", "geometry": {"type": "LineString", "coordinates": [[1500.0, 1000.0], [2000.0, 1000.0]]}, "properties": {"id": 93, "type": 2, "existence": true}}, {"type": "Feature", "geometry": {"type": "LineString", "coordinates": [[1500.0, 1000.0], [1500.0, 1500.0]]}, "properties": {"id": 94, "type": 2, "existence": true}}, {"type": "Feature", "geometry": {"type": "LineString", "coordinates": [[1500.0, 1500.0], [2000.0, 1500.0]]}, "properties": {"id": 95, "type": 2, "existence": true}}, {"type": "Feature", "geometry": {"type": "LineString", "coordinates": [[1500.0, 1500.0], [1500.0, 2000.0]]}, "properties": {"id": 96, "type": 2, "existence": true}}, {"type": "Feature", "geometry": {"type": "LineString", "coordinates": [[1500.0, 2000.0], [2000.0, 2000.0]]}, "properties": {"id": 97, "type": 2, "existence": true}}, {"type": "Feature", "geometry": {"type": "LineString", "coordinates": [[1500.0, 2000.0], [1500.0, 2500.0]]}, "properties": {"id": 98, "type": 2, "existence": true}}, {"type": "Feature", "geometry": {"type": "LineString", "coordinates": [[1500.0, 2500.0], [2000.0, 2500.0]]}, "properties": {"id": 99, "type": 2, "existence": true}}, {"type": "Feature", "geometry": {"type": "LineString", "coordinates": [[1500.0, 2500.0], [1500.0, 3000.0]]}, "properties": {"id": 100, "type": 2, "existence": true}}, {"type": "Feature", "geometry": {"type": "LineString", "coordinates": [[1500.0, 3000.0], [2000.0, 3000.0]]}, "properties": {"id": 101, "type": 2, "existence": true}}, {"type": "Feature", "geometry": {"type": "LineString", "coordinates": [[2000.0, 0.0], [2500.0, 0.0]]}, "properties": {"id": 102, "type": 2, "existence": true}}, {"type": "Feature", "geometry": {"type": "LineString", "coordinates": [[2000.0, 0.0], [2000.0, 500.0]]}, "properties": {"id": 103, "type": 2, "existence": true}}, {"type": "Feature", "geometry": {"type": "LineString", "coordinates": [[2000.0, 500.0], [2500.0, 500.0]]}, "properties": {"id": 104, "type": 2, "existence": true}}, {"type": "Feature", "geometry": {"type": "LineString", "coordinates": [[2000.0, 500.0], [2000.0, 1000.0]]}, "properties": {"id": 105, "type": 2, "existence": true}}, {"type": "Feature", "geometry": {"type": "LineString", "coordinates": [[2000.0, 1000.0], [2500.0, 1000.0]]}, "properties": {"id": 106, "type": 2, "existence": true}}, {"type": "Feature", "geometry": {"type": "LineString", "coordinates": [[2000.0, 1000.0], [2000.0, 1500.0]]}, "properties": {"id": 107, "type": 2, "existence": true}}, {"type": "Feature", "geometry": {"type": "LineString", "coordinates": [[2000.0, 1500.0], [2500.0, 1500.0]]}, "properties": {"id": 108, "type": 2, "existence": true}}, {"type": "Feature", "geometry": {"type": "LineString", "coordinates": [[2000.0, 1500.0], [2000.0, 2000.0]]}, "properties": {"id": 109, "type": 2, "existence": true}}, {"type": "Feature", "geometry": {"type": "LineString", "coordinates": [[2000.0, 2000.0], [2500.0, 2000.0]]}, "properties": {"id": 110, "type": 2, "existence": true}}, {"type": "Feature", "geometry": {"type": "LineString", "coordinates": [[2000.0, 2000.0], [2000.0, 2500.0]]}, "properties": {"id": 111, "type": 2, "existence": true}}, {"type": "Feature", "geometry": {"type": "LineString", "coordinates": [[2000.0, 2500.0], [2500.0, 2500.0]]}, "properties": {"id": 112, "type": 2, "existence": true}}, {"type": "Feature", "geometry": {"type": "LineString", "coordinates": [[2000.0, 2500.0], [2000.0, 3000.0]]}, "properties": {"id": 113, "type": 2, "existence": true}}, {"type": "Feature", "geometry": {"type": "LineString", "coordinates": [[2000.0, 3000.0], [2500.0, 3000.0]]}, "properties": {"id": 114, "type": 2, "existence": true}}, {"type": "Feature", "geometry": {"type": "LineString", "coordinates": [[2500.0, 0.0], [3000.0, 0.0]]}, "properties": {"id": 115, "type": 2, "existence": true}}, {"type": "Feature", "geometry": {"type": "LineString", "coordinates": [[2500.0, 0.0], [2500.0, 500.0]]}, "properties": {"id": 116, "type": 2, "existence": true}}, {"type": "Feature", "geometry": {"type": "LineString", "coordinates": [[2500.0, 500.0], [3000.0, 500.0]]}, "properties": {"id": 117, "type": 2, "existence": true}}, {"type": "Feature", "geometry": {"type": "LineString", "coordinates": [[2500.0, 500.0], [2500.0, 1000.0]]}, "properties": {"id": 118, "type": 2, "existence": true}}, {"type": "Feature", "geometry": {"type": "LineString", "coordinates": [[2500.0, 1000.0], [3000.0, 1000.0]]}, "properties": {"id": 119, "type": 2, "existence": true}}, {"type": "Feature", "geometry": {"type": "LineString", "coordinates": [[2500.0, 1000.0], [2500.0, 1500.0]]}, "properties": {"id": 120, "type": 2, "existence": true}}, {"type": "Feature", "geometry": {"type": "LineString", "coordinates": [[2500.0, 1500.0], [3000.0, 1500.0]]}, "properties": {"id": 121, "type": 2, "existence": true}}, {"type": "Feature", "geometry": {"type": "LineString", "coordinates": [[2500.0, 1500.0], [2500.0, 2000.0]]}, "properties": {"id": 122, "type": 2, "existence": true}}, {"type": "Feature", "geometry": {"type": "LineString", "coordinates": [[2500.0, 2000.0], [3000.0, 2000.0]]}, "properties": {"id": 123, "type": 2, "existence": true}}, {"type": "Feature", "geometry": {"type": "LineString", "coordinates": [[2500.0, 2000.0], [2500.0, 2500.0]]}, "properties": {"id": 124, "type": 2, "existence": true}}, {"type": "Feature", "geometry": {"type": "LineString", "coordinates": [[2500.0, 2500.0], [3000.0, 2500.0]]}, "properties": {"id": 125, "type": 2, "existence": true}}, {"type": "Feature", "geometry": {"type": "LineString", "coordinates": [[2500.0, 2500.0], [2500.0, 3000.0]]}, "properties": {"id": 126, "type": 2, "existence": true}}, {"type": "Feature", "geometry": {"type": "LineString", "coordinates": [[2500.0, 3000.0], [3000.0, 3000.0]]}, "properties": {"id": 127, "type": 2, "existence": true}}, {"type": "Feature", "geometry": {"type": "LineString", "coordinates": [[3000.0, 0.0], [3000.0, 500.0]]}, "properties": {"id": 128, "type": 2, "existence": true}}, {"type": "Feature", "geometry": {"type": "LineString", "coordinates": [[3000.0, 500.0], [3000.0, 1000.0]]}, "properties": {"id": 129, "type": 2, "existence": true}}, {"type": "Feature", "geometry": {"type": "LineString", "coordinates": [[3000.0, 1000.0], [3000.0, 1500.0]]}, "properties": {"id": 130, "type": 2, "existence": true}}, {"type": "Feature", "geometry": {"type": "LineString", "coordinates": [[3000.0, 1500.0], [3000.0, 2000.0]]}, "properties": {"id": 131, "type": 2, "existence": true}}, {"type": "Feature", "geometry": {"type": "LineString", "coordinates": [[3000.0, 2000.0], [3000.0, 2500.0]]}, "properties": {"id": 132, "type": 2, "existence": true}}, {"type": "Feature", "geometry": {"type": "LineString", "coordinates": [[3000.0, 2500.0], [3000.0, 3000.0]]}, "properties": {"id": 133, "type": 2, "existence": true}}, {"type": "Feature", "geometry": {"type": "Polygon", "coordinates": [[[0.0, 0.0], [500.0, 0.0], [500.0, 500.0], [0.0, 500.0], [0.0, 0.0]]]}, "properties": {"id": 134, "type": 1, "existence": true}}, {"type": "Feature", "geometry": {"type": "Polygon", "coordinates": [[[0.0, 500.0], [500.0, 500.0], [500.0, 1000.0], [0.0, 1000.0], [0.0, 500.0]]]}, "properties": {"id": 135, "type": 1, "existence": true}}, {"type": "Feature", "geometry": {"type": "Polygon", "coordinates": [[[0.0, 1000.0], [500.0, 1000.0], [500.0, 1500.0], [0.0, 1500.0], [0.0, 1000.0]]]}, "properties": {"id": 136, "type": 1, "existence": true}}, {"type": "Feature", "geometry": {"type": "Polygon", "coordinates": [[[0.0, 1500.0], [500.0, 1500.0], [500.0, 2000.0], [0.0, 2000.0], [0.0, 1500.0]]]}, "properties": {"id": 137, "type": 1, "existence": true}}, {"type": "Feature", "geometry": {"type": "Polygon", "coordinates": [[[0.0, 2000.0], [500.0, 2000.0], [500.0, 2500.0], [0.0, 2500.0], [0.0, 2000.0]]]}, "properties": {"id": 138, "type": 1, "existence": true}}, {"type": "Feature", "geometry": {"type": "Polygon", "coordinates": [[[0.0, 2500.0], [500.0, 2500.0], [500.0, 3000.0], [0.0, 3000.0], [0.0, 2500.0]]]}, "properties": {"id": 139, "type": 1, "existence": true}}, {"type": "Feature", "geometry": {"type": "Polygon", "coordinates": [[[500.0, 0.0], [1000.0, 0.0], [1000.0, 500.0], [500.0, 500.0], [500.0, 0.0]]]}, "properties": {"id": 140, "type": 1, "existence": true}}, {"type": "Feature", "geometry": {"type": "Polygon", "coordinates": [[[500.0, 500.0], [1000.0, 500.0], [1000.0, 1000.0], [500.0, 1000.0], [500.0, 500.0]]]}, "properties": {"id": 141, "type": 1, "existence": true}}, {"type": "Feature", "geometry": {"type": "Polygon", "coordinates": [[[500.0, 1000.0], [1000.0, 1000.0], [1000.0, 1500.0], [500.0, 1500.0], [500.0, 1000.0]]]}, "properties": {"id": 142, "type": 1, "existence": true}}, {"type": "Feature", "geometry": {"type": "Polygon", "coordinates": [[[500.0, 1500.0], [1000.0, 1500.0], [1000.0, 2000.0], [500.0, 2000.0], [500.0, 1500.0]]]}, "properties": {"id": 143, "type": 1, "existence": true}}, {"type": "Feature", "geometry": {"type": "Polygon", "coordinates": [[[500.0, 2000.0], [1000.0, 2000.0], [1000.0, 2500.0], [500.0, 2500.0], [500.0, 2000.0]]]}, "properties": {"id": 144, "type": 1, "existence": true}}, {"type": "Feature", "geometry": {"type": "Polygon", "coordinates": [[[500.0, 2500.0], [1000.0, 2500.0], [1000.0, 3000.0], [500.0, 3000.0], [500.0, 2500.0]]]}, "properties": {"id": 145, "type": 1, "existence": true}}, {"type": "Feature", "geometry": {"type": "Polygon", "coordinates": [[[1000.0, 0.0], [1500.0, 0.0], [1500.0, 500.0], [1000.0, 500.0], [1000.0, 0.0]]]}, "properties": {"id": 146, "type": 1, "existence": true}}, {"type": "Feature", "geometry": {"type": "Polygon", "coordinates": [[[1000.0, 500.0], [1500.0, 500.0], [1500.0, 1000.0], [1000.0, 1000.0], [1000.0, 500.0]]]}, "properties": {"id": 147, "type": 1, "existence": true}}, {"type": "Feature", "geometry": {"type": "Polygon", "coordinates": [[[1000.0, 1000.0], [1500.0, 1000.0], [1500.0, 1500.0], [1000.0, 1500.0], [1000.0, 1000.0]]]}, "properties": {"id": 148, "type": 1, "existence": true}}, {"type": "Feature", "geometry": {"type": "Polygon", "coordinates": [[[1000.0, 1500.0], [1500.0, 1500.0], [1500.0, 2000.0], [1000.0, 2000.0], [1000.0, 1500.0]]]}, "properties": {"id": 149, "type": 1, "existence": true}}, {"type": "Feature", "geometry": {"type": "Polygon", "coordinates": [[[1000.0, 2000.0], [1500.0, 2000.0], [1500.0, 2500.0], [1000.0, 2500.0], [1000.0, 2000.0]]]}, "properties": {"id": 150, "type": 1, "existence": true}}, {"type": "Feature", "geometry": {"type": "Polygon", "coordinates": [[[1000.0, 2500.0], [1500.0, 2500.0], [1500.0, 3000.0], [1000.0, 3000.0], [1000.0, 2500.0]]]}, "properties": {"id": 151, "type": 1, "existence": true}}, {"type": "Feature", "geometry": {"type": "Polygon", "coordinates": [[[1500.0, 0.0], [2000.0, 0.0], [2000.0, 500.0], [1500.0, 500.0], [1500.0, 0.0]]]}, "properties": {"id": 152, "type": 1, "existence": true}}, {"type": "Feature", "geometry": {"type": "Polygon", "coordinates": [[[1500.0, 500.0], [2000.0, 500.0], [2000.0, 1000.0], [1500.0, 1000.0], [1500.0, 500.0]]]}, "properties": {"id": 153, "type": 1, "existence": true}}, {"type": "Feature", "geometry": {"type": "Polygon", "coordinates": [[[1500.0, 1000.0], [2000.0, 1000.0], [2000.0, 1500.0], [1500.0, 1500.0], [1500.0, 1000.0]]]}, "properties": {"id": 154, "type": 1, "existence": true}}, {"type": "Feature", "geometry": {"type": "Polygon", "coordinates": [[[1500.0, 1500.0], [2000.0, 1500.0], [2000.0, 2000.0], [1500.0, 2000.0], [1500.0, 1500.0]]]}, "properties": {"id": 155, "type": 1, "existence": true}}, {"type": "Feature", "geometry": {"type": "Polygon", "coordinates": [[[1500.0, 2000.0], [2000.0, 2000.0], [2000.0, 2500.0], [1500.0, 2500.0], [1500.0, 2000.0]]]}, "properties": {"id": 156, "type": 1, "existence": true}}, {"type": "Feature", "geometry": {"type": "Polygon", "coordinates": [[[1500.0, 2500.0], [2000.0, 2500.0], [2000.0, 3000.0], [1500.0, 3000.0], [1500.0, 2500.0]]]}, "properties": {"id": 157, "type": 1, "existence": true}}, {"type": "Feature", "geometry": {"type": "Polygon", "coordinates": [[[2000.0, 0.0], [2500.0, 0.0], [2500.0, 500.0], [2000.0, 500.0], [2000.0, 0.0]]]}, "properties": {"id": 158, "type": 1, "existence": true}}, {"type": "Feature", "geometry": {"type": "Polygon", "coordinates": [[[2000.0, 500.0], [2500.0, 500.0], [2500.0, 1000.0], [2000.0, 1000.0], [2000.0, 500.0]]]}, "properties": {"id": 159, "type": 1, "existence": true}}, {"type": "Feature", "geometry": {"type": "Polygon", "coordinates": [[[2000.0, 1000.0], [2500.0, 1000.0], [2500.0, 1500.0], [2000.0, 1500.0], [2000.0, 1000.0]]]}, "properties": {"id": 160, "type": 1, "existence": true}}, {"type": "Feature", "geometry": {"type": "Polygon", "coordinates": [[[2000.0, 1500.0], [2500.0, 1500.0], [2500.0, 2000.0], [2000.0, 2000.0], [2000.0, 1500.0]]]}, "properties": {"id": 161, "type": 1, "existence": true}}, {"type": "Feature", "geometry": {"type": "Polygon", "coordinates": [[[2000.0, 2000.0], [2500.0, 2000.0], [2500.0, 2500.0], [2000.0, 2500.0], [2000.0, 2000.0]]]}, "properties": {"id": 162, "type": 1, "existence": true}}, {"type": "Feature", "geometry": {"type": "Polygon", "coordinates": [[[2000.0, 2500.0], [2500.0, 2500.0], [2500.0, 3000.0], [2000.0, 3000.0], [2000.0, 2500.0]]]}, "properties": {"id": 163, "type": 1, "existence": true}}, {"type": "Feature", "geometry": {"type": "Polygon", "coordinates": [[[2500.0, 0.0], [3000.0, 0.0], [3000.0, 500.0], [2500.0, 500.0], [2500.0, 0.0]]]}, "properties": {"id": 164, "type": 1, "existence": true}}, {"type": "Feature", "geometry": {"type": "Polygon", "coordinates": [[[2500.0, 500.0], [3000.0, 500.0], [3000.0, 1000.0], [2500.0, 1000.0], [2500.0, 500.0]]]}, "properties": {"id": 165, "type": 1, "existence": true}}, {"type": "Feature", "geometry": {"type": "Polygon", "coordinates": [[[2500.0, 1000.0], [3000.0, 1000.0], [3000.0, 1500.0], [2500.0, 1500.0], [2500.0, 1000.0]]]}, "properties": {"id": 166, "type": 1, "existence": true}}, {"type": "Feature", "geometry": {"type": "Polygon", "coordinates": [[[2500.0, 1500.0], [3000.0, 1500.0], [3000.0, 2000.0], [2500.0, 2000.0], [2500.0, 1500.0]]]}, "properties": {"id": 167, "type": 1, "existence": true}}, {"type": "Feature", "geometry": {"type": "Polygon", "coordinates": [[[2500.0, 2000.0], [3000.0, 2000.0], [3000.0, 2500.0], [2500.0, 2500.0], [2500.0, 2000.0]]]}, "properties": {"id": 168, "type": 1, "existence": true}}, {"type": "Feature", "geometry": {"type": "Polygon", "coordinates": [[[2500.0, 2500.0], [3000.0, 2500.0], [3000.0, 3000.0], [2500.0, 3000.0], [2500.0, 2500.0]]]}, "properties": {"id": 169, "type": 1, "existence": true}}]}