{
"type": "FeatureCollection",
"features": [
{ "type": "Feature", "properties": { "id": 0, "type": 2, "existence": true }, "geometry": { "type": "LineString", "coordinates": [ [ 0.0, 0.0 ], [ 0.0, 50.0 ] ] } },
{ "type": "Feature", "properties": { "id": 1, "type": 2, "existence": true }, "geometry": { "type": "LineString", "coordinates": [ [ 0.0, 50.0 ], [ 0.0, 120.0 ] ] } },
{ "type": "Feature", "properties": { "id": 2, "type": 2, "existence": true }, "geometry": { "type": "LineString", "coordinates": [ [ 0.0, 120.0 ], [ 0.0, 180.0 ] ] } },
{ "type": "Feature", "properties": { "id": 3, "type": 2, "existence": true }, "geometry": { "type": "LineString", "coordinates": [ [ 0.0, 180.0 ], [ 0.0, 240.0 ] ] } },
{ "type": "Feature", "properties": { "id": 4, "type": 2, "existence": true }, "geometry": { "type": "LineString", "coordinates": [ [ 0.0, 240.0 ], [ 60.0, 240.0 ] ] } },
{ "type": "Feature", "properties": { "id": 5, "type": 2, "existence": true }, "geometry": { "type": "LineString", "coordinates": [ [ 60.0, 240.0 ], [ 120.0, 240.0 ] ] } },
{ "type": "Feature", "properties": { "id": 6, "type": 2, "existence": true }, "geometry": { "type": "LineString", "coordinates": [ [ 120.0, 240.0 ], [ 190.0, 240.0 ] ] } },
{ "type": "Feature", "properties": { "id": 7, "type": 2, "existence": true }, "geometry": { "type": "LineString", "coordinates": [ [ 190.0, 240.0 ], [ 240.0, 240.0 ] ] } },
{ "type": "Feature", "properties": { "id": 8, "type": 2, "existence": true }, "geometry": { "type": "LineString", "coordinates": [ [ 240.0, 240.0 ], [ 240.0, 180.0 ] ] } },
{ "type": "Feature", "properties": { "id": 9, "type": 2, "existence": true }, "geometry": { "type": "LineString", "coordinates": [ [ 240.0, 180.0 ], [ 240.0, 120.0 ] ] } },
{ "type": "Feature", "properties": { "id": 10, "type": 2, "existence": true }, "geometry": { "type": "LineString", "coordinates": [ [ 240.0, 120.0 ], [ 240.0, 50.0 ] ] } },
{ "type": "Feature", "properties": { "id": 11, "type": 2, "existence": true }, "geometry": { "type": "LineString", "coordinates": [ [ 240.0, 50.0 ], [ 240.0, 0.0 ] ] } },
{ "type": "Feature", "properties": { "id": 12, "type": 2, "existence": true }, "geometry": { "type": "LineString", "coordinates": [ [ 240.0, 0.0 ], [ 190.0, 0.0 ] ] } },
{ "type": "Feature", "properties": { "id": 13, "type": 2, "existence": true }, "geometry": { "type": "LineString", "coordinates": [ [ 190.0, 0.0 ], [ 120.0, 0.0 ] ] } },
{ "type": "Feature", "properties": { "id": 14, "type": 2, "existence": true }, "geometry": { "type": "LineString", "coordinates": [ [ 120.0, 0.0 ], [ 60.0, 0.0 ] ] } },
{ "type": "Feature", "properties": { "id": 15, "type": 2, "existence": true }, "geometry": { "type": "LineString", "coordinates": [ [ 60.0, 0.0 ], [ 0.0, 0.0 ] ] } },
{ "type": "Feature", "properties": { "id": 16, "type": 2, "existence": true }, "geometry": { "type": "LineString", "coordinates": [ [ 0.0, 120.0 ], [ 60.0, 120.0 ] ] } },
{ "type": "Feature", "properties": { "id": 17, "type": 2, "existence": true }, "geometry": { "type": "LineString", "coordinates": [ [ 60.0, 120.0 ], [ 120.0, 120.0 ] ] } },
{ "type": "Feature", "properties": { "id": 18, "type": 2, "existence": true }, "geometry": { "type": "LineString", "coordinates": [ [ 120.0, 120.0 ], [ 190.0, 120.0 ] ] } },
{ "type": "Feature", "properties": { "id": 19, "type": 2, "existence": true }, "geometry": { "type": "LineString", "coordinates": [ [ 190.0, 120.0 ], [ 240.0, 120.0 ] ] } },
{ "type": "Feature", "properties": { "id": 20, "type": 2, "existence": true }, "geometry": { "type": "LineString", "coordinates": [ [ 120.0, 0.0 ], [ 120.0, 50.0 ] ] } },
{ "type": "Feature", "properties": { "id": 21, "type": 2, "existence": true }, "geometry": { "type": "LineString", "coordinates": [ [ 120.0, 50.0 ], [ 120.0, 120.0 ] ] } },
{ "type": "Feature", "properties": { "id": 22, "type": 2, "existence": true }, "geometry": { "type": "LineString", "coordinates": [ [ 120.0, 120.0 ], [ 120.0, 180.0 ] ] } },
{ "type": "Feature", "properties": { "id": 23, "type": 2, "existence": true }, "geometry": { "type": "LineString", "coordinates": [ [ 120.0, 180.0 ], [ 120.0, 240.0 ] ] } },
{ "type": "Feature", "properties": { "id": 24, "type": 2, "existence": true }, "geometry": { "type": "LineString", "coordinates": [ [ 60.0, 0.0 ], [ 60.0, 50.0 ] ] } },
{ "type": "Feature", "properties": { "id": 25, "type": 2, "existence": true }, "geometry": { "type": "LineString", "coordinates": [ [ 60.0, 50.0 ], [ 60.0, 120.0 ] ] } },
{ "type": "Feature", "properties": { "id": 26, "type": 2, "existence": true }, "geometry": { "type": "LineString", "coordinates": [ [ 60.0, 120.0 ], [ 60.0, 180.0 ] ] } },
{ "type": "Feature", "properties": { "id": 27, "type": 2, "existence": true }, "geometry": { "type": "LineString", "coordinates": [ [ 60.0, 180.0 ], [ 60.0, 240.0 ] ] } },
{ "type": "Feature", "properties": { "id": 28, "type": 2, "existence": true }, "geometry": { "type": "LineString", "coordinates": [ [ 190.0, 0.0 ], [ 190.0, 50.0 ] ] } },
{ "type": "Feature", "properties": { "id": 29, "type": 2, "existence": true }, "geometry": { "type": "LineString", "coordinates": [ [ 190.0, 50.0 ], [ 190.0, 120.0 ] ] } },
{ "type": "Feature", "properties": { "id": 30, "type": 2, "existence": true }, "geometry": { "type": "LineString", "coordinates": [ [ 190.0, 120.0 ], [ 190.0, 180.0 ] ] } },
{ "type": "Feature", "properties": { "id": 31, "type": 2, "existence": true }, "geometry": { "type": "LineString", "coordinates": [ [ 190.0, 180.0 ], [ 190.0, 240.0 ] ] } },
{ "type": "Feature", "properties": { "id": 32, "type": 2, "existence": true }, "geometry": { "type": "LineString", "coordinates": [ [ 0.0, 50.0 ], [ 60.0, 50.0 ] ] } },
{ "type": "Feature", "properties": { "id": 33, "type": 2, "existence": true }, "geometry": { "type": "LineString", "coordinates": [ [ 60.0, 50.0 ], [ 120.0, 50.0 ] ] } },
{ "type": "Feature", "properties": { "id": 34, "type": 2, "existence": true }, "geometry": { "type": "LineString", "coordinates": [ [ 120.0, 50.0 ], [ 190.0, 50.0 ] ] } },
{ "type": "Feature", "properties": { "id": 35, "type": 2, "existence": true }, "geometry": { "type": "LineString", "coordinates": [ [ 190.0, 50.0 ], [ 240.0, 50.0 ] ] } },
{ "type": "Feature", "properties": { "id": 36, "type": 2, "existence": true }, "geometry": { "type": "LineString", "coordinates": [ [ 0.0, 180.0 ], [ 60.0, 180.0 ] ] } },
{ "type": "Feature", "properties": { "id": 37, "type": 2, "existence": true }, "geometry": { "type": "LineString", "coordinates": [ [ 60.0, 180.0 ], [ 120.0, 180.0 ] ] } },
{ "type": "Feature", "properties": { "id": 38, "type": 2, "existence": true }, "geometry": { "type": "LineString", "coordinates": [ [ 120.0, 180.0 ], [ 190.0, 180.0 ] ] } },
{ "type": "Feature", "properties": { "id": 39, "type": 2, "existence": true }, "geometry": { "type": "LineString", "coordinates": [ [ 190.0, 180.0 ], [ 240.0, 180.0 ] ] } },
{ "type": "Feature", "properties": { "id": 40, "type": 13, "existence": true }, "geometry": { "type": "Point", "coordinates": [ 0.0, 0.0 ] } },
{ "type": "Feature", "properties": { "id": 41, "type": 13, "existence": true }, "geometry": { "type": "Point", "coordinates": [ 0.0, 50.0 ] } },
{ "type": "Feature", "properties": { "id": 42, "type": 13, "existence": true }, "geometry": { "type": "Point", "coordinates": [ 0.0, 120.0 ] } },
{ "type": "Feature", "properties": { "id": 43, "type": 13, "existence": true }, "geometry": { "type": "Point", "coordinates": [ 0.0, 180.0 ] } },
{ "type": "Feature", "properties": { "id": 44, "type": 13, "existence": true }, "geometry": { "type": "Point", "coordinates": [ 0.0, 240.0 ] } },
{ "type": "Feature", "properties": { "id": 45, "type": 13, "existence": true }, "geometry": { "type": "Point", "coordinates": [ 60.0, 0.0 ] } },
{ "type": "Feature", "properties": { "id": 46, "type": 13, "existence": true }, "geometry": { "type": "Point", "coordinates": [ 60.0, 50.0 ] } },
{ "type": "Feature", "properties": { "id": 47, "type": 13, "existence": true }, "geometry": { "type": "Point", "coordinates": [ 60.0, 120.0 ] } },
{ "type": "Feature", "properties": { "id": 48, "type": 13, "existence": true }, "geometry": { "type": "Point", "coordinates": [ 60.0, 180.0 ] } },
{ "type": "Feature", "properties": { "id": 49, "type": 13, "existence": true }, "geometry": { "type": "Point", "coordinates": [ 60.0, 240.0 ] } },
{ "type": "Feature", "properties": { "id": 50, "type": 13, "existence": true }, "geometry": { "type": "Point", "coordinates": [ 120.0, 0.0 ] } },
{ "type": "Feature", "properties": { "id": 51, "type": 13, "existence": true }, "geometry": { "type": "Point", "coordinates": [ 120.0, 50.0 ] } },
{ "type": "Feature", "properties": { "id": 52, "type": 13, "existence": true }, "geometry": { "type": "Point", "coordinates": [ 120.0, 120.0 ] } },
{ "type": "Feature", "properties": { "id": 53, "type": 13, "existence": true }, "geometry": { "type": "Point", "coordinates": [ 120.0, 180.0 ] } },
{ "type": "Feature", "properties": { "id": 54, "type": 13, "existence": true }, "geometry": { "type": "Point", "coordinates": [ 120.0, 240.0 ] } },
{ "type": "Feature", "properties": { "id": 55, "type": 13, "existence": true }, "geometry": { "type": "Point", "coordinates": [ 190.0, 0.0 ] } },
{ "type": "Feature", "properties": { "id": 56, "type": 13, "existence": true }, "geometry": { "type": "Point", "coordinates": [ 190.0, 50.0 ] } },
{ "type": "Feature", "properties": { "id": 57, "type": 13, "existence": true }, "geometry": { "type": "Point", "coordinates": [ 190.0, 120.0 ] } },
{ "type": "Feature", "properties": { "id": 58, "type": 13, "existence": true }, "geometry": { "type": "Point", "coordinates": [ 190.0, 180.0 ] } },
{ "type": "Feature", "properties": { "id": 59, "type": 13, "existence": true }, "geometry": { "type": "Point", "coordinates": [ 190.0, 240.0 ] } },
{ "type": "Feature", "properties": { "id": 60, "type": 13, "existence": true }, "geometry": { "type": "Point", "coordinates": [ 240.0, 0.0 ] } },
{ "type": "Feature", "properties": { "id": 61, "type": 13, "existence": true }, "geometry": { "type": "Point", "coordinates": [ 240.0, 50.0 ] } },
{ "type": "Feature", "properties": { "id": 62, "type": 13, "existence": true }, "geometry": { "type": "Point", "coordinates": [ 240.0, 120.0 ] } },
{ "type": "Feature", "properties": { "id": 63, "type": 13, "existence": true }, "geometry": { "type": "Point", "coordinates": [ 240.0, 180.0 ] } },
{ "type": "Feature", "properties": { "id": 64, "type": 13, "existence": true }, "geometry": { "type": "Point", "coordinates": [ 240.0, 240.0 ] } },
{ "type": "Feature", "properties": { "id": 65, "type": 1, "existence": true }, "geometry": { "type": "Polygon", "coordinates": [ [ [ 0.0, 0.0 ], [ 0.0, 50.0 ], [ 60.0, 50.0 ], [ 60.0, 0.0 ], [ 0.0, 0.0 ] ] ] } },
{ "type": "Feature", "properties": { "id": 66, "type": 1, "existence": true }, "geometry": { "type": "Polygon", "coordinates": [ [ [ 0.0, 50.0 ], [ 0.0, 120.0 ], [ 60.0, 120.0 ], [ 60.0, 50.0 ], [ 0.0, 50.0 ] ] ] } },
{ "type": "Feature", "properties": { "id": 67, "type": 1, "existence": true }, "geometry": { "type": "Polygon", "coordinates": [ [ [ 0.0, 120.0 ], [ 0.0, 180.0 ], [ 60.0, 180.0 ], [ 60.0, 120.0 ], [ 0.0, 120.0 ] ] ] } },
{ "type": "Feature", "properties": { "id": 68, "type": 1, "existence": true }, "geometry": { "type": "Polygon", "coordinates": [ [ [ 0.0, 180.0 ], [ 0.0, 240.0 ], [ 60.0, 240.0 ], [ 60.0, 180.0 ], [ 0.0, 180.0 ] ] ] } },
{ "type": "Feature", "properties": { "id": 69, "type": 1, "existence": true }, "geometry": { "type": "Polygon", "coordinates": [ [ [ 60.0, 240.0 ], [ 120.0, 240.0 ], [ 120.0, 180.0 ], [ 60.0, 180.0 ], [ 60.0, 240.0 ] ] ] } },
{ "type": "Feature", "properties": { "id": 70, "type": 1, "existence": true }, "geometry": { "type": "Polygon", "coordinates": [ [ [ 120.0, 240.0 ], [ 190.0, 240.0 ], [ 190.0, 180.0 ], [ 120.0, 180.0 ], [ 120.0, 240.0 ] ] ] } },
{ "type": "Feature", "properties": { "id": 71, "type": 1, "existence": true }, "geometry": { "type": "Polygon", "coordinates": [ [ [ 190.0, 240.0 ], [ 240.0, 240.0 ], [ 240.0, 180.0 ], [ 190.0, 180.0 ], [ 190.0, 240.0 ] ] ] } },
{ "type": "Feature", "properties": { "id": 72, "type": 1, "existence": true }, "geometry": { "type": "Polygon", "coordinates": [ [ [ 240.0, 180.0 ], [ 240.0, 120.0 ], [ 190.0, 120.0 ], [ 190.0, 180.0 ], [ 240.0, 180.0 ] ] ] } },
{ "type": "Feature", "properties": { "id": 73, "type": 1, "existence": true }, "geometry": { "type": "Polygon", "coordinates": [ [ [ 240.0, 120.0 ], [ 240.0, 50.0 ], [ 190.0, 50.0 ], [ 190.0, 120.0 ], [ 240.0, 120.0 ] ] ] } },
{ "type": "Feature", "properties": { "id": 74, "type": 1, "existence": true }, "geometry": { "type": "Polygon", "coordinates": [ [ [ 240.0, 50.0 ], [ 240.0, 0.0 ], [ 190.0, 0.0 ], [ 190.0, 50.0 ], [ 240.0, 50.0 ] ] ] } },
{ "type": "Feature", "properties": { "id": 75, "type": 1, "existence": true }, "geometry": { "type": "Polygon", "coordinates": [ [ [ 190.0, 0.0 ], [ 120.0, 0.0 ], [ 120.0, 50.0 ], [ 190.0, 50.0 ], [ 190.0, 0.0 ] ] ] } },
{ "type": "Feature", "properties": { "id": 76, "type": 1, "existence": true }, "geometry": { "type": "Polygon", "coordinates": [ [ [ 120.0, 0.0 ], [ 60.0, 0.0 ], [ 60.0, 50.0 ], [ 120.0, 50.0 ], [ 120.0, 0.0 ] ] ] } },
{ "type": "Feature", "properties": { "id": 77, "type": 1, "existence": true }, "geometry": { "type": "Polygon", "coordinates": [ [ [ 60.0, 120.0 ], [ 120.0, 120.0 ], [ 120.0, 50.0 ], [ 60.0, 50.0 ], [ 60.0, 120.0 ] ] ] } },
{ "type": "Feature", "properties": { "id": 78, "type": 1, "existence": true }, "geometry": { "type": "Polygon", "coordinates": [ [ [ 120.0, 120.0 ], [ 60.0, 120.0 ], [ 60.0, 180.0 ], [ 120.0, 180.0 ], [ 120.0, 120.0 ] ] ] } },
{ "type": "Feature", "properties": { "id": 79, "type": 1, "existence": true }, "geometry": { "type": "Polygon", "coordinates": [ [ [ 120.0, 120.0 ], [ 190.0, 120.0 ], [ 190.0, 50.0 ], [ 120.0, 50.0 ], [ 120.0, 120.0 ] ] ] } },
{ "type": "Feature", "properties": { "id": 80, "type": 1, "existence": true }, "geometry": { "type": "Polygon", "coordinates": [ [ [ 190.0, 120.0 ], [ 120.0, 120.0 ], [ 120.0, 180.0 ], [ 190.0, 180.0 ], [ 190.0, 120.0 ] ] ] } }
]
}
