{
"type": "FeatureCollection",
"crs": { "type": "name", "properties": { "name": "urn:ogc:def:crs:OGC:1.3:CRS84" } },
"features": [
{ "type": "Feature", "properties": { "id": 1, "type": 13, "existence": true }, "geometry": { "type": "Point", "coordinates": [ 0.0, 0.0 ] } },
{ "type": "Feature", "properties": { "id": 2, "type": 13, "existence": true }, "geometry": { "type": "Point", "coordinates": [ 50.0, 0.0 ] } },
{ "type": "Feature", "properties": { "id": 3, "type": 13, "existence": true }, "geometry": { "type": "Point", "coordinates": [ 50.0, 50.0 ] } },
{ "type": "Feature", "properties": { "id": 4, "type": 13, "existence": true }, "geometry": { "type": "Point", "coordinates": [ 0.0, 50.0 ] } },
{ "type": "Feature", "properties": { "id": 5, "type": 2, "existence": true }, "geometry": { "type": "LineString", "coordinates": [ [ 0.0, 0.0 ], [ 50.0, 0.0 ] ] } },
{ "type": "Feature", "properties": { "id": 6, "type": 2, "existence": true }, "geometry": { "type": "LineString", "coordinates": [ [ 50.0, 0.0 ], [ 50.0, 50.0 ] ] } },
{ "type": "Feature", "properties": { "id": 7, "type": 2, "existence": true }, "geometry": { "type": "LineString", "coordinates": [ [ 50.0, 50.0 ], [ 0.0, 50.0 ] ] } },
{ "type": "Feature", "properties": { "id": 8, "type": 2, "existence": true }, "geometry": { "type": "LineString", "coordinates": [ [ 0.0, 50.0 ], [ 0.0, 0.0 ] ] } },
{ "type": "Feature", "properties": { "id": 9, "type": 1, "existence": true }, "geometry": { "type": "Polygon", "coordinates": [ [ [ 0.0, 0.0 ], [ 50.0, 0.0 ], [ 50.0, 50.0 ], [ 0.0, 50.0 ], [ 0.0, 0.0 ] ] ] } },
{ "type": "Feature", "properties": { "id": 10, "type": 13, "existence": true }, "geometry": { "type": "Point", "coordinates": [ 0.0, 50.0 ] } },
{ "type": "Feature", "properties": { "id": 11, "type": 13, "existence": true }, "geometry": { "type": "Point", "coordinates": [ 50.0, 50.0 ] } },
{ "type": "Feature", "properties": { "id": 12, "type": 13, "existence": true }, "geometry": { "type": "Point", "coordinates": [ 50.0, 100.0 ] } },
{ "type": "Feature", "properties": { "id": 13, "type": 13, "existence": true }, "geometry": { "type": "Point", "coordinates": [ 0.0, 100.0 ] } },
{ "type": "Feature", "properties": { "id": 14, "type": 2, "existence": true }, "geometry": { "type": "LineString", "coordinates": [ [ 0.0, 50.0 ], [ 50.0, 50.0 ] ] } },
{ "type": "Feature", "properties": { "id": 15, "type": 2, "existence": true }, "geometry": { "type": "LineString", "coordinates": [ [ 50.0, 50.0 ], [ 50.0, 100.0 ] ] } },
{ "type": "Feature", "properties": { "id": 16, "type": 2, "existence": true }, "geometry": { "type": "LineString", "coordinates": [ [ 50.0, 100.0 ], [ 0.0, 100.0 ] ] } },
{ "type": "Feature", "properties": { "id": 17, "type": 2, "existence": true }, "geometry": { "type": "LineString", "coordinates": [ [ 0.0, 100.0 ], [ 0.0, 50.0 ] ] } },
{ "type": "Feature", "properties": { "id": 18, "type": 1, "existence": true }, "geometry": { "type": "Polygon", "coordinates": [ [ [ 0.0, 50.0 ], [ 50.0, 50.0 ], [ 50.0, 100.0 ], [ 0.0, 100.0 ], [ 0.0, 50.0 ] ] ] } },
{ "type": "Feature", "properties": { "id": 19, "type": 13, "existence": true }, "geometry": { "type": "Point", "coordinates": [ 0.0, 100.0 ] } },
{ "type": "Feature", "properties": { "id": 20, "type": 13, "existence": true }, "geometry": { "type": "Point", "coordinates": [ 50.0, 100.0 ] } },
{ "type": "Feature", "properties": { "id": 21, "type": 13, "existence": true }, "geometry": { "type": "Point", "coordinates": [ 50.0, 150.0 ] } },
{ "type": "Feature", "properties": { "id": 22, "type": 13, "existence": true }, "geometry": { "type": "Point", "coordinates": [ 0.0, 150.0 ] } },
{ "type": "Feature", "properties": { "id": 23, "type": 2, "existence": true }, "geometry": { "type": "LineString", "coordinates": [ [ 0.0, 100.0 ], [ 50.0, 100.0 ] ] } },
{ "type": "Feature", "properties": { "id": 24, "type": 2, "existence": true }, "geometry": { "type": "LineString", "coordinates": [ [ 50.0, 100.0 ], [ 50.0, 150.0 ] ] } },
{ "type": "Feature", "properties": { "id": 25, "type": 2, "existence": true }, "geometry": { "type": "LineString", "coordinates": [ [ 50.0, 150.0 ], [ 0.0, 150.0 ] ] } },
{ "type": "Feature", "properties": { "id": 26, "type": 2, "existence": true }, "geometry": { "type": "LineString", "coordinates": [ [ 0.0, 150.0 ], [ 0.0, 100.0 ] ] } },
{ "type": "Feature", "properties": { "id": 27, "type": 1, "existence": true }, "geometry": { "type": "Polygon", "coordinates": [ [ [ 0.0, 100.0 ], [ 50.0, 100.0 ], [ 50.0, 150.0 ], [ 0.0, 150.0 ], [ 0.0, 100.0 ] ] ] } },
{ "type": "Feature", "properties": { "id": 28, "type": 13, "existence": true }, "geometry": { "type": "Point", "coordinates": [ 0.0, 150.0 ] } },
{ "type": "Feature", "properties": { "id": 29, "type": 13, "existence": true }, "geometry": { "type": "Point", "coordinates": [ 50.0, 150.0 ] } },
{ "type": "Feature", "properties": { "id": 30, "type": 13, "existence": true }, "geometry": { "type": "Point", "coordinates": [ 50.0, 200.0 ] } },
{ "type": "Feature", "properties": { "id": 31, "type": 13, "existence": true }, "geometry": { "type": "Point", "coordinates": [ 0.0, 200.0 ] } },
{ "type": "Feature", "properties": { "id": 32, "type": 2, "existence": true }, "geometry": { "type": "LineString", "coordinates": [ [ 0.0, 150.0 ], [ 50.0, 150.0 ] ] } },
{ "type": "Feature", "properties": { "id": 33, "type": 2, "existence": true }, "geometry": { "type": "LineString", "coordinates": [ [ 50.0, 150.0 ], [ 50.0, 200.0 ] ] } },
{ "type": "Feature", "properties": { "id": 34, "type": 2, "existence": true }, "geometry": { "type": "LineString", "coordinates": [ [ 50.0, 200.0 ], [ 0.0, 200.0 ] ] } },
{ "type": "Feature", "properties": { "id": 35, "type": 2, "existence": true }, "geometry": { "type": "LineString", "coordinates": [ [ 0.0, 200.0 ], [ 0.0, 150.0 ] ] } },
{ "type": "Feature", "properties": { "id": 36, "type": 1, "existence": true }, "geometry": { "type": "Polygon", "coordinates": [ [ [ 0.0, 150.0 ], [ 50.0, 150.0 ], [ 50.0, 200.0 ], [ 0.0, 200.0 ], [ 0.0, 150.0 ] ] ] } },
{ "type": "Feature", "properties": { "id": 37, "type": 13, "existence": true }, "geometry": { "type": "Point", "coordinates": [ 50.0, 0.0 ] } },
{ "type": "Feature", "properties": { "id": 38, "type": 13, "existence": true }, "geometry": { "type": "Point", "coordinates": [ 100.0, 0.0 ] } },
{ "type": "Feature", "properties": { "id": 39, "type": 13, "existence": true }, "geometry": { "type": "Point", "coordinates": [ 100.0, 50.0 ] } },
{ "type": "Feature", "properties": { "id": 40, "type": 13, "existence": true }, "geometry": { "type": "Point", "coordinates": [ 50.0, 50.0 ] } },
{ "type": "Feature", "properties": { "id": 41, "type": 2, "existence": true }, "geometry": { "type": "LineString", "coordinates": [ [ 50.0, 0.0 ], [ 100.0, 0.0 ] ] } },
{ "type": "Feature", "properties": { "id": 42, "type": 2, "existence": true }, "geometry": { "type": "LineString", "coordinates": [ [ 100.0, 0.0 ], [ 100.0, 50.0 ] ] } },
{ "type": "Feature", "properties": { "id": 43, "type": 2, "existence": true }, "geometry": { "type": "LineString", "coordinates": [ [ 100.0, 50.0 ], [ 50.0, 50.0 ] ] } },
{ "type": "Feature", "properties": { "id": 44, "type": 2, "existence": true }, "geometry": { "type": "LineString", "coordinates": [ [ 50.0, 50.0 ], [ 50.0, 0.0 ] ] } },
{ "type": "Feature", "properties": { "id": 45, "type": 1, "existence": true }, "geometry": { "type": "Polygon", "coordinates": [ [ [ 50.0, 0.0 ], [ 100.0, 0.0 ], [ 100.0, 50.0 ], [ 50.0, 50.0 ], [ 50.0, 0.0 ] ] ] } },
{ "type": "Feature", "properties": { "id": 46, "type": 13, "existence": true }, "geometry": { "type": "Point", "coordinates": [ 50.0, 50.0 ] } },
{ "type": "Feature", "properties": { "id": 47, "type": 13, "existence": true }, "geometry": { "type": "Point", "coordinates": [ 100.0, 50.0 ] } },
{ "type": "Feature", "properties": { "id": 48, "type": 13, "existence": true }, "geometry": { "type": "Point", "coordinates": [ 100.0, 100.0 ] } },
{ "type": "Feature", "properties": { "id": 49, "type": 13, "existence": true }, "geometry": { "type": "Point", "coordinates": [ 50.0, 100.0 ] } },
{ "type": "Feature", "properties": { "id": 50, "type": 2, "existence": true }, "geometry": { "type": "LineString", "coordinates": [ [ 50.0, 50.0 ], [ 100.0, 50.0 ] ] } },
{ "type": "Feature", "properties": { "id": 51, "type": 2, "existence": true }, "geometry": { "type": "LineString", "coordinates": [ [ 100.0, 50.0 ], [ 100.0, 100.0 ] ] } },
{ "type": "Feature", "properties": { "id": 52, "type": 2, "existence": true }, "geometry": { "type": "LineString", "coordinates": [ [ 100.0, 100.0 ], [ 50.0, 100.0 ] ] } },
{ "type": "Feature", "properties": { "id": 53, "type": 2, "existence": true }, "geometry": { "type": "LineString", "coordinates": [ [ 50.0, 100.0 ], [ 50.0, 50.0 ] ] } },
{ "type": "Feature", "properties": { "id": 54, "type": 1, "existence": true }, "geometry": { "type": "Polygon", "coordinates": [ [ [ 50.0, 50.0 ], [ 100.0, 50.0 ], [ 100.0, 100.0 ], [ 50.0, 100.0 ], [ 50.0, 50.0 ] ] ] } },
{ "type": "Feature", "properties": { "id": 55, "type": 13, "existence": true }, "geometry": { "type": "Point", "coordinates": [ 50.0, 100.0 ] } },
{ "type": "Feature", "properties": { "id": 56, "type": 13, "existence": true }, "geometry": { "type": "Point", "coordinates": [ 100.0, 100.0 ] } },
{ "type": "Feature", "properties": { "id": 57, "type": 13, "existence": true }, "geometry": { "type": "Point", "coordinates": [ 100.0, 150.0 ] } },
{ "type": "Feature", "properties": { "id": 58, "type": 13, "existence": true }, "geometry": { "type": "Point", "coordinates": [ 50.0, 150.0 ] } },
{ "type": "Feature", "properties": { "id": 59, "type": 2, "existence": true }, "geometry": { "type": "LineString", "coordinates": [ [ 50.0, 100.0 ], [ 100.0, 100.0 ] ] } },
{ "type": "Feature", "properties": { "id": 60, "type": 2, "existence": true }, "geometry": { "type": "LineString", "coordinates": [ [ 100.0, 100.0 ], [ 100.0, 150.0 ] ] } },
{ "type": "Feature", "properties": { "id": 61, "type": 2, "existence": true }, "geometry": { "type": "LineString", "coordinates": [ [ 100.0, 150.0 ], [ 50.0, 150.0 ] ] } },
{ "type": "Feature", "properties": { "id": 62, "type": 2, "existence": true }, "geometry": { "type": "LineString", "coordinates": [ [ 50.0, 150.0 ], [ 50.0, 100.0 ] ] } },
{ "type": "Feature", "properties": { "id": 63, "type": 1, "existence": true }, "geometry": { "type": "Polygon", "coordinates": [ [ [ 50.0, 100.0 ], [ 100.0, 100.0 ], [ 100.0, 150.0 ], [ 50.0, 150.0 ], [ 50.0, 100.0 ] ] ] } },
{ "type": "Feature", "properties": { "id": 64, "type": 13, "existence": true }, "geometry": { "type": "Point", "coordinates": [ 50.0, 150.0 ] } },
{ "type": "Feature", "properties": { "id": 65, "type": 13, "existence": true }, "geometry": { "type": "Point", "coordinates": [ 100.0, 150.0 ] } },
{ "type": "Feature", "properties": { "id": 66, "type": 13, "existence": true }, "geometry": { "type": "Point", "coordinates": [ 100.0, 200.0 ] } },
{ "type": "Feature", "properties": { "id": 67, "type": 13, "existence": true }, "geometry": { "type": "Point", "coordinates": [ 50.0, 200.0 ] } },
{ "type": "Feature", "properties": { "id": 68, "type": 2, "existence": true }, "geometry": { "type": "LineString", "coordinates": [ [ 50.0, 150.0 ], [ 100.0, 150.0 ] ] } },
{ "type": "Feature", "properties": { "id": 69, "type": 2, "existence": true }, "geometry": { "type": "LineString", "coordinates": [ [ 100.0, 150.0 ], [ 100.0, 200.0 ] ] } },
{ "type": "Feature", "properties": { "id": 70, "type": 2, "existence": true }, "geometry": { "type": "LineString", "coordinates": [ [ 100.0, 200.0 ], [ 50.0, 200.0 ] ] } },
{ "type": "Feature", "properties": { "id": 71, "type": 2, "existence": true }, "geometry": { "type": "LineString", "coordinates": [ [ 50.0, 200.0 ], [ 50.0, 150.0 ] ] } },
{ "type": "Feature", "properties": { "id": 72, "type": 1, "existence": true }, "geometry": { "type": "Polygon", "coordinates": [ [ [ 50.0, 150.0 ], [ 100.0, 150.0 ], [ 100.0, 200.0 ], [ 50.0, 200.0 ], [ 50.0, 150.0 ] ] ] } },
{ "type": "Feature", "properties": { "id": 73, "type": 13, "existence": true }, "geometry": { "type": "Point", "coordinates": [ 100.0, 0.0 ] } },
{ "type": "Feature", "properties": { "id": 74, "type": 13, "existence": true }, "geometry": { "type": "Point", "coordinates": [ 150.0, 0.0 ] } },
{ "type": "Feature", "properties": { "id": 75, "type": 13, "existence": true }, "geometry": { "type": "Point", "coordinates": [ 150.0, 50.0 ] } },
{ "type": "Feature", "properties": { "id": 76, "type": 13, "existence": true }, "geometry": { "type": "Point", "coordinates": [ 100.0, 50.0 ] } },
{ "type": "Feature", "properties": { "id": 77, "type": 2, "existence": true }, "geometry": { "type": "LineString", "coordinates": [ [ 100.0, 0.0 ], [ 150.0, 0.0 ] ] } },
{ "type": "Feature", "properties": { "id": 78, "type": 2, "existence": true }, "geometry": { "type": "LineString", "coordinates": [ [ 150.0, 0.0 ], [ 150.0, 50.0 ] ] } },
{ "type": "Feature", "properties": { "id": 79, "type": 2, "existence": true }, "geometry": { "type": "LineString", "coordinates": [ [ 150.0, 50.0 ], [ 100.0, 50.0 ] ] } },
{ "type": "Feature", "properties": { "id": 80, "type": 2, "existence": true }, "geometry": { "type": "LineString", "coordinates": [ [ 100.0, 50.0 ], [ 100.0, 0.0 ] ] } },
{ "type": "Feature", "properties": { "id": 81, "type": 1, "existence": true }, "geometry": { "type": "Polygon", "coordinates": [ [ [ 100.0, 0.0 ], [ 150.0, 0.0 ], [ 150.0, 50.0 ], [ 100.0, 50.0 ], [ 100.0, 0.0 ] ] ] } },
{ "type": "Feature", "properties": { "id": 82, "type": 13, "existence": true }, "geometry": { "type": "Point", "coordinates": [ 100.0, 50.0 ] } },
{ "type": "Feature", "properties": { "id": 83, "type": 13, "existence": true }, "geometry": { "type": "Point", "coordinates": [ 150.0, 50.0 ] } },
{ "type": "Feature", "properties": { "id": 84, "type": 13, "existence": true }, "geometry": { "type": "Point", "coordinates": [ 150.0, 100.0 ] } },
{ "type": "Feature", "properties": { "id": 85, "type": 13, "existence": true }, "geometry": { "type": "Point", "coordinates": [ 100.0, 100.0 ] } },
{ "type": "Feature", "properties": { "id": 86, "type": 2, "existence": true }, "geometry": { "type": "LineString", "coordinates": [ [ 100.0, 50.0 ], [ 150.0, 50.0 ] ] } },
{ "type": "Feature", "properties": { "id": 87, "type": 2, "existence": true }, "geometry": { "type": "LineString", "coordinates": [ [ 150.0, 50.0 ], [ 150.0, 100.0 ] ] } },
{ "type": "Feature", "properties": { "id": 88, "type": 2, "existence": true }, "geometry": { "type": "LineString", "coordinates": [ [ 150.0, 100.0 ], [ 100.0, 100.0 ] ] } },
{ "type": "Feature", "properties": { "id": 89, "type": 2, "existence": true }, "geometry": { "type": "LineString", "coordinates": [ [ 100.0, 100.0 ], [ 100.0, 50.0 ] ] } },
{ "type": "Feature", "properties": { "id": 90, "type": 1, "existence": true }, "geometry": { "type": "Polygon", "coordinates": [ [ [ 100.0, 50.0 ], [ 150.0, 50.0 ], [ 150.0, 100.0 ], [ 100.0, 100.0 ], [ 100.0, 50.0 ] ] ] } },
{ "type": "Feature", "properties": { "id": 91, "type": 13, "existence": true }, "geometry": { "type": "Point", "coordinates": [ 100.0, 100.0 ] } },
{ "type": "Feature", "properties": { "id": 92, "type": 13, "existence": true }, "geometry": { "type": "Point", "coordinates": [ 150.0, 100.0 ] } },
{ "type": "Feature", "properties": { "id": 93, "type": 13, "existence": true }, "geometry": { "type": "Point", "coordinates": [ 150.0, 150.0 ] } },
{ "type": "Feature", "properties": { "id": 94, "type": 13, "existence": true }, "geometry": { "type": "Point", "coordinates": [ 100.0, 150.0 ] } },
{ "type": "Feature", "properties": { "id": 95, "type": 2, "existence": true }, "geometry": { "type": "LineString", "coordinates": [ [ 100.0, 100.0 ], [ 150.0, 100.0 ] ] } },
{ "type": "Feature", "properties": { "id": 96, "type": 2, "existence": true }, "geometry": { "type": "LineString", "coordinates": [ [ 150.0, 100.0 ], [ 150.0, 150.0 ] ] } },
{ "type": "Feature", "properties": { "id": 97, "type": 2, "existence": true }, "geometry": { "type": "LineString", "coordinates": [ [ 150.0, 150.0 ], [ 100.0, 150.0 ] ] } },
{ "type": "Feature", "properties": { "id": 98, "type": 2, "existence": true }, "geometry": { "type": "LineString", "coordinates": [ [ 100.0, 150.0 ], [ 100.0, 100.0 ] ] } },
{ "type": "Feature", "properties": { "id": 99, "type": 1, "existence": true }, "geometry": { "type": "Polygon", "coordinates": [ [ [ 100.0, 100.0 ], [ 150.0, 100.0 ], [ 150.0, 150.0 ], [ 100.0, 150.0 ], [ 100.0, 100.0 ] ] ] } },
{ "type": "Feature", "properties": { "id": 100, "type": 13, "existence": true }, "geometry": { "type": "Point", "coordinates": [ 100.0, 150.0 ] } },
{ "type": "Feature", "properties": { "id": 101, "type": 13, "existence": true }, "geometry": { "type": "Point", "coordinates": [ 150.0, 150.0 ] } },
{ "type": "Feature", "properties": { "id": 102, "type": 13, "existence": true }, "geometry": { "type": "Point", "coordinates": [ 150.0, 200.0 ] } },
{ "type": "Feature", "properties": { "id": 103, "type": 13, "existence": true }, "geometry": { "type": "Point", "coordinates": [ 100.0, 200.0 ] } },
{ "type": "Feature", "properties": { "id": 104, "type": 2, "existence": true }, "geometry": { "type": "LineString", "coordinates": [ [ 100.0, 150.0 ], [ 150.0, 150.0 ] ] } },
{ "type": "Feature", "properties": { "id": 105, "type": 2, "existence": true }, "geometry": { "type": "LineString", "coordinates": [ [ 150.0, 150.0 ], [ 150.0, 200.0 ] ] } },
{ "type": "Feature", "properties": { "id": 106, "type": 2, "existence": true }, "geometry": { "type": "LineString", "coordinates": [ [ 150.0, 200.0 ], [ 100.0, 200.0 ] ] } },
{ "type": "Feature", "properties": { "id": 107, "type": 2, "existence": true }, "geometry": { "type": "LineString", "coordinates": [ [ 100.0, 200.0 ], [ 100.0, 150.0 ] ] } },
{ "type": "Feature", "properties": { "id": 108, "type": 1, "existence": true }, "geometry": { "type": "Polygon", "coordinates": [ [ [ 100.0, 150.0 ], [ 150.0, 150.0 ], [ 150.0, 200.0 ], [ 100.0, 200.0 ], [ 100.0, 150.0 ] ] ] } },
{ "type": "Feature", "properties": { "id": 109, "type": 13, "existence": true }, "geometry": { "type": "Point", "coordinates": [ 150.0, 0.0 ] } },
{ "type": "Feature", "properties": { "id": 110, "type": 13, "existence": true }, "geometry": { "type": "Point", "coordinates": [ 200.0, 0.0 ] } },
{ "type": "Feature", "properties": { "id": 111, "type": 13, "existence": true }, "geometry": { "type": "Point", "coordinates": [ 200.0, 50.0 ] } },
{ "type": "Feature", "properties": { "id": 112, "type": 13, "existence": true }, "geometry": { "type": "Point", "coordinates": [ 150.0, 50.0 ] } },
{ "type": "Feature", "properties": { "id": 113, "type": 2, "existence": true }, "geometry": { "type": "LineString", "coordinates": [ [ 150.0, 0.0 ], [ 200.0, 0.0 ] ] } },
{ "type": "Feature", "properties": { "id": 114, "type": 2, "existence": true }, "geometry": { "type": "LineString", "coordinates": [ [ 200.0, 0.0 ], [ 200.0, 50.0 ] ] } },
{ "type": "Feature", "properties": { "id": 115, "type": 2, "existence": true }, "geometry": { "type": "LineString", "coordinates": [ [ 200.0, 50.0 ], [ 150.0, 50.0 ] ] } },
{ "type": "Feature", "properties": { "id": 116, "type": 2, "existence": true }, "geometry": { "type": "LineString", "coordinates": [ [ 150.0, 50.0 ], [ 150.0, 0.0 ] ] } },
{ "type": "Feature", "properties": { "id": 117, "type": 1, "existence": true }, "geometry": { "type": "Polygon", "coordinates": [ [ [ 150.0, 0.0 ], [ 200.0, 0.0 ], [ 200.0, 50.0 ], [ 150.0, 50.0 ], [ 150.0, 0.0 ] ] ] } },
{ "type": "Feature", "properties": { "id": 118, "type": 13, "existence": true }, "geometry": { "type": "Point", "coordinates": [ 150.0, 50.0 ] } },
{ "type": "Feature", "properties": { "id": 119, "type": 13, "existence": true }, "geometry": { "type": "Point", "coordinates": [ 200.0, 50.0 ] } },
{ "type": "Feature", "properties": { "id": 120, "type": 13, "existence": true }, "geometry": { "type": "Point", "coordinates": [ 200.0, 100.0 ] } },
{ "type": "Feature", "properties": { "id": 121, "type": 13, "existence": true }, "geometry": { "type": "Point", "coordinates": [ 150.0, 100.0 ] } },
{ "type": "Feature", "properties": { "id": 122, "type": 2, "existence": true }, "geometry": { "type": "LineString", "coordinates": [ [ 150.0, 50.0 ], [ 200.0, 50.0 ] ] } },
{ "type": "Feature", "properties": { "id": 123, "type": 2, "existence": true }, "geometry": { "type": "LineString", "coordinates": [ [ 200.0, 50.0 ], [ 200.0, 100.0 ] ] } },
{ "type": "Feature", "properties": { "id": 124, "type": 2, "existence": true }, "geometry": { "type": "LineString", "coordinates": [ [ 200.0, 100.0 ], [ 150.0, 100.0 ] ] } },
{ "type": "Feature", "properties": { "id": 125, "type": 2, "existence": true }, "geometry": { "type": "LineString", "coordinates": [ [ 150.0, 100.0 ], [ 150.0, 50.0 ] ] } },
{ "type": "Feature", "properties": { "id": 126, "type": 1, "existence": true }, "geometry": { "type": "Polygon", "coordinates": [ [ [ 150.0, 50.0 ], [ 200.0, 50.0 ], [ 200.0, 100.0 ], [ 150.0, 100.0 ], [ 150.0, 50.0 ] ] ] } },
{ "type": "Feature", "properties": { "id": 127, "type": 13, "existence": true }, "geometry": { "type": "Point", "coordinates": [ 150.0, 100.0 ] } },
{ "type": "Feature", "properties": { "id": 128, "type": 13, "existence": true }, "geometry": { "type": "Point", "coordinates": [ 200.0, 100.0 ] } },
{ "type": "Feature", "properties": { "id": 129, "type": 13, "existence": true }, "geometry": { "type": "Point", "coordinates": [ 200.0, 150.0 ] } },
{ "type": "Feature", "properties": { "id": 130, "type": 13, "existence": true }, "geometry": { "type": "Point", "coordinates": [ 150.0, 150.0 ] } },
{ "type": "Feature", "properties": { "id": 131, "type": 2, "existence": true }, "geometry": { "type": "LineString", "coordinates": [ [ 150.0, 100.0 ], [ 200.0, 100.0 ] ] } },
{ "type": "Feature", "properties": { "id": 132, "type": 2, "existence": true }, "geometry": { "type": "LineString", "coordinates": [ [ 200.0, 100.0 ], [ 200.0, 150.0 ] ] } },
{ "type": "Feature", "properties": { "id": 133, "type": 2, "existence": true }, "geometry": { "type": "LineString", "coordinates": [ [ 200.0, 150.0 ], [ 150.0, 150.0 ] ] } },
{ "type": "Feature", "properties": { "id": 134, "type": 2, "existence": true }, "geometry": { "type": "LineString", "coordinates": [ [ 150.0, 150.0 ], [ 150.0, 100.0 ] ] } },
{ "type": "Feature", "properties": { "id": 135, "type": 1, "existence": true }, "geometry": { "type": "Polygon", "coordinates": [ [ [ 150.0, 100.0 ], [ 200.0, 100.0 ], [ 200.0, 150.0 ], [ 150.0, 150.0 ], [ 150.0, 100.0 ] ] ] } },
{ "type": "Feature", "properties": { "id": 136, "type": 13, "existence": true }, "geometry": { "type": "Point", "coordinates": [ 150.0, 150.0 ] } },
{ "type": "Feature", "properties": { "id": 137, "type": 13, "existence": true }, "geometry": { "type": "Point", "coordinates": [ 200.0, 150.0 ] } },
{ "type": "Feature", "properties": { "id": 138, "type": 13, "existence": true }, "geometry": { "type": "Point", "coordinates": [ 200.0, 200.0 ] } },
{ "type": "Feature", "properties": { "id": 139, "type": 13, "existence": true }, "geometry": { "type": "Point", "coordinates": [ 150.0, 200.0 ] } },
{ "type": "Feature", "properties": { "id": 140, "type": 2, "existence": true }, "geometry": { "type": "LineString", "coordinates": [ [ 150.0, 150.0 ], [ 200.0, 150.0 ] ] } },
{ "type": "Feature", "properties": { "id": 141, "type": 2, "existence": true }, "geometry": { "type": "LineString", "coordinates": [ [ 200.0, 150.0 ], [ 200.0, 200.0 ] ] } },
{ "type": "Feature", "properties": { "id": 142, "type": 2, "existence": true }, "geometry": { "type": "LineString", "coordinates": [ [ 200.0, 200.0 ], [ 150.0, 200.0 ] ] } },
{ "type": "Feature", "properties": { "id": 143, "type": 2, "existence": true }, "geometry": { "type": "LineString", "coordinates": [ [ 150.0, 200.0 ], [ 150.0, 150.0 ] ] } },
{ "type": "Feature", "properties": { "id": 144, "type": 1, "existence": true }, "geometry": { "type": "Polygon", "coordinates": [ [ [ 150.0, 150.0 ], [ 200.0, 150.0 ], [ 200.0, 200.0 ], [ 150.0, 200.0 ], [ 150.0, 150.0 ] ] ] } },
{ "type": "Feature", "properties": { "id": 145, "type": 13, "existence": true }, "geometry": { "type": "Point", "coordinates": [ 200.0, 0.0 ] } },
{ "type": "Feature", "properties": { "id": 146, "type": 13, "existence": true }, "geometry": { "type": "Point", "coordinates": [ 250.0, 0.0 ] } },
{ "type": "Feature", "properties": { "id": 147, "type": 13, "existence": true }, "geometry": { "type": "Point", "coordinates": [ 250.0, 50.0 ] } },
{ "type": "Feature", "properties": { "id": 148, "type": 13, "existence": true }, "geometry": { "type": "Point", "coordinates": [ 200.0, 50.0 ] } },
{ "type": "Feature", "properties": { "id": 149, "type": 2, "existence": true }, "geometry": { "type": "LineString", "coordinates": [ [ 200.0, 0.0 ], [ 250.0, 0.0 ] ] } },
{ "type": "Feature", "properties": { "id": 150, "type": 2, "existence": true }, "geometry": { "type": "LineString", "coordinates": [ [ 250.0, 0.0 ], [ 250.0, 50.0 ] ] } },
{ "type": "Feature", "properties": { "id": 151, "type": 2, "existence": true }, "geometry": { "type": "LineString", "coordinates": [ [ 250.0, 50.0 ], [ 200.0, 50.0 ] ] } },
{ "type": "Feature", "properties": { "id": 152, "type": 2, "existence": true }, "geometry": { "type": "LineString", "coordinates": [ [ 200.0, 50.0 ], [ 200.0, 0.0 ] ] } },
{ "type": "Feature", "properties": { "id": 153, "type": 1, "existence": true }, "geometry": { "type": "Polygon", "coordinates": [ [ [ 200.0, 0.0 ], [ 250.0, 0.0 ], [ 250.0, 50.0 ], [ 200.0, 50.0 ], [ 200.0, 0.0 ] ] ] } },
{ "type": "Feature", "properties": { "id": 154, "type": 13, "existence": true }, "geometry": { "type": "Point", "coordinates": [ 200.0, 50.0 ] } },
{ "type": "Feature", "properties": { "id": 155, "type": 13, "existence": true }, "geometry": { "type": "Point", "coordinates": [ 250.0, 50.0 ] } },
{ "type": "Feature", "properties": { "id": 156, "type": 13, "existence": true }, "geometry": { "type": "Point", "coordinates": [ 250.0, 100.0 ] } },
{ "type": "Feature", "properties": { "id": 157, "type": 13, "existence": true }, "geometry": { "type": "Point", "coordinates": [ 200.0, 100.0 ] } },
{ "type": "Feature", "properties": { "id": 158, "type": 2, "existence": true }, "geometry": { "type": "LineString", "coordinates": [ [ 200.0, 50.0 ], [ 250.0, 50.0 ] ] } },
{ "type": "Feature", "properties": { "id": 159, "type": 2, "existence": true }, "geometry": { "type": "LineString", "coordinates": [ [ 250.0, 50.0 ], [ 250.0, 100.0 ] ] } },
{ "type": "Feature", "properties": { "id": 160, "type": 2, "existence": true }, "geometry": { "type": "LineString", "coordinates": [ [ 250.0, 100.0 ], [ 200.0, 100.0 ] ] } },
{ "type": "Feature", "properties": { "id": 161, "type": 2, "existence": true }, "geometry": { "type": "LineString", "coordinates": [ [ 200.0, 100.0 ], [ 200.0, 50.0 ] ] } },
{ "type": "Feature", "properties": { "id": 162, "type": 1, "existence": true }, "geometry": { "type": "Polygon", "coordinates": [ [ [ 200.0, 50.0 ], [ 250.0, 50.0 ], [ 250.0, 100.0 ], [ 200.0, 100.0 ], [ 200.0, 50.0 ] ] ] } },
{ "type": "Feature", "properties": { "id": 163, "type": 13, "existence": true }, "geometry": { "type": "Point", "coordinates": [ 200.0, 100.0 ] } },
{ "type": "Feature", "properties": { "id": 164, "type": 13, "existence": true }, "geometry": { "type": "Point", "coordinates": [ 250.0, 100.0 ] } },
{ "type": "Feature", "properties": { "id": 165, "type": 13, "existence": true }, "geometry": { "type": "Point", "coordinates": [ 250.0, 150.0 ] } },
{ "type": "Feature", "properties": { "id": 166, "type": 13, "existence": true }, "geometry": { "type": "Point", "coordinates": [ 200.0, 150.0 ] } },
{ "type": "Feature", "properties": { "id": 167, "type": 2, "existence": true }, "geometry": { "type": "LineString", "coordinates": [ [ 200.0, 100.0 ], [ 250.0, 100.0 ] ] } },
{ "type": "Feature", "properties": { "id": 168, "type": 2, "existence": true }, "geometry": { "type": "LineString", "coordinates": [ [ 250.0, 100.0 ], [ 250.0, 150.0 ] ] } },
{ "type": "Feature", "properties": { "id": 169, "type": 2, "existence": true }, "geometry": { "type": "LineString", "coordinates": [ [ 250.0, 150.0 ], [ 200.0, 150.0 ] ] } },
{ "type": "Feature", "properties": { "id": 170, "type": 2, "existence": true }, "geometry": { "type": "LineString", "coordinates": [ [ 200.0, 150.0 ], [ 200.0, 100.0 ] ] } },
{ "type": "Feature", "properties": { "id": 171, "type": 1, "existence": true }, "geometry": { "type": "Polygon", "coordinates": [ [ [ 200.0, 100.0 ], [ 250.0, 100.0 ], [ 250.0, 150.0 ], [ 200.0, 150.0 ], [ 200.0, 100.0 ] ] ] } },
{ "type": "Feature", "properties": { "id": 172, "type": 13, "existence": true }, "geometry": { "type": "Point", "coordinates": [ 200.0, 150.0 ] } },
{ "type": "Feature", "properties": { "id": 173, "type": 13, "existence": true }, "geometry": { "type": "Point", "coordinates": [ 250.0, 150.0 ] } },
{ "type": "Feature", "properties": { "id": 174, "type": 13, "existence": true }, "geometry": { "type": "Point", "coordinates": [ 250.0, 200.0 ] } },
{ "type": "Feature", "properties": { "id": 175, "type": 13, "existence": true }, "geometry": { "type": "Point", "coordinates": [ 200.0, 200.0 ] } },
{ "type": "Feature", "properties": { "id": 176, "type": 2, "existence": true }, "geometry": { "type": "LineString", "coordinates": [ [ 200.0, 150.0 ], [ 250.0, 150.0 ] ] } },
{ "type": "Feature", "properties": { "id": 177, "type": 2, "existence": true }, "geometry": { "type": "LineString", "coordinates": [ [ 250.0, 150.0 ], [ 250.0, 200.0 ] ] } },
{ "type": "Feature", "properties": { "id": 178, "type": 2, "existence": true }, "geometry": { "type": "LineString", "coordinates": [ [ 250.0, 200.0 ], [ 200.0, 200.0 ] ] } },
{ "type": "Feature", "properties": { "id": 179, "type": 2, "existence": true }, "geometry": { "type": "LineString", "coordinates": [ [ 200.0, 200.0 ], [ 200.0, 150.0 ] ] } },
{ "type": "Feature", "properties": { "id": 180, "type": 1, "existence": true }, "geometry": { "type": "Polygon", "coordinates": [ [ [ 200.0, 150.0 ], [ 250.0, 150.0 ], [ 250.0, 200.0 ], [ 200.0, 200.0 ], [ 200.0, 150.0 ] ] ] } },
{ "type": "Feature", "properties": { "id": 181, "type": 13, "existence": true }, "geometry": { "type": "Point", "coordinates": [ 250.0, 0.0 ] } },
{ "type": "Feature", "properties": { "id": 182, "type": 13, "existence": true }, "geometry": { "type": "Point", "coordinates": [ 300.0, 0.0 ] } },
{ "type": "Feature", "properties": { "id": 183, "type": 13, "existence": true }, "geometry": { "type": "Point", "coordinates": [ 300.0, 50.0 ] } },
{ "type": "Feature", "properties": { "id": 184, "type": 13, "existence": true }, "geometry": { "type": "Point", "coordinates": [ 250.0, 50.0 ] } },
{ "type": "Feature", "properties": { "id": 185, "type": 2, "existence": true }, "geometry": { "type": "LineString", "coordinates": [ [ 250.0, 0.0 ], [ 300.0, 0.0 ] ] } },
{ "type": "Feature", "properties": { "id": 186, "type": 2, "existence": true }, "geometry": { "type": "LineString", "coordinates": [ [ 300.0, 0.0 ], [ 300.0, 50.0 ] ] } },
{ "type": "Feature", "properties": { "id": 187, "type": 2, "existence": true }, "geometry": { "type": "LineString", "coordinates": [ [ 300.0, 50.0 ], [ 250.0, 50.0 ] ] } },
{ "type": "Feature", "properties": { "id": 188, "type": 2, "existence": true }, "geometry": { "type": "LineString", "coordinates": [ [ 250.0, 50.0 ], [ 250.0, 0.0 ] ] } },
{ "type": "Feature", "properties": { "id": 189, "type": 1, "existence": true }, "geometry": { "type": "Polygon", "coordinates": [ [ [ 250.0, 0.0 ], [ 300.0, 0.0 ], [ 300.0, 50.0 ], [ 250.0, 50.0 ], [ 250.0, 0.0 ] ] ] } },
{ "type": "Feature", "properties": { "id": 190, "type": 13, "existence": true }, "geometry": { "type": "Point", "coordinates": [ 250.0, 50.0 ] } },
{ "type": "Feature", "properties": { "id": 191, "type": 13, "existence": true }, "geometry": { "type": "Point", "coordinates": [ 300.0, 50.0 ] } },
{ "type": "Feature", "properties": { "id": 192, "type": 13, "existence": true }, "geometry": { "type": "Point", "coordinates": [ 300.0, 100.0 ] } },
{ "type": "Feature", "properties": { "id": 193, "type": 13, "existence": true }, "geometry": { "type": "Point", "coordinates": [ 250.0, 100.0 ] } },
{ "type": "Feature", "properties": { "id": 194, "type": 2, "existence": true }, "geometry": { "type": "LineString", "coordinates": [ [ 250.0, 50.0 ], [ 300.0, 50.0 ] ] } },
{ "type": "Feature", "properties": { "id": 195, "type": 2, "existence": true }, "geometry": { "type": "LineString", "coordinates": [ [ 300.0, 50.0 ], [ 300.0, 100.0 ] ] } },
{ "type": "Feature", "properties": { "id": 196, "type": 2, "existence": true }, "geometry": { "type": "LineString", "coordinates": [ [ 300.0, 100.0 ], [ 250.0, 100.0 ] ] } },
{ "type": "Feature", "properties": { "id": 197, "type": 2, "existence": true }, "geometry": { "type": "LineString", "coordinates": [ [ 250.0, 100.0 ], [ 250.0, 50.0 ] ] } },
{ "type": "Feature", "properties": { "id": 198, "type": 1, "existence": true }, "geometry": { "type": "Polygon", "coordinates": [ [ [ 250.0, 50.0 ], [ 300.0, 50.0 ], [ 300.0, 100.0 ], [ 250.0, 100.0 ], [ 250.0, 50.0 ] ] ] } },
{ "type": "Feature", "properties": { "id": 199, "type": 13, "existence": true }, "geometry": { "type": "Point", "coordinates": [ 250.0, 100.0 ] } },
{ "type": "Feature", "properties": { "id": 200, "type": 13, "existence": true }, "geometry": { "type": "Point", "coordinates": [ 300.0, 100.0 ] } },
{ "type": "Feature", "properties": { "id": 201, "type": 13, "existence": true }, "geometry": { "type": "Point", "coordinates": [ 300.0, 150.0 ] } },
{ "type": "Feature", "properties": { "id": 202, "type": 13, "existence": true }, "geometry": { "type": "Point", "coordinates": [ 250.0, 150.0 ] } },
{ "type": "Feature", "properties": { "id": 203, "type": 2, "existence": true }, "geometry": { "type": "LineString", "coordinates": [ [ 250.0, 100.0 ], [ 300.0, 100.0 ] ] } },
{ "type": "Feature", "properties": { "id": 204, "type": 2, "existence": true }, "geometry": { "type": "LineString", "coordinates": [ [ 300.0, 100.0 ], [ 300.0, 150.0 ] ] } },
{ "type": "Feature", "properties": { "id": 205, "type": 2, "existence": true }, "geometry": { "type": "LineString", "coordinates": [ [ 300.0, 150.0 ], [ 250.0, 150.0 ] ] } },
{ "type": "Feature", "properties": { "id": 206, "type": 2, "existence": true }, "geometry": { "type": "LineString", "coordinates": [ [ 250.0, 150.0 ], [ 250.0, 100.0 ] ] } },
{ "type": "Feature", "properties": { "id": 207, "type": 1, "existence": true }, "geometry": { "type": "Polygon", "coordinates": [ [ [ 250.0, 100.0 ], [ 300.0, 100.0 ], [ 300.0, 150.0 ], [ 250.0, 150.0 ], [ 250.0, 100.0 ] ] ] } },
{ "type": "Feature", "properties": { "id": 208, "type": 13, "existence": true }, "geometry": { "type": "Point", "coordinates": [ 250.0, 150.0 ] } },
{ "type": "Feature", "properties": { "id": 209, "type": 13, "existence": true }, "geometry": { "type": "Point", "coordinates": [ 300.0, 150.0 ] } },
{ "type": "Feature", "properties": { "id": 210, "type": 13, "existence": true }, "geometry": { "type": "Point", "coordinates": [ 300.0, 200.0 ] } },
{ "type": "Feature", "properties": { "id": 211, "type": 13, "existence": true }, "geometry": { "type": "Point", "coordinates": [ 250.0, 200.0 ] } },
{ "type": "Feature", "properties": { "id": 212, "type": 2, "existence": true }, "geometry": { "type": "LineString", "coordinates": [ [ 250.0, 150.0 ], [ 300.0, 150.0 ] ] } },
{ "type": "Feature", "properties": { "id": 213, "type": 2, "existence": true }, "geometry": { "type": "LineString", "coordinates": [ [ 300.0, 150.0 ], [ 300.0, 200.0 ] ] } },
{ "type": "Feature", "properties": { "id": 214, "type": 2, "existence": true }, "geometry": { "type": "LineString", "coordinates": [ [ 300.0, 200.0 ], [ 250.0, 200.0 ] ] } },
{ "type": "Feature", "properties": { "id": 215, "type": 2, "existence": true }, "geometry": { "type": "LineString", "coordinates": [ [ 250.0, 200.0 ], [ 250.0, 150.0 ] ] } },
{ "type": "Feature", "properties": { "id": 216, "type": 1, "existence": true }, "geometry": { "type": "Polygon", "coordinates": [ [ [ 250.0, 150.0 ], [ 300.0, 150.0 ], [ 300.0, 200.0 ], [ 250.0, 200.0 ], [ 250.0, 150.0 ] ] ] } }
]
}
