{
"type": "FeatureCollection",
"name": "kq_exploded",
"crs": { "type": "name", "properties": { "name": "urn:ogc:def:crs:EPSG::4490" } },
"features": [
{ "type": "Feature", "properties": { "Id": 0, "type": "main_road" }, "geometry": { "type": "LineString", "coordinates": [ [ 120.1241119, 30.3760179 ], [ 120.1249764, 30.370168 ], [ 120.1255122, 30.3663961 ], [ 120.1259272, 30.3631006 ], [ 120.1262279, 30.3614285 ], [ 120.126825, 30.3598729 ], [ 120.1295423, 30.3563279 ], [ 120.1298226, 30.3556461 ], [ 120.1310198, 30.3499552 ] ] } },
{ "type": "Feature", "properties": { "Id": 1, "type": "main_road" }, "geometry": { "type": "LineString", "coordinates": [ [ 120.1405518, 30.358108 ], [ 120.1370492, 30.3583174 ], [ 120.1335848, 30.3583364 ], [ 120.1307294, 30.3577654 ] ] } },
{ "type": "Feature", "properties": { "Id": 2, "type": "main_road" }, "geometry": { "type": "LineString", "coordinates": [ [ 120.1405328, 30.3594596 ], [ 120.1332477, 30.3594771 ] ] } },
{ "type": "Feature", "properties": { "Id": 3, "type": "main_road" }, "geometry": { "type": "LineString", "coordinates": [ [ 120.131605, 30.3500179 ], [ 120.1381152, 30.350627 ], [ 120.1413513, 30.351141 ] ] } },
{ "type": "Feature", "properties": { "Id": 4, "type": "main_road" }, "geometry": { "type": "LineString", "coordinates": [ [ 120.1262771, 30.369827 ], [ 120.1260038, 30.3726513 ], [ 120.1261747, 30.3759767 ] ] } },
{ "type": "Feature", "properties": { "Id": 5, "type": "main_road" }, "geometry": { "type": "LineString", "coordinates": [ [ 120.1294317, 30.3750957 ], [ 120.1292399, 30.3694533 ] ] } },
{ "type": "Feature", "properties": { "Id": 6, "type": "main_road" }, "geometry": { "type": "LineString", "coordinates": [ [ 120.1406665, 30.3747109 ], [ 120.1407089, 30.3735612 ], [ 120.1409468, 30.3707096 ], [ 120.1407755, 30.3672642 ], [ 120.140528, 30.3638949 ], [ 120.1405328, 30.3594596 ], [ 120.1405518, 30.358108 ], [ 120.140647, 30.3547958 ], [ 120.1407422, 30.3536537 ], [ 120.1412181, 30.3515026 ], [ 120.1413513, 30.351141 ] ] } },
{ "type": "Feature", "properties": { "Id": 7, "type": "main_road" }, "geometry": { "type": "LineString", "coordinates": [ [ 120.1379601, 30.3743126 ], [ 120.1377583, 30.367686 ] ] } },
{ "type": "Feature", "properties": { "Id": 8, "type": "main_road" }, "geometry": { "type": "LineString", "coordinates": [ [ 120.1262771, 30.369827 ], [ 120.1266121, 30.3679438 ], [ 120.130524, 30.3673013 ] ] } },
{ "type": "Feature", "properties": { "Id": 9, "type": "main_road" }, "geometry": { "type": "LineString", "coordinates": [ [ 120.1308567, 30.3689612 ], [ 120.130524, 30.3673013 ] ] } },
{ "type": "Feature", "properties": { "Id": 10, "type": "main_road" }, "geometry": { "type": "LineString", "coordinates": [ [ 120.1260038, 30.3726513 ], [ 120.1358643, 30.3723657 ] ] } },
{ "type": "Feature", "properties": { "Id": 11, "type": "main_road" }, "geometry": { "type": "LineString", "coordinates": [ [ 120.1409468, 30.3707096 ], [ 120.1326907, 30.3709325 ] ] } },
{ "type": "Feature", "properties": { "Id": 12, "type": "main_road" }, "geometry": { "type": "LineString", "coordinates": [ [ 120.1294317, 30.3750957 ], [ 120.1292399, 30.3694533 ] ] } },
{ "type": "Feature", "properties": { "Id": 13, "type": "main_road" }, "geometry": { "type": "LineString", "coordinates": [ [ 120.1297944, 30.3692845 ], [ 120.1294665, 30.3662215 ], [ 120.1293206, 30.3623568 ] ] } },
{ "type": "Feature", "properties": { "Id": 14, "type": "main_road" }, "geometry": { "type": "LineString", "coordinates": [ [ 120.1358918, 30.3748811 ], [ 120.1358643, 30.3723657 ], [ 120.1356441, 30.3679816 ], [ 120.1365924, 30.3620674 ], [ 120.1375653, 30.3505755 ] ] } },
{ "type": "Feature", "properties": { "Id": 15, "type": "main_road" }, "geometry": { "type": "LineString", "coordinates": [ [ 120.1271427, 30.3624435 ], [ 120.127654, 30.3608818 ], [ 120.1326287, 30.3606912 ], [ 120.13672, 30.3605601 ] ] } },
{ "type": "Feature", "properties": { "Id": 16, "type": "main_road" }, "geometry": { "type": "LineString", "coordinates": [ [ 120.1293956, 30.3643436 ], [ 120.134319, 30.364051 ], [ 120.1343312, 30.3621574 ] ] } },
{ "type": "Feature", "properties": { "Id": 17, "type": "main_road" }, "geometry": { "type": "LineString", "coordinates": [ [ 120.1293956, 30.3643436 ], [ 120.1268523, 30.3644935 ], [ 120.1271427, 30.3624435 ] ] } },
{ "type": "Feature", "properties": { "Id": 18, "type": "main_road" }, "geometry": { "type": "LineString", "coordinates": [ [ 120.1333253, 30.3534944 ], [ 120.1408036, 30.3533761 ] ] } },
{ "type": "Feature", "properties": { "Id": 19, "type": "main_road" }, "geometry": { "type": "LineString", "coordinates": [ [ 120.131605, 30.3500179 ], [ 120.1310198, 30.3499552 ] ] } },
{ "type": "Feature", "properties": { "Id": 20, "type": "main_road" }, "geometry": { "type": "LineString", "coordinates": [ [ 120.1255857, 30.3699799 ], [ 120.1292399, 30.3694533 ], [ 120.1326014, 30.3684302 ], [ 120.1356441, 30.3679816 ], [ 120.1407755, 30.3672642 ] ] } },
{ "type": "Feature", "properties": { "Id": 21, "type": "main_road" }, "geometry": { "type": "LineString", "coordinates": [ [ 120.1365924, 30.3620674 ], [ 120.1265096, 30.3624687 ] ] } },
{ "type": "Feature", "properties": { "Id": 22, "type": "main_road" }, "geometry": { "type": "LineString", "coordinates": [ [ 120.1241119, 30.3760179 ], [ 120.136873, 30.3757631 ], [ 120.1406665, 30.3747109 ] ] } },
{ "type": "Feature", "properties": { "Id": 23, "type": "main_road" }, "geometry": { "type": "LineString", "coordinates": [ [ 120.126132, 30.3751983 ], [ 120.1358918, 30.3748811 ] ] } },
{ "type": "Feature", "properties": { "Id": 24, "type": "main_road" }, "geometry": { "type": "LineString", "coordinates": [ [ 120.1358918, 30.3748811 ], [ 120.1407089, 30.3735612 ] ] } },
{ "type": "Feature", "properties": { "Id": 25, "type": "main_road" }, "geometry": { "type": "LineString", "coordinates": [ [ 120.135718, 30.3694539 ], [ 120.1378059, 30.3691868 ] ] } },
{ "type": "Feature", "properties": { "Id": 26, "type": "main_road" }, "geometry": { "type": "LineString", "coordinates": [ [ 120.1328661, 30.3758431 ], [ 120.1323793, 30.3622351 ], [ 120.1335848, 30.3583364 ],[120.1333253, 30.3534944], [ 120.1335661, 30.356168 ], [ 120.1328921, 30.3501383 ] ] } },
{ "type": "Feature", "properties": { "Id": 27, "type": "road" }, "geometry": { "type": "LineString", "coordinates": [ [ 120.1255037, 30.3704828 ], [ 120.1292623, 30.3701145 ], [ 120.1326432, 30.3696012 ] ] } },
{ "type": "Feature", "properties": { "Id": 28, "type": "road" }, "geometry": { "type": "LineString", "coordinates": [ [ 120.1287456, 30.37258 ], [ 120.12864, 30.3701754 ] ] } },
{ "type": "Feature", "properties": { "Id": 29, "type": "road" }, "geometry": { "type": "LineString", "coordinates": [ [ 120.1326798, 30.370625 ], [ 120.1314773, 30.3706713 ], [ 120.1313481, 30.3697978 ] ] } },
{ "type": "Feature", "properties": { "Id": 30, "type": "road" }, "geometry": { "type": "LineString", "coordinates": [ [ 120.1334566, 30.3724355 ], [ 120.1334188, 30.3709241 ] ] } },
{ "type": "Feature", "properties": { "Id": 31, "type": "road" }, "geometry": { "type": "LineString", "coordinates": [ [ 120.1357352, 30.369796 ], [ 120.1326522, 30.3698547 ] ] } },
{ "type": "Feature", "properties": { "Id": 32, "type": "road" }, "geometry": { "type": "LineString", "coordinates": [ [ 120.1375587, 30.3660444 ], [ 120.1359243, 30.3662339 ] ] } },
{ "type": "Feature", "properties": { "Id": 33, "type": "road" }, "geometry": { "type": "LineString", "coordinates": [ [ 120.1278014, 30.3624173 ], [ 120.1281054, 30.3608645 ] ] } },
{ "type": "Feature", "properties": { "Id": 34, "type": "road" }, "geometry": { "type": "LineString", "coordinates": [ [ 120.1304973, 30.36231 ], [ 120.1304785, 30.3607736 ] ] } },
{ "type": "Feature", "properties": { "Id": 35, "type": "road" }, "geometry": { "type": "LineString", "coordinates": [ [ 120.136656, 30.366149 ], [ 120.1366785, 30.3652094 ] ] } },
{ "type": "Feature", "properties": { "Id": 36, "type": "road" }, "geometry": { "type": "LineString", "coordinates": [ [ 120.1259754, 30.3675886 ], [ 120.1295519, 30.3670195 ], [ 120.1324928, 30.3661779 ], [ 120.1360692, 30.3653306 ], [ 120.1396596, 30.3646621 ], [ 120.1396602, 30.3646479 ], [ 120.1396596, 30.3646621 ] ] } },
{ "type": "Feature", "properties": { "Id": 37, "type": "road" }, "geometry": { "type": "LineString", "coordinates": [ [ 120.1307294, 30.3577654 ], [ 120.1306678, 30.3565241 ] ] } },
{ "type": "Feature", "properties": { "Id": 38, "type": "road" }, "geometry": { "type": "LineString", "coordinates": [ [ 120.1364077, 30.3583209 ], [ 120.1366375, 30.3557671 ] ] } },
{ "type": "Feature", "properties": { "Id": 39, "type": "road" }, "geometry": { "type": "LineString", "coordinates": [ [ 120.1283417, 30.3644102 ], [ 120.1282795, 30.3623983 ] ] } },
{ "type": "Feature", "properties": { "Id": 40, "type": "road" }, "geometry": { "type": "LineString", "coordinates": [ [ 120.1283156, 30.3635649 ], [ 120.1293624, 30.3634636 ] ] } },
{ "type": "Feature", "properties": { "Id": 41, "type": "road" }, "geometry": { "type": "LineString", "coordinates": [ [ 120.1262434, 30.3662738 ], [ 120.1294413, 30.3655537 ], [ 120.1324922, 30.36529 ], [ 120.1362056, 30.3644796 ] ] } },
{ "type": "Feature", "properties": { "Id": 42, "type": "road" }, "geometry": { "type": "LineString", "coordinates": [ [ 120.1325214, 30.3667723 ], [ 120.1341249, 30.3666004 ], [ 120.134285, 30.3678977 ] ] } },
{ "type": "Feature", "properties": { "Id": 43, "type": "road" }, "geometry": { "type": "LineString", "coordinates": [ [ 120.1335162, 30.3650462 ], [ 120.1334356, 30.3641035 ] ] } },
{ "type": "Feature", "properties": { "Id": 44, "type": "road" }, "geometry": { "type": "LineString", "coordinates": [ [ 120.1372032, 30.3547573 ], [ 120.1404695, 30.354454 ], [ 120.1405553, 30.35338 ], [ 120.1411469, 30.3511085 ] ] } },
{ "type": "Feature", "properties": { "Id": 45, "type": "road" }, "geometry": { "type": "LineString", "coordinates": [ [ 120.1404018, 30.3553607 ], [ 120.1402698, 30.3594602 ] ] } },
{ "type": "Feature", "properties": { "Id": 46, "type": "road" }, "geometry": { "type": "LineString", "coordinates": [ [ 120.1374, 30.3594671 ], [ 120.1368864, 30.3643642 ], [ 120.1403076, 30.3635604 ], [ 120.1402698, 30.3594602 ] ] } },
{ "type": "Feature", "properties": { "Id": 47, "type": "road" }, "geometry": { "type": "LineString", "coordinates": [ [ 120.1374, 30.3594671 ], [ 120.1377711, 30.3582743 ] ] } },
{ "type": "Feature", "properties": { "Id": 48, "type": "road" }, "geometry": { "type": "LineString", "coordinates": [ [ 120.1385697, 30.3582265 ], [ 120.1386824, 30.355539 ] ] } },
{ "type": "Feature", "properties": { "Id": 49, "type": "road" }, "geometry": { "type": "LineString", "coordinates": [ [ 120.134319, 30.364051 ], [ 120.1344034, 30.3648729 ] ] } },
{ "type": "Feature", "properties": { "Id": 50, "type": "road" }, "geometry": { "type": "LineString", "coordinates": [ [ 120.1368563, 30.3505092 ], [ 120.1367631, 30.3510706 ], [ 120.1382503, 30.3512253 ], [ 120.1383166, 30.350659 ] ] } },
{ "type": "Feature", "properties": { "Id": 51, "type": "road" }, "geometry": { "type": "LineString", "coordinates": [ [ 120.1246606, 30.3760069 ], [ 120.1255037, 30.3704828 ], [ 120.1259754, 30.3675886 ], [ 120.1262434, 30.3662738 ], [ 120.1265096, 30.3624687 ], [ 120.1270826, 30.3609037 ], [ 120.1286976, 30.358359 ], [ 120.1300327, 30.3563959 ], [ 120.1302823, 30.3559332 ], [ 120.131373, 30.3507833 ], [ 120.131605, 30.3500179 ] ] } },
{ "type": "Feature", "properties": { "Id": 52, "type": "road" }, "geometry": { "type": "LineString", "coordinates": [ [ 120.125647, 30.3696032 ], [ 120.1291075, 30.3691509 ], [ 120.1326025, 30.3681142 ], [ 120.1357242, 30.3677125 ], [ 120.140749, 30.3669038 ] ] } },
{ "type": "Feature", "properties": { "Id": 53, "type": "road" }, "geometry": { "type": "LineString", "coordinates": [ [ 120.1375926, 30.365047 ], [ 120.1375587, 30.3660444 ], [ 120.1376112, 30.3674088 ] ] } },
{ "type": "Feature", "properties": { "Id": 54, "type": "road" }, "geometry": { "type": "LineString", "coordinates": [ [ 120.1385286, 30.3672612 ], [ 120.1387162, 30.3648378 ] ] } },
{ "type": "Feature", "properties": { "Id": 55, "type": "road" }, "geometry": { "type": "LineString", "coordinates": [ [ 120.1369352, 30.3580176 ], [ 120.1382081, 30.3579349 ], [ 120.1383807, 30.3555703 ] ] } },
{ "type": "Feature", "properties": { "Id": 56, "type": "road" }, "geometry": { "type": "LineString", "coordinates": [ [ 120.127654, 30.3608818 ], [ 120.1285789, 30.3595915 ], [ 120.1332477, 30.3594771 ] ] } },
{ "type": "Feature", "properties": { "Id": 57, "type": "road" }, "geometry": { "type": "LineString", "coordinates": [ [ 120.1401752, 30.3737074 ], [ 120.1396596, 30.3646621 ] ] } },
{ "type": "Feature", "properties": { "Id": 58, "type": "road" }, "geometry": { "type": "LineString", "coordinates": [ [ 120.1326151, 30.3688145 ], [ 120.1377679, 30.3679873 ] ] } },
{ "type": "Feature", "properties": { "Id": 59, "type": "road" }, "geometry": { "type": "LineString", "coordinates": [ [ 120.1368357, 30.3708206 ], [ 120.1366667, 30.3681641 ] ] } },
{ "type": "Feature", "properties": { "Id": 60, "type": "road" }, "geometry": { "type": "LineString", "coordinates": [ [ 120.1367962, 30.3701759 ], [ 120.1378341, 30.3701166 ] ] } },
{ "type": "Feature", "properties": { "Id": 61, "type": "road" }, "geometry": { "type": "LineString", "coordinates": [ [ 120.1372313, 30.3692603 ], [ 120.1372973, 30.3680629 ] ] } },
{ "type": "Feature", "properties": { "Id": 62, "type": "road" }, "geometry": { "type": "LineString", "coordinates": [ [ 120.1358643, 30.3723657 ], [ 120.1400935, 30.3722739 ] ] } },
{ "type": "Feature", "properties": { "Id": 63, "type": "road" }, "geometry": { "type": "LineString", "coordinates": [ [ 120.1250728, 30.3733066 ], [ 120.1401313, 30.3729368 ] ] } },
{ "type": "Feature", "properties": { "Id": 64, "type": "road" }, "geometry": { "type": "LineString", "coordinates": [ [ 120.1388944, 30.3519853 ], [ 120.1387724, 30.3546116 ] ] } },
{ "type": "Feature", "properties": { "Id": 65, "type": "road" }, "geometry": { "type": "LineString", "coordinates": [ [ 120.1355185, 30.3543692 ], [ 120.1387897, 30.3542395 ] ] } },
{ "type": "Feature", "properties": { "Id": 66, "type": "road" }, "geometry": { "type": "LineString", "coordinates": [ [ 120.1355377, 30.3549729 ], [ 120.1355185, 30.3543692 ] ] } },
{ "type": "Feature", "properties": { "Id": 67, "type": "road" }, "geometry": { "type": "LineString", "coordinates": [ [ 120.1355377, 30.3549729 ], [ 120.1307022, 30.3552517 ], [ 120.1315588, 30.3513494 ], [ 120.1330487, 30.3513585 ], [ 120.1353354, 30.3512728 ], [ 120.1373965, 30.3525689 ], [ 120.1388944, 30.3519853 ], [ 120.1409329, 30.3519375 ] ] } },
{ "type": "Feature", "properties": { "Id": 68, "type": "road" }, "geometry": { "type": "LineString", "coordinates": [ [ 120.1306678, 30.3565241 ], [ 120.1366375, 30.3557671 ] ] } },
{ "type": "Feature", "properties": { "Id": 69, "type": "road" }, "geometry": { "type": "LineString", "coordinates": [ [ 120.1366375, 30.3557671 ], [ 120.1406312, 30.3553451 ] ] } },
{ "type": "Feature", "properties": { "Id": 70, "type": null }, "geometry": { "type": "Point", "coordinates": [ 120.1241119, 30.3760179 ] } },
{ "type": "Feature", "properties": { "Id": 71, "type": null }, "geometry": { "type": "Point", "coordinates": [ 120.1246606, 30.3760069 ] } },
{ "type": "Feature", "properties": { "Id": 72, "type": null }, "geometry": { "type": "Point", "coordinates": [ 120.1249764, 30.370168 ] } },
{ "type": "Feature", "properties": { "Id": 73, "type": null }, "geometry": { "type": "Point", "coordinates": [ 120.1250728, 30.3733066 ] } },
{ "type": "Feature", "properties": { "Id": 74, "type": null }, "geometry": { "type": "Point", "coordinates": [ 120.1255037, 30.3704828 ] } },
{ "type": "Feature", "properties": { "Id": 75, "type": null }, "geometry": { "type": "Point", "coordinates": [ 120.1255122, 30.3663961 ] } },
{ "type": "Feature", "properties": { "Id": 76, "type": null }, "geometry": { "type": "Point", "coordinates": [ 120.1255857, 30.3699799 ] } },
{ "type": "Feature", "properties": { "Id": 77, "type": null }, "geometry": { "type": "Point", "coordinates": [ 120.125647, 30.3696032 ] } },
{ "type": "Feature", "properties": { "Id": 78, "type": null }, "geometry": { "type": "Point", "coordinates": [ 120.1259272, 30.3631006 ] } },
{ "type": "Feature", "properties": { "Id": 79, "type": null }, "geometry": { "type": "Point", "coordinates": [ 120.1259754, 30.3675886 ] } },
{ "type": "Feature", "properties": { "Id": 80, "type": null }, "geometry": { "type": "Point", "coordinates": [ 120.1260038, 30.3726513 ] } },
{ "type": "Feature", "properties": { "Id": 81, "type": null }, "geometry": { "type": "Point", "coordinates": [ 120.126132, 30.3751983 ] } },
{ "type": "Feature", "properties": { "Id": 82, "type": null }, "geometry": { "type": "Point", "coordinates": [ 120.1261747, 30.3759767 ] } },
{ "type": "Feature", "properties": { "Id": 83, "type": null }, "geometry": { "type": "Point", "coordinates": [ 120.1262279, 30.3614285 ] } },
{ "type": "Feature", "properties": { "Id": 84, "type": null }, "geometry": { "type": "Point", "coordinates": [ 120.1262434, 30.3662738 ] } },
{ "type": "Feature", "properties": { "Id": 85, "type": null }, "geometry": { "type": "Point", "coordinates": [ 120.1262771, 30.369827 ] } },
{ "type": "Feature", "properties": { "Id": 86, "type": null }, "geometry": { "type": "Point", "coordinates": [ 120.1265096, 30.3624687 ] } },
{ "type": "Feature", "properties": { "Id": 87, "type": null }, "geometry": { "type": "Point", "coordinates": [ 120.1266121, 30.3679438 ] } },
{ "type": "Feature", "properties": { "Id": 88, "type": null }, "geometry": { "type": "Point", "coordinates": [ 120.126825, 30.3598729 ] } },
{ "type": "Feature", "properties": { "Id": 89, "type": null }, "geometry": { "type": "Point", "coordinates": [ 120.1268523, 30.3644935 ] } },
{ "type": "Feature", "properties": { "Id": 90, "type": null }, "geometry": { "type": "Point", "coordinates": [ 120.1270826, 30.3609037 ] } },
{ "type": "Feature", "properties": { "Id": 91, "type": null }, "geometry": { "type": "Point", "coordinates": [ 120.1271427, 30.3624435 ] } },
{ "type": "Feature", "properties": { "Id": 92, "type": null }, "geometry": { "type": "Point", "coordinates": [ 120.127654, 30.3608818 ] } },
{ "type": "Feature", "properties": { "Id": 93, "type": null }, "geometry": { "type": "Point", "coordinates": [ 120.1278014, 30.3624173 ] } },
{ "type": "Feature", "properties": { "Id": 94, "type": null }, "geometry": { "type": "Point", "coordinates": [ 120.1281054, 30.3608645 ] } },
{ "type": "Feature", "properties": { "Id": 95, "type": null }, "geometry": { "type": "Point", "coordinates": [ 120.1282795, 30.3623983 ] } },
{ "type": "Feature", "properties": { "Id": 96, "type": null }, "geometry": { "type": "Point", "coordinates": [ 120.1283156, 30.3635649 ] } },
{ "type": "Feature", "properties": { "Id": 97, "type": null }, "geometry": { "type": "Point", "coordinates": [ 120.1283417, 30.3644102 ] } },
{ "type": "Feature", "properties": { "Id": 98, "type": null }, "geometry": { "type": "Point", "coordinates": [ 120.1285789, 30.3595915 ] } },
{ "type": "Feature", "properties": { "Id": 99, "type": null }, "geometry": { "type": "Point", "coordinates": [ 120.12864, 30.3701754 ] } },
{ "type": "Feature", "properties": { "Id": 100, "type": null }, "geometry": { "type": "Point", "coordinates": [ 120.1286976, 30.358359 ] } },
{ "type": "Feature", "properties": { "Id": 101, "type": null }, "geometry": { "type": "Point", "coordinates": [ 120.1287456, 30.37258 ] } },
{ "type": "Feature", "properties": { "Id": 102, "type": null }, "geometry": { "type": "Point", "coordinates": [ 120.1291075, 30.3691509 ] } },
{ "type": "Feature", "properties": { "Id": 103, "type": null }, "geometry": { "type": "Point", "coordinates": [ 120.1292399, 30.3694533 ] } },
{ "type": "Feature", "properties": { "Id": 104, "type": null }, "geometry": { "type": "Point", "coordinates": [ 120.1292623, 30.3701145 ] } },
{ "type": "Feature", "properties": { "Id": 105, "type": null }, "geometry": { "type": "Point", "coordinates": [ 120.1293206, 30.3623568 ] } },
{ "type": "Feature", "properties": { "Id": 106, "type": null }, "geometry": { "type": "Point", "coordinates": [ 120.1293624, 30.3634636 ] } },
{ "type": "Feature", "properties": { "Id": 107, "type": null }, "geometry": { "type": "Point", "coordinates": [ 120.1293956, 30.3643436 ] } },
{ "type": "Feature", "properties": { "Id": 108, "type": null }, "geometry": { "type": "Point", "coordinates": [ 120.1294317, 30.3750957 ] } },
{ "type": "Feature", "properties": { "Id": 109, "type": null }, "geometry": { "type": "Point", "coordinates": [ 120.1294413, 30.3655537 ] } },
{ "type": "Feature", "properties": { "Id": 110, "type": null }, "geometry": { "type": "Point", "coordinates": [ 120.1294665, 30.3662215 ] } },
{ "type": "Feature", "properties": { "Id": 111, "type": null }, "geometry": { "type": "Point", "coordinates": [ 120.1295423, 30.3563279 ] } },
{ "type": "Feature", "properties": { "Id": 112, "type": null }, "geometry": { "type": "Point", "coordinates": [ 120.1295519, 30.3670195 ] } },
{ "type": "Feature", "properties": { "Id": 113, "type": null }, "geometry": { "type": "Point", "coordinates": [ 120.1297944, 30.3692845 ] } },
{ "type": "Feature", "properties": { "Id": 114, "type": null }, "geometry": { "type": "Point", "coordinates": [ 120.1298226, 30.3556461 ] } },
{ "type": "Feature", "properties": { "Id": 115, "type": null }, "geometry": { "type": "Point", "coordinates": [ 120.1300327, 30.3563959 ] } },
{ "type": "Feature", "properties": { "Id": 116, "type": null }, "geometry": { "type": "Point", "coordinates": [ 120.1302823, 30.3559332 ] } },
{ "type": "Feature", "properties": { "Id": 117, "type": null }, "geometry": { "type": "Point", "coordinates": [ 120.1304785, 30.3607736 ] } },
{ "type": "Feature", "properties": { "Id": 118, "type": null }, "geometry": { "type": "Point", "coordinates": [ 120.1304973, 30.36231 ] } },
{ "type": "Feature", "properties": { "Id": 119, "type": null }, "geometry": { "type": "Point", "coordinates": [ 120.130524, 30.3673013 ] } },
{ "type": "Feature", "properties": { "Id": 120, "type": null }, "geometry": { "type": "Point", "coordinates": [ 120.1306678, 30.3565241 ] } },
{ "type": "Feature", "properties": { "Id": 121, "type": null }, "geometry": { "type": "Point", "coordinates": [ 120.1307022, 30.3552517 ] } },
{ "type": "Feature", "properties": { "Id": 122, "type": null }, "geometry": { "type": "Point", "coordinates": [ 120.1307294, 30.3577654 ] } },
{ "type": "Feature", "properties": { "Id": 123, "type": null }, "geometry": { "type": "Point", "coordinates": [ 120.1308567, 30.3689612 ] } },
{ "type": "Feature", "properties": { "Id": 124, "type": null }, "geometry": { "type": "Point", "coordinates": [ 120.1310198, 30.3499552 ] } },
{ "type": "Feature", "properties": { "Id": 125, "type": null }, "geometry": { "type": "Point", "coordinates": [ 120.1313481, 30.3697978 ] } },
{ "type": "Feature", "properties": { "Id": 126, "type": null }, "geometry": { "type": "Point", "coordinates": [ 120.131373, 30.3507833 ] } },
{ "type": "Feature", "properties": { "Id": 127, "type": null }, "geometry": { "type": "Point", "coordinates": [ 120.1314773, 30.3706713 ] } },
{ "type": "Feature", "properties": { "Id": 128, "type": null }, "geometry": { "type": "Point", "coordinates": [ 120.1315588, 30.3513494 ] } },
{ "type": "Feature", "properties": { "Id": 129, "type": null }, "geometry": { "type": "Point", "coordinates": [ 120.131605, 30.3500179 ] } },
{ "type": "Feature", "properties": { "Id": 130, "type": null }, "geometry": { "type": "Point", "coordinates": [ 120.1323793, 30.3622351 ] } },
{ "type": "Feature", "properties": { "Id": 131, "type": null }, "geometry": { "type": "Point", "coordinates": [ 120.1324922, 30.36529 ] } },
{ "type": "Feature", "properties": { "Id": 132, "type": null }, "geometry": { "type": "Point", "coordinates": [ 120.1324928, 30.3661779 ] } },
{ "type": "Feature", "properties": { "Id": 133, "type": null }, "geometry": { "type": "Point", "coordinates": [ 120.1325214, 30.3667723 ] } },
{ "type": "Feature", "properties": { "Id": 134, "type": null }, "geometry": { "type": "Point", "coordinates": [ 120.1326014, 30.3684302 ] } },
{ "type": "Feature", "properties": { "Id": 135, "type": null }, "geometry": { "type": "Point", "coordinates": [ 120.1326025, 30.3681142 ] } },
{ "type": "Feature", "properties": { "Id": 136, "type": null }, "geometry": { "type": "Point", "coordinates": [ 120.1326151, 30.3688145 ] } },
{ "type": "Feature", "properties": { "Id": 137, "type": null }, "geometry": { "type": "Point", "coordinates": [ 120.1326287, 30.3606912 ] } },
{ "type": "Feature", "properties": { "Id": 138, "type": null }, "geometry": { "type": "Point", "coordinates": [ 120.1326432, 30.3696012 ] } },
{ "type": "Feature", "properties": { "Id": 139, "type": null }, "geometry": { "type": "Point", "coordinates": [ 120.1326522, 30.3698547 ] } },
{ "type": "Feature", "properties": { "Id": 140, "type": null }, "geometry": { "type": "Point", "coordinates": [ 120.1326798, 30.370625 ] } },
{ "type": "Feature", "properties": { "Id": 141, "type": null }, "geometry": { "type": "Point", "coordinates": [ 120.1326907, 30.3709325 ] } },
{ "type": "Feature", "properties": { "Id": 142, "type": null }, "geometry": { "type": "Point", "coordinates": [ 120.1328661, 30.3758431 ] } },
{ "type": "Feature", "properties": { "Id": 143, "type": null }, "geometry": { "type": "Point", "coordinates": [ 120.1328921, 30.3501383 ] } },
{ "type": "Feature", "properties": { "Id": 144, "type": null }, "geometry": { "type": "Point", "coordinates": [ 120.1330487, 30.3513585 ] } },
{ "type": "Feature", "properties": { "Id": 145, "type": null }, "geometry": { "type": "Point", "coordinates": [ 120.1332477, 30.3594771 ] } },
{ "type": "Feature", "properties": { "Id": 146, "type": null }, "geometry": { "type": "Point", "coordinates": [ 120.1333253, 30.3534944 ] } },
{ "type": "Feature", "properties": { "Id": 147, "type": null }, "geometry": { "type": "Point", "coordinates": [ 120.1334188, 30.3709241 ] } },
{ "type": "Feature", "properties": { "Id": 148, "type": null }, "geometry": { "type": "Point", "coordinates": [ 120.1334356, 30.3641035 ] } },
{ "type": "Feature", "properties": { "Id": 149, "type": null }, "geometry": { "type": "Point", "coordinates": [ 120.1334566, 30.3724355 ] } },
{ "type": "Feature", "properties": { "Id": 150, "type": null }, "geometry": { "type": "Point", "coordinates": [ 120.1335162, 30.3650462 ] } },
{ "type": "Feature", "properties": { "Id": 151, "type": null }, "geometry": { "type": "Point", "coordinates": [ 120.1335661, 30.356168 ] } },
{ "type": "Feature", "properties": { "Id": 152, "type": null }, "geometry": { "type": "Point", "coordinates": [ 120.1335848, 30.3583364 ] } },
{ "type": "Feature", "properties": { "Id": 153, "type": null }, "geometry": { "type": "Point", "coordinates": [ 120.1341249, 30.3666004 ] } },
{ "type": "Feature", "properties": { "Id": 154, "type": null }, "geometry": { "type": "Point", "coordinates": [ 120.134285, 30.3678977 ] } },
{ "type": "Feature", "properties": { "Id": 155, "type": null }, "geometry": { "type": "Point", "coordinates": [ 120.134319, 30.364051 ] } },
{ "type": "Feature", "properties": { "Id": 156, "type": null }, "geometry": { "type": "Point", "coordinates": [ 120.1343312, 30.3621574 ] } },
{ "type": "Feature", "properties": { "Id": 157, "type": null }, "geometry": { "type": "Point", "coordinates": [ 120.1344034, 30.3648729 ] } },
{ "type": "Feature", "properties": { "Id": 158, "type": null }, "geometry": { "type": "Point", "coordinates": [ 120.1353354, 30.3512728 ] } },
{ "type": "Feature", "properties": { "Id": 159, "type": null }, "geometry": { "type": "Point", "coordinates": [ 120.1355185, 30.3543692 ] } },
{ "type": "Feature", "properties": { "Id": 160, "type": null }, "geometry": { "type": "Point", "coordinates": [ 120.1355377, 30.3549729 ] } },
{ "type": "Feature", "properties": { "Id": 161, "type": null }, "geometry": { "type": "Point", "coordinates": [ 120.1356441, 30.3679816 ] } },
{ "type": "Feature", "properties": { "Id": 162, "type": null }, "geometry": { "type": "Point", "coordinates": [ 120.135718, 30.3694539 ] } },
{ "type": "Feature", "properties": { "Id": 163, "type": null }, "geometry": { "type": "Point", "coordinates": [ 120.1357242, 30.3677125 ] } },
{ "type": "Feature", "properties": { "Id": 164, "type": null }, "geometry": { "type": "Point", "coordinates": [ 120.1357352, 30.369796 ] } },
{ "type": "Feature", "properties": { "Id": 165, "type": null }, "geometry": { "type": "Point", "coordinates": [ 120.1358643, 30.3723657 ] } },
{ "type": "Feature", "properties": { "Id": 166, "type": null }, "geometry": { "type": "Point", "coordinates": [ 120.1358918, 30.3748811 ] } },
{ "type": "Feature", "properties": { "Id": 167, "type": null }, "geometry": { "type": "Point", "coordinates": [ 120.1359243, 30.3662339 ] } },
{ "type": "Feature", "properties": { "Id": 168, "type": null }, "geometry": { "type": "Point", "coordinates": [ 120.1360692, 30.3653306 ] } },
{ "type": "Feature", "properties": { "Id": 169, "type": null }, "geometry": { "type": "Point", "coordinates": [ 120.1362056, 30.3644796 ] } },
{ "type": "Feature", "properties": { "Id": 170, "type": null }, "geometry": { "type": "Point", "coordinates": [ 120.1364077, 30.3583209 ] } },
{ "type": "Feature", "properties": { "Id": 171, "type": null }, "geometry": { "type": "Point", "coordinates": [ 120.1365924, 30.3620674 ] } },
{ "type": "Feature", "properties": { "Id": 172, "type": null }, "geometry": { "type": "Point", "coordinates": [ 120.1366375, 30.3557671 ] } },
{ "type": "Feature", "properties": { "Id": 173, "type": null }, "geometry": { "type": "Point", "coordinates": [ 120.136656, 30.366149 ] } },
{ "type": "Feature", "properties": { "Id": 174, "type": null }, "geometry": { "type": "Point", "coordinates": [ 120.1366667, 30.3681641 ] } },
{ "type": "Feature", "properties": { "Id": 175, "type": null }, "geometry": { "type": "Point", "coordinates": [ 120.1366785, 30.3652094 ] } },
{ "type": "Feature", "properties": { "Id": 176, "type": null }, "geometry": { "type": "Point", "coordinates": [ 120.13672, 30.3605601 ] } },
{ "type": "Feature", "properties": { "Id": 177, "type": null }, "geometry": { "type": "Point", "coordinates": [ 120.1367631, 30.3510706 ] } },
{ "type": "Feature", "properties": { "Id": 178, "type": null }, "geometry": { "type": "Point", "coordinates": [ 120.1367962, 30.3701759 ] } },
{ "type": "Feature", "properties": { "Id": 179, "type": null }, "geometry": { "type": "Point", "coordinates": [ 120.1368357, 30.3708206 ] } },
{ "type": "Feature", "properties": { "Id": 180, "type": null }, "geometry": { "type": "Point", "coordinates": [ 120.1368563, 30.3505092 ] } },
{ "type": "Feature", "properties": { "Id": 181, "type": null }, "geometry": { "type": "Point", "coordinates": [ 120.136873, 30.3757631 ] } },
{ "type": "Feature", "properties": { "Id": 182, "type": null }, "geometry": { "type": "Point", "coordinates": [ 120.1368864, 30.3643642 ] } },
{ "type": "Feature", "properties": { "Id": 183, "type": null }, "geometry": { "type": "Point", "coordinates": [ 120.1369352, 30.3580176 ] } },
{ "type": "Feature", "properties": { "Id": 184, "type": null }, "geometry": { "type": "Point", "coordinates": [ 120.1370492, 30.3583174 ] } },
{ "type": "Feature", "properties": { "Id": 185, "type": null }, "geometry": { "type": "Point", "coordinates": [ 120.1372032, 30.3547573 ] } },
{ "type": "Feature", "properties": { "Id": 186, "type": null }, "geometry": { "type": "Point", "coordinates": [ 120.1372313, 30.3692603 ] } },
{ "type": "Feature", "properties": { "Id": 187, "type": null }, "geometry": { "type": "Point", "coordinates": [ 120.1372973, 30.3680629 ] } },
{ "type": "Feature", "properties": { "Id": 188, "type": null }, "geometry": { "type": "Point", "coordinates": [ 120.1373965, 30.3525689 ] } },
{ "type": "Feature", "properties": { "Id": 189, "type": null }, "geometry": { "type": "Point", "coordinates": [ 120.1374, 30.3594671 ] } },
{ "type": "Feature", "properties": { "Id": 190, "type": null }, "geometry": { "type": "Point", "coordinates": [ 120.1375587, 30.3660444 ] } },
{ "type": "Feature", "properties": { "Id": 191, "type": null }, "geometry": { "type": "Point", "coordinates": [ 120.1375653, 30.3505755 ] } },
{ "type": "Feature", "properties": { "Id": 192, "type": null }, "geometry": { "type": "Point", "coordinates": [ 120.1375926, 30.365047 ] } },
{ "type": "Feature", "properties": { "Id": 193, "type": null }, "geometry": { "type": "Point", "coordinates": [ 120.1376112, 30.3674088 ] } },
{ "type": "Feature", "properties": { "Id": 194, "type": null }, "geometry": { "type": "Point", "coordinates": [ 120.1377583, 30.367686 ] } },
{ "type": "Feature", "properties": { "Id": 195, "type": null }, "geometry": { "type": "Point", "coordinates": [ 120.1377679, 30.3679873 ] } },
{ "type": "Feature", "properties": { "Id": 196, "type": null }, "geometry": { "type": "Point", "coordinates": [ 120.1377711, 30.3582743 ] } },
{ "type": "Feature", "properties": { "Id": 197, "type": null }, "geometry": { "type": "Point", "coordinates": [ 120.1378059, 30.3691868 ] } },
{ "type": "Feature", "properties": { "Id": 198, "type": null }, "geometry": { "type": "Point", "coordinates": [ 120.1378341, 30.3701166 ] } },
{ "type": "Feature", "properties": { "Id": 199, "type": null }, "geometry": { "type": "Point", "coordinates": [ 120.1379601, 30.3743126 ] } },
{ "type": "Feature", "properties": { "Id": 200, "type": null }, "geometry": { "type": "Point", "coordinates": [ 120.1381152, 30.350627 ] } },
{ "type": "Feature", "properties": { "Id": 201, "type": null }, "geometry": { "type": "Point", "coordinates": [ 120.1382081, 30.3579349 ] } },
{ "type": "Feature", "properties": { "Id": 202, "type": null }, "geometry": { "type": "Point", "coordinates": [ 120.1382503, 30.3512253 ] } },
{ "type": "Feature", "properties": { "Id": 203, "type": null }, "geometry": { "type": "Point", "coordinates": [ 120.1383166, 30.350659 ] } },
{ "type": "Feature", "properties": { "Id": 204, "type": null }, "geometry": { "type": "Point", "coordinates": [ 120.1383807, 30.3555703 ] } },
{ "type": "Feature", "properties": { "Id": 205, "type": null }, "geometry": { "type": "Point", "coordinates": [ 120.1385286, 30.3672612 ] } },
{ "type": "Feature", "properties": { "Id": 206, "type": null }, "geometry": { "type": "Point", "coordinates": [ 120.1385697, 30.3582265 ] } },
{ "type": "Feature", "properties": { "Id": 207, "type": null }, "geometry": { "type": "Point", "coordinates": [ 120.1386824, 30.355539 ] } },
{ "type": "Feature", "properties": { "Id": 208, "type": null }, "geometry": { "type": "Point", "coordinates": [ 120.1387162, 30.3648378 ] } },
{ "type": "Feature", "properties": { "Id": 209, "type": null }, "geometry": { "type": "Point", "coordinates": [ 120.1387724, 30.3546116 ] } },
{ "type": "Feature", "properties": { "Id": 210, "type": null }, "geometry": { "type": "Point", "coordinates": [ 120.1387897, 30.3542395 ] } },
{ "type": "Feature", "properties": { "Id": 211, "type": null }, "geometry": { "type": "Point", "coordinates": [ 120.1388944, 30.3519853 ] } },
{ "type": "Feature", "properties": { "Id": 212, "type": null }, "geometry": { "type": "Point", "coordinates": [ 120.1396596, 30.3646621 ] } },
{ "type": "Feature", "properties": { "Id": 213, "type": null }, "geometry": { "type": "Point", "coordinates": [ 120.1396602, 30.3646479 ] } },
{ "type": "Feature", "properties": { "Id": 214, "type": null }, "geometry": { "type": "Point", "coordinates": [ 120.1400935, 30.3722739 ] } },
{ "type": "Feature", "properties": { "Id": 215, "type": null }, "geometry": { "type": "Point", "coordinates": [ 120.1401313, 30.3729368 ] } },
{ "type": "Feature", "properties": { "Id": 216, "type": null }, "geometry": { "type": "Point", "coordinates": [ 120.1401752, 30.3737074 ] } },
{ "type": "Feature", "properties": { "Id": 217, "type": null }, "geometry": { "type": "Point", "coordinates": [ 120.1402698, 30.3594602 ] } },
{ "type": "Feature", "properties": { "Id": 218, "type": null }, "geometry": { "type": "Point", "coordinates": [ 120.1403076, 30.3635604 ] } },
{ "type": "Feature", "properties": { "Id": 219, "type": null }, "geometry": { "type": "Point", "coordinates": [ 120.1404018, 30.3553607 ] } },
{ "type": "Feature", "properties": { "Id": 220, "type": null }, "geometry": { "type": "Point", "coordinates": [ 120.1404695, 30.354454 ] } },
{ "type": "Feature", "properties": { "Id": 221, "type": null }, "geometry": { "type": "Point", "coordinates": [ 120.140528, 30.3638949 ] } },
{ "type": "Feature", "properties": { "Id": 222, "type": null }, "geometry": { "type": "Point", "coordinates": [ 120.1405328, 30.3594596 ] } },
{ "type": "Feature", "properties": { "Id": 223, "type": null }, "geometry": { "type": "Point", "coordinates": [ 120.1405518, 30.358108 ] } },
{ "type": "Feature", "properties": { "Id": 224, "type": null }, "geometry": { "type": "Point", "coordinates": [ 120.1405553, 30.35338 ] } },
{ "type": "Feature", "properties": { "Id": 225, "type": null }, "geometry": { "type": "Point", "coordinates": [ 120.1406312, 30.3553451 ] } },
{ "type": "Feature", "properties": { "Id": 226, "type": null }, "geometry": { "type": "Point", "coordinates": [ 120.140647, 30.3547958 ] } },
{ "type": "Feature", "properties": { "Id": 227, "type": null }, "geometry": { "type": "Point", "coordinates": [ 120.1406665, 30.3747109 ] } },
{ "type": "Feature", "properties": { "Id": 228, "type": null }, "geometry": { "type": "Point", "coordinates": [ 120.1407089, 30.3735612 ] } },
{ "type": "Feature", "properties": { "Id": 229, "type": null }, "geometry": { "type": "Point", "coordinates": [ 120.1407422, 30.3536537 ] } },
{ "type": "Feature", "properties": { "Id": 230, "type": null }, "geometry": { "type": "Point", "coordinates": [ 120.140749, 30.3669038 ] } },
{ "type": "Feature", "properties": { "Id": 231, "type": null }, "geometry": { "type": "Point", "coordinates": [ 120.1407755, 30.3672642 ] } },
{ "type": "Feature", "properties": { "Id": 232, "type": null }, "geometry": { "type": "Point", "coordinates": [ 120.1408036, 30.3533761 ] } },
{ "type": "Feature", "properties": { "Id": 233, "type": null }, "geometry": { "type": "Point", "coordinates": [ 120.1409329, 30.3519375 ] } },
{ "type": "Feature", "properties": { "Id": 234, "type": null }, "geometry": { "type": "Point", "coordinates": [ 120.1409468, 30.3707096 ] } },
{ "type": "Feature", "properties": { "Id": 235, "type": null }, "geometry": { "type": "Point", "coordinates": [ 120.1411469, 30.3511085 ] } },
{ "type": "Feature", "properties": { "Id": 236, "type": null }, "geometry": { "type": "Point", "coordinates": [ 120.1412181, 30.3515026 ] } },
{ "type": "Feature", "properties": { "Id": 237, "type": null }, "geometry": { "type": "Point", "coordinates": [ 120.1413513, 30.351141 ] } }
]
}
