{
"type": "FeatureCollection",
"name": "kq_round",
"features": [
{ "type": "Feature", "properties": { "Id": 0, "type": "main_road" }, "geometry": { "type": "LineString", "coordinates": [ [ 0.0, 2606.0 ], [ 87.0, 2021.0 ], [ 140.0, 1644.0 ], [ 182.0, 1314.0 ], [ 212.0, 1147.0 ], [ 271.0, 991.0 ], [ 422.0, 795.0 ], [ 543.0, 637.0 ], [ 571.0, 569.0 ], [ 691.0, 0.0 ] ] } },
{ "type": "Feature", "properties": { "Id": 1, "type": "main_road" }, "geometry": { "type": "LineString", "coordinates": [ [ 1644.0, 815.0 ], [ 1294.0, 836.0 ], [ 947.0, 838.0 ], [ 848.0, 836.0 ], [ 662.0, 781.0 ] ] } },
{ "type": "Feature", "properties": { "Id": 2, "type": "main_road" }, "geometry": { "type": "LineString", "coordinates": [ [ 1642.0, 950.0 ], [ 852.0, 952.0 ] ] } },
{ "type": "Feature", "properties": { "Id": 3, "type": "main_road" }, "geometry": { "type": "LineString", "coordinates": [ [ 750.0, 6.0 ], [ 1401.0, 67.0 ], [ 1724.0, 118.0 ] ] } },
{ "type": "Feature", "properties": { "Id": 4, "type": "main_road" }, "geometry": { "type": "LineString", "coordinates": [ [ 217.0, 1987.0 ], [ 189.0, 2269.0 ], [ 202.0, 2524.0 ], [ 206.0, 2602.0 ] ] } },
{ "type": "Feature", "properties": { "Id": 5, "type": "main_road" }, "geometry": { "type": "LineString", "coordinates": [ [ 532.0, 2514.0 ], [ 513.0, 1949.0 ] ] } },
{ "type": "Feature", "properties": { "Id": 6, "type": "main_road" }, "geometry": { "type": "LineString", "coordinates": [ [ 1656.0, 2475.0 ], [ 1660.0, 2360.0 ], [ 1684.0, 2075.0 ], [ 1667.0, 1730.0 ], [ 1642.0, 1393.0 ], [ 1642.0, 950.0 ], [ 1644.0, 815.0 ], [ 1654.0, 484.0 ], [ 1663.0, 369.0 ], [ 1711.0, 154.0 ], [ 1724.0, 118.0 ] ] } },
{ "type": "Feature", "properties": { "Id": 7, "type": "main_road" }, "geometry": { "type": "LineString", "coordinates": [ [ 1386.0, 2485.0 ], [ 1370.0, 1923.0 ], [ 1365.0, 1773.0 ] ] } },
{ "type": "Feature", "properties": { "Id": 8, "type": "main_road" }, "geometry": { "type": "LineString", "coordinates": [ [ 1161.0, 1949.0 ], [ 1571.0, 1900.0 ] ] } },
{ "type": "Feature", "properties": { "Id": 9, "type": "main_road" }, "geometry": { "type": "LineString", "coordinates": [ [ 217.0, 1987.0 ], [ 250.0, 1798.0 ], [ 641.0, 1734.0 ] ] } },
{ "type": "Feature", "properties": { "Id": 10, "type": "main_road" }, "geometry": { "type": "LineString", "coordinates": [ [ 675.0, 1900.0 ], [ 641.0, 1734.0 ] ] } },
{ "type": "Feature", "properties": { "Id": 11, "type": "main_road" }, "geometry": { "type": "LineString", "coordinates": [ [ 189.0, 2269.0 ], [ 1175.0, 2241.0 ] ] } },
{ "type": "Feature", "properties": { "Id": 12, "type": "main_road" }, "geometry": { "type": "LineString", "coordinates": [ [ 1684.0, 2075.0 ], [ 858.0, 2097.0 ] ] } },
{ "type": "Feature", "properties": { "Id": 13, "type": "main_road" }, "geometry": { "type": "LineString", "coordinates": [ [ 532.0, 2514.0 ], [ 513.0, 1949.0 ] ] } },
{ "type": "Feature", "properties": { "Id": 14, "type": "main_road" }, "geometry": { "type": "LineString", "coordinates": [ [ 876.0, 2588.0 ], [ 849.0, 1847.0 ], [ 827.0, 1385.0 ], [ 827.0, 1228.0 ], [ 852.0, 952.0 ], [ 848.0, 836.0 ], [ 866.0, 430.0 ], [ 878.0, 18.0 ] ] } },
{ "type": "Feature", "properties": { "Id": 15, "type": "main_road" }, "geometry": { "type": "LineString", "coordinates": [ [ 568.0, 1932.0 ], [ 536.0, 1626.0 ], [ 521.0, 1240.0 ] ] } },
{ "type": "Feature", "properties": { "Id": 16, "type": "main_road" }, "geometry": { "type": "LineString", "coordinates": [ [ 1178.0, 2492.0 ], [ 1175.0, 2241.0 ], [ 1161.0, 1949.0 ], [ 1153.0, 1802.0 ], [ 1248.0, 1211.0 ], [ 1346.0, 62.0 ] ] } },
{ "type": "Feature", "properties": { "Id": 17, "type": "main_road" }, "geometry": { "type": "LineString", "coordinates": [ [ 303.0, 1248.0 ], [ 354.0, 1092.0 ], [ 852.0, 1073.0 ], [ 1261.0, 1060.0 ] ] } },
{ "type": "Feature", "properties": { "Id": 18, "type": "main_road" }, "geometry": { "type": "LineString", "coordinates": [ [ 529.0, 1438.0 ], [ 1021.0, 1409.0 ], [ 1022.0, 1220.0 ] ] } },
{ "type": "Feature", "properties": { "Id": 19, "type": "main_road" }, "geometry": { "type": "LineString", "coordinates": [ [ 529.0, 1438.0 ], [ 423.0, 1445.0 ], [ 274.0, 1453.0 ], [ 303.0, 1248.0 ] ] } },
{ "type": "Feature", "properties": { "Id": 20, "type": "main_road" }, "geometry": { "type": "LineString", "coordinates": [ [ 868.0, 354.0 ], [ 1669.0, 342.0 ] ] } },
{ "type": "Feature", "properties": { "Id": 21, "type": "main_road" }, "geometry": { "type": "LineString", "coordinates": [ [ 750.0, 6.0 ], [ 691.0, 0.0 ] ] } },
{ "type": "Feature", "properties": { "Id": 22, "type": "main_road" }, "geometry": { "type": "LineString", "coordinates": [ [ 89.0, 2007.0 ], [ 513.0, 1949.0 ], [ 849.0, 1847.0 ], [ 1153.0, 1802.0 ], [ 1365.0, 1773.0 ], [ 1667.0, 1730.0 ] ] } },
{ "type": "Feature", "properties": { "Id": 23, "type": "main_road" }, "geometry": { "type": "LineString", "coordinates": [ [ 1248.0, 1211.0 ], [ 1022.0, 1220.0 ], [ 827.0, 1228.0 ], [ 521.0, 1240.0 ], [ 303.0, 1248.0 ], [ 240.0, 1251.0 ] ] } },
{ "type": "Feature", "properties": { "Id": 24, "type": "main_road" }, "geometry": { "type": "LineString", "coordinates": [ [ 0.0, 2606.0 ], [ 206.0, 2602.0 ], [ 876.0, 2588.0 ], [ 1650.0, 2577.0 ], [ 1656.0, 2475.0 ] ] } },
{ "type": "Feature", "properties": { "Id": 25, "type": "main_road" }, "geometry": { "type": "LineString", "coordinates": [ [ 202.0, 2524.0 ], [ 532.0, 2514.0 ], [ 876.0, 2503.0 ], [ 1656.0, 2475.0 ] ] } },
{ "type": "Feature", "properties": { "Id": 26, "type": "road" }, "geometry": { "type": "LineString", "coordinates": [ [ 139.0, 2052.0 ], [ 515.0, 2015.0 ], [ 853.0, 1964.0 ] ] } },
{ "type": "Feature", "properties": { "Id": 27, "type": "road" }, "geometry": { "type": "LineString", "coordinates": [ [ 851.0, 1885.0 ], [ 1565.0, 1780.0 ] ] } },
{ "type": "Feature", "properties": { "Id": 28, "type": "road" }, "geometry": { "type": "LineString", "coordinates": [ [ 464.0, 2262.0 ], [ 453.0, 2022.0 ] ] } },
{ "type": "Feature", "properties": { "Id": 29, "type": "road" }, "geometry": { "type": "LineString", "coordinates": [ [ 857.0, 2066.0 ], [ 737.0, 2071.0 ], [ 724.0, 1984.0 ] ] } },
{ "type": "Feature", "properties": { "Id": 30, "type": "road" }, "geometry": { "type": "LineString", "coordinates": [ [ 935.0, 2248.0 ], [ 931.0, 2096.0 ] ] } },
{ "type": "Feature", "properties": { "Id": 31, "type": "road" }, "geometry": { "type": "LineString", "coordinates": [ [ 1070.0, 2243.0 ], [ 1069.0, 2180.0 ], [ 1172.0, 2174.0 ] ] } },
{ "type": "Feature", "properties": { "Id": 32, "type": "road" }, "geometry": { "type": "LineString", "coordinates": [ [ 1163.0, 1984.0 ], [ 854.0, 1989.0 ] ] } },
{ "type": "Feature", "properties": { "Id": 33, "type": "road" }, "geometry": { "type": "LineString", "coordinates": [ [ 1304.0, 1934.0 ], [ 1314.0, 1819.0 ] ] } },
{ "type": "Feature", "properties": { "Id": 34, "type": "road" }, "geometry": { "type": "LineString", "coordinates": [ [ 1345.0, 1608.0 ], [ 1181.0, 1627.0 ] ] } },
{ "type": "Feature", "properties": { "Id": 35, "type": "road" }, "geometry": { "type": "LineString", "coordinates": [ [ 369.0, 1246.0 ], [ 400.0, 1090.0 ] ] } },
{ "type": "Feature", "properties": { "Id": 36, "type": "road" }, "geometry": { "type": "LineString", "coordinates": [ [ 639.0, 1235.0 ], [ 637.0, 1081.0 ] ] } },
{ "type": "Feature", "properties": { "Id": 37, "type": "road" }, "geometry": { "type": "LineString", "coordinates": [ [ 1255.0, 1619.0 ], [ 1257.0, 1525.0 ] ] } },
{ "type": "Feature", "properties": { "Id": 38, "type": "road" }, "geometry": { "type": "LineString", "coordinates": [ [ 187.0, 1763.0 ], [ 544.0, 1706.0 ], [ 838.0, 1622.0 ], [ 1196.0, 1537.0 ], [ 1646.0, 1453.0 ] ] } },
{ "type": "Feature", "properties": { "Id": 39, "type": "road" }, "geometry": { "type": "LineString", "coordinates": [ [ 862.0, 512.0 ], [ 659.0, 529.0 ], [ 745.0, 139.0 ], [ 875.0, 137.0 ] ] } },
{ "type": "Feature", "properties": { "Id": 40, "type": "road" }, "geometry": { "type": "LineString", "coordinates": [ [ 656.0, 656.0 ], [ 955.0, 620.0 ], [ 1253.0, 581.0 ], [ 1427.0, 561.0 ], [ 1629.0, 540.0 ] ] } },
{ "type": "Feature", "properties": { "Id": 41, "type": "road" }, "geometry": { "type": "LineString", "coordinates": [ [ 662.0, 781.0 ], [ 656.0, 656.0 ] ] } },
{ "type": "Feature", "properties": { "Id": 42, "type": "road" }, "geometry": { "type": "LineString", "coordinates": [ [ 947.0, 838.0 ], [ 955.0, 620.0 ] ] } },
{ "type": "Feature", "properties": { "Id": 43, "type": "road" }, "geometry": { "type": "LineString", "coordinates": [ [ 1230.0, 836.0 ], [ 1253.0, 581.0 ] ] } },
{ "type": "Feature", "properties": { "Id": 44, "type": "road" }, "geometry": { "type": "LineString", "coordinates": [ [ 423.0, 1445.0 ], [ 417.0, 1244.0 ] ] } },
{ "type": "Feature", "properties": { "Id": 45, "type": "road" }, "geometry": { "type": "LineString", "coordinates": [ [ 421.0, 1360.0 ], [ 525.0, 1350.0 ] ] } },
{ "type": "Feature", "properties": { "Id": 46, "type": "road" }, "geometry": { "type": "LineString", "coordinates": [ [ 213.0, 1631.0 ], [ 533.0, 1559.0 ], [ 838.0, 1533.0 ], [ 1210.0, 1452.0 ] ] } },
{ "type": "Feature", "properties": { "Id": 47, "type": "road" }, "geometry": { "type": "LineString", "coordinates": [ [ 1176.0, 2266.0 ], [ 1587.0, 2254.0 ] ] } },
{ "type": "Feature", "properties": { "Id": 48, "type": "road" }, "geometry": { "type": "LineString", "coordinates": [ [ 1320.0, 2262.0 ], [ 1319.0, 2198.0 ], [ 1378.0, 2195.0 ] ] } },
{ "type": "Feature", "properties": { "Id": 49, "type": "road" }, "geometry": { "type": "LineString", "coordinates": [ [ 841.0, 1681.0 ], [ 1001.0, 1664.0 ], [ 1018.0, 1794.0 ] ] } },
{ "type": "Feature", "properties": { "Id": 50, "type": "road" }, "geometry": { "type": "LineString", "coordinates": [ [ 941.0, 1509.0 ], [ 933.0, 1414.0 ] ] } },
{ "type": "Feature", "properties": { "Id": 51, "type": "road" }, "geometry": { "type": "LineString", "coordinates": [ [ 875.0, 137.0 ], [ 1123.0, 131.0 ], [ 1329.0, 261.0 ], [ 1433.0, 204.0 ], [ 1682.0, 198.0 ] ] } },
{ "type": "Feature", "properties": { "Id": 52, "type": "road" }, "geometry": { "type": "LineString", "coordinates": [ [ 1309.0, 480.0 ], [ 1636.0, 449.0 ], [ 1645.0, 342.0 ], [ 1704.0, 115.0 ] ] } },
{ "type": "Feature", "properties": { "Id": 53, "type": "road" }, "geometry": { "type": "LineString", "coordinates": [ [ 1629.0, 540.0 ], [ 1616.0, 950.0 ] ] } },
{ "type": "Feature", "properties": { "Id": 54, "type": "road" }, "geometry": { "type": "LineString", "coordinates": [ [ 1329.0, 951.0 ], [ 1278.0, 1440.0 ], [ 1620.0, 1360.0 ], [ 1616.0, 950.0 ] ] } },
{ "type": "Feature", "properties": { "Id": 55, "type": "road" }, "geometry": { "type": "LineString", "coordinates": [ [ 96.0, 2335.0 ], [ 1589.0, 2298.0 ] ] } },
{ "type": "Feature", "properties": { "Id": 56, "type": "road" }, "geometry": { "type": "LineString", "coordinates": [ [ 1329.0, 951.0 ], [ 1366.0, 831.0 ] ] } },
{ "type": "Feature", "properties": { "Id": 57, "type": "road" }, "geometry": { "type": "LineString", "coordinates": [ [ 1446.0, 827.0 ], [ 1457.0, 558.0 ] ] } },
{ "type": "Feature", "properties": { "Id": 58, "type": "road" }, "geometry": { "type": "LineString", "coordinates": [ [ 1021.0, 1409.0 ], [ 1029.0, 1491.0 ] ] } },
{ "type": "Feature", "properties": { "Id": 59, "type": "road" }, "geometry": { "type": "LineString", "coordinates": [ [ 1138.0, 350.0 ], [ 1143.0, 501.0 ], [ 862.0, 512.0 ] ] } },
{ "type": "Feature", "properties": { "Id": 60, "type": "road" }, "geometry": { "type": "LineString", "coordinates": [ [ 1275.0, 55.0 ], [ 1265.0, 111.0 ], [ 1414.0, 127.0 ], [ 1421.0, 70.0 ] ] } },
{ "type": "Feature", "properties": { "Id": 61, "type": "road" }, "geometry": { "type": "LineString", "coordinates": [ [ 1466.0, 345.0 ], [ 1478.0, 203.0 ] ] } },
{ "type": "Feature", "properties": { "Id": 62, "type": "road" }, "geometry": { "type": "LineString", "coordinates": [ [ 55.0, 2605.0 ], [ 139.0, 2052.0 ], [ 152.0, 1976.0 ], [ 187.0, 1763.0 ], [ 213.0, 1631.0 ], [ 240.0, 1251.0 ], [ 297.0, 1094.0 ], [ 459.0, 840.0 ], [ 592.0, 644.0 ], [ 617.0, 597.0 ], [ 726.0, 82.0 ], [ 750.0, 6.0 ] ] } },
{ "type": "Feature", "properties": { "Id": 63, "type": "road" }, "geometry": { "type": "LineString", "coordinates": [ [ 1141.0, 441.0 ], [ 1157.0, 441.0 ], [ 1465.0, 428.0 ], [ 1463.0, 345.0 ] ] } },
{ "type": "Feature", "properties": { "Id": 64, "type": "road" }, "geometry": { "type": "LineString", "coordinates": [ [ 94.0, 1971.0 ], [ 500.0, 1919.0 ], [ 849.0, 1815.0 ], [ 1161.0, 1775.0 ], [ 1664.0, 1694.0 ] ] } },
{ "type": "Feature", "properties": { "Id": 65, "type": "road" }, "geometry": { "type": "LineString", "coordinates": [ [ 1273.0, 2086.0 ], [ 1257.0, 1825.0 ] ] } },
{ "type": "Feature", "properties": { "Id": 66, "type": "road" }, "geometry": { "type": "LineString", "coordinates": [ [ 1269.0, 2022.0 ], [ 1372.0, 2016.0 ] ] } },
{ "type": "Feature", "properties": { "Id": 67, "type": "road" }, "geometry": { "type": "LineString", "coordinates": [ [ 1348.0, 1509.0 ], [ 1345.0, 1608.0 ], [ 1350.0, 1745.0 ] ] } },
{ "type": "Feature", "properties": { "Id": 68, "type": "road" }, "geometry": { "type": "LineString", "coordinates": [ [ 1442.0, 1730.0 ], [ 1461.0, 1488.0 ] ] } },
{ "type": "Feature", "properties": { "Id": 69, "type": "road" }, "geometry": { "type": "LineString", "coordinates": [ [ 1465.0, 428.0 ], [ 1469.0, 465.0 ] ] } },
{ "type": "Feature", "properties": { "Id": 70, "type": "road" }, "geometry": { "type": "LineString", "coordinates": [ [ 1283.0, 806.0 ], [ 1410.0, 797.0 ], [ 1427.0, 561.0 ] ] } },
{ "type": "Feature", "properties": { "Id": 71, "type": "road" }, "geometry": { "type": "LineString", "coordinates": [ [ 354.0, 1092.0 ], [ 447.0, 963.0 ], [ 852.0, 952.0 ] ] } },
{ "type": "Feature", "properties": { "Id": 72, "type": "road" }, "geometry": { "type": "LineString", "coordinates": [ [ 1597.0, 2477.0 ], [ 1564.0, 1745.0 ] ] } }
]
}
