{
"type": "FeatureCollection",
"name": "kq_scaled",
"features": [
{ "type": "Feature", "properties": { "Id": 0, "type": "main_road" }, "geometry": { "type": "LineString", "coordinates": [ [ 0.0, 2606.000000000108685 ], [ 86.999999999193307, 2021.000000000228283 ], [ 140.000000000384262, 1643.999999999934516 ], [ 181.999999999504809, 1313.999999999993406 ], [ 212.000000000500734, 1146.999999999920647 ], [ 270.999999999332942, 991.000000000141881 ], [ 422.00000000036664, 795.000000000101409 ], [ 543.000000000404384, 637.000000000043201 ], [ 570.999999999344368, 569.000000000130512 ], [ 691.000000000485898, 0.0 ] ] } },
{ "type": "Feature", "properties": { "Id": 1, "type": "main_road" }, "geometry": { "type": "LineString", "coordinates": [ [ 1644.000000000289674, 815.000000000054797 ], [ 1294.000000000040018, 835.999999999970214 ], [ 946.999999999320835, 837.999999999894499 ], [ 847.999999999160536, 835.999999999970214 ], [ 661.999999999807414, 780.99999999992076 ] ] } },
{ "type": "Feature", "properties": { "Id": 2, "type": "main_road" }, "geometry": { "type": "LineString", "coordinates": [ [ 1641.999999999655302, 949.999999999917691 ], [ 852.000000000430418, 952.000000000197247 ] ] } },
{ "type": "Feature", "properties": { "Id": 3, "type": "main_road" }, "geometry": { "type": "LineString", "coordinates": [ [ 749.999999999318106, 6.000000000128128 ], [ 1400.999999999897, 66.999999999950433 ], [ 1724.000000000103455, 118.000000000151317 ] ] } },
{ "type": "Feature", "properties": { "Id": 4, "type": "main_road" }, "geometry": { "type": "LineString", "coordinates": [ [ 216.999999999245631, 1987.000000000094587 ], [ 189.000000000305619, 2269.000000000076398 ], [ 202.000000000168768, 2524.000000000016371 ], [ 206.00000000001728, 2601.999999999905413 ] ] } },
{ "type": "Feature", "properties": { "Id": 5, "type": "main_road" }, "geometry": { "type": "LineString", "coordinates": [ [ 531.999999999755005, 2514.000000000039563 ], [ 512.999999999408374, 1949.000000000111868 ] ] } },
{ "type": "Feature", "properties": { "Id": 6, "type": "main_road" }, "geometry": { "type": "LineString", "coordinates": [ [ 1655.999999999835609, 2475.000000000094587 ], [ 1659.999999999684405, 2360.000000000184627 ], [ 1684.000000000196451, 2074.999999999960437 ], [ 1667.000000000484988, 1730.000000000231466 ], [ 1641.999999999655302, 1393.000000000199861 ], [ 1641.999999999655302, 949.999999999917691 ], [ 1644.000000000289674, 815.000000000054797 ], [ 1653.999999999200554, 484.00000000015109 ], [ 1662.999999999215333, 368.999999999886256 ], [ 1711.000000000240561, 154.000000000209553 ], [ 1724.000000000103455, 118.000000000151317 ] ] } },
{ "type": "Feature", "properties": { "Id": 7, "type": "main_road" }, "geometry": { "type": "LineString", "coordinates": [ [ 1385.999999999398824, 2485.000000000070941 ], [ 1370.000000000005002, 1923.000000000030241 ], [ 1364.999999999838792, 1773.000000000025238 ] ] } },
{ "type": "Feature", "properties": { "Id": 8, "type": "main_road" }, "geometry": { "type": "LineString", "coordinates": [ [ 1161.000000000456339, 1949.000000000111868 ], [ 1570.9999999998563, 1900.000000000190767 ] ] } },
{ "type": "Feature", "properties": { "Id": 9, "type": "main_road" }, "geometry": { "type": "LineString", "coordinates": [ [ 216.999999999245631, 1987.000000000094587 ], [ 249.999999999772626, 1798.000000000144155 ], [ 641.000000000246928, 1734.000000000080036 ] ] } },
{ "type": "Feature", "properties": { "Id": 10, "type": "main_road" }, "geometry": { "type": "LineString", "coordinates": [ [ 674.999999999670422, 1900.000000000190767 ], [ 641.000000000246928, 1734.000000000080036 ] ] } },
{ "type": "Feature", "properties": { "Id": 11, "type": "main_road" }, "geometry": { "type": "LineString", "coordinates": [ [ 189.000000000305619, 2269.000000000076398 ], [ 1174.999999999216016, 2241.000000000070941 ] ] } },
{ "type": "Feature", "properties": { "Id": 12, "type": "main_road" }, "geometry": { "type": "LineString", "coordinates": [ [ 1684.000000000196451, 2074.999999999960437 ], [ 857.999999999492502, 2097.000000000193268 ] ] } },
{ "type": "Feature", "properties": { "Id": 13, "type": "main_road" }, "geometry": { "type": "LineString", "coordinates": [ [ 531.999999999755005, 2514.000000000039563 ], [ 512.999999999408374, 1949.000000000111868 ] ] } },
{ "type": "Feature", "properties": { "Id": 14, "type": "main_road" }, "geometry": { "type": "LineString", "coordinates": [ [ 875.999999999521833, 2588.000000000080036 ], [ 848.99999999947795, 1847.000000000065484 ], [ 826.999999999600277, 1385.000000000147793 ], [ 826.999999999600277, 1228.000000000051614 ], [ 852.000000000430418, 952.000000000197247 ], [ 847.999999999160536, 835.999999999970214 ], [ 865.99999999918964, 430.000000000063778 ], [ 878.000000000156433, 18.000000000029104 ] ] } },
{ "type": "Feature", "properties": { "Id": 15, "type": "main_road" }, "geometry": { "type": "LineString", "coordinates": [ [ 567.999999999813213, 1932.000000000044793 ], [ 535.99999999960346, 1625.99999999990564 ], [ 521.000000000526597, 1239.999999999952706 ] ] } },
{ "type": "Feature", "properties": { "Id": 16, "type": "main_road" }, "geometry": { "type": "LineString", "coordinates": [ [ 1178.000000000168029, 2492.000000000161435 ], [ 1174.999999999216016, 2241.000000000070941 ], [ 1161.000000000456339, 1949.000000000111868 ], [ 1152.999999999337888, 1801.999999999992724 ], [ 1247.999999999649845, 1210.999999999984766 ], [ 1345.999999999492275, 62.000000000139735 ] ] } },
{ "type": "Feature", "properties": { "Id": 17, "type": "main_road" }, "geometry": { "type": "LineString", "coordinates": [ [ 302.999999999542638, 1248.000000000005002 ], [ 354.00000000009868, 1092.000000000226237 ], [ 852.000000000430418, 1073.000000000235332 ], [ 1260.999999999512738, 1060.000000000016826 ] ] } },
{ "type": "Feature", "properties": { "Id": 18, "type": "main_road" }, "geometry": { "type": "LineString", "coordinates": [ [ 529.000000000223736, 1437.999999999917236 ], [ 1021.000000000072077, 1408.999999999949523 ], [ 1022.000000000389264, 1219.999999999999091 ] ] } },
{ "type": "Feature", "properties": { "Id": 19, "type": "main_road" }, "geometry": { "type": "LineString", "coordinates": [ [ 529.000000000223736, 1437.999999999917236 ], [ 422.999999999262855, 1445.000000000007503 ], [ 274.000000000285183, 1453.000000000060481 ], [ 302.999999999542638, 1248.000000000005002 ] ] } },
{ "type": "Feature", "properties": { "Id": 20, "type": "main_road" }, "geometry": { "type": "LineString", "coordinates": [ [ 867.999999999824695, 354.00000000009868 ], [ 1668.999999999698957, 342.000000000197758 ] ] } },
{ "type": "Feature", "properties": { "Id": 21, "type": "main_road" }, "geometry": { "type": "LineString", "coordinates": [ [ 749.999999999318106, 6.000000000128128 ], [ 691.000000000485898, 0.0 ] ] } },
{ "type": "Feature", "properties": { "Id": 22, "type": "main_road" }, "geometry": { "type": "LineString", "coordinates": [ [ 88.99999999982812, 2007.000000000047748 ], [ 512.999999999408374, 1949.000000000111868 ], [ 848.99999999947795, 1847.000000000065484 ], [ 1152.999999999337888, 1801.999999999992724 ], [ 1364.999999999838792, 1773.000000000025238 ], [ 1667.000000000484988, 1730.000000000231466 ] ] } },
{ "type": "Feature", "properties": { "Id": 23, "type": "main_road" }, "geometry": { "type": "LineString", "coordinates": [ [ 1247.999999999649845, 1210.999999999984766 ], [ 1022.000000000389264, 1219.999999999999091 ], [ 826.999999999600277, 1228.000000000051614 ], [ 521.000000000526597, 1239.999999999952706 ], [ 302.999999999542638, 1248.000000000005002 ], [ 239.999999999440718, 1250.999999999891315 ] ] } },
{ "type": "Feature", "properties": { "Id": 24, "type": "main_road" }, "geometry": { "type": "LineString", "coordinates": [ [ 0.0, 2606.000000000108685 ], [ 206.00000000001728, 2601.999999999905413 ], [ 875.999999999521833, 2588.000000000080036 ], [ 1649.99999999935244, 2577.000000000140972 ], [ 1655.999999999835609, 2475.000000000094587 ] ] } },
{ "type": "Feature", "properties": { "Id": 25, "type": "main_road" }, "geometry": { "type": "LineString", "coordinates": [ [ 202.000000000168768, 2524.000000000016371 ], [ 531.999999999755005, 2514.000000000039563 ], [ 875.999999999521833, 2503.000000000100044 ], [ 1655.999999999835609, 2475.000000000094587 ] ] } },
{ "type": "Feature", "properties": { "Id": 26, "type": "road" }, "geometry": { "type": "LineString", "coordinates": [ [ 139.000000000066848, 2052.000000000120508 ], [ 515.000000000043315, 2015.000000000100499 ], [ 852.999999999326633, 1963.999999999899728 ] ] } },
{ "type": "Feature", "properties": { "Id": 27, "type": "road" }, "geometry": { "type": "LineString", "coordinates": [ [ 851.000000000112777, 1885.000000000047748 ], [ 1564.999999999372903, 1780.000000000115051 ] ] } },
{ "type": "Feature", "properties": { "Id": 28, "type": "road" }, "geometry": { "type": "LineString", "coordinates": [ [ 463.999999999487045, 2261.999999999986812 ], [ 453.000000000258751, 2022.000000000190767 ] ] } },
{ "type": "Feature", "properties": { "Id": 29, "type": "road" }, "geometry": { "type": "LineString", "coordinates": [ [ 856.999999999175316, 2065.99999999994634 ], [ 736.999999999454872, 2071.000000000111868 ], [ 723.999999999591751, 1984.000000000208274 ] ] } },
{ "type": "Feature", "properties": { "Id": 30, "type": "road" }, "geometry": { "type": "LineString", "coordinates": [ [ 934.999999999775014, 2248.000000000161435 ], [ 930.999999999926558, 2096.000000000231466 ] ] } },
{ "type": "Feature", "properties": { "Id": 31, "type": "road" }, "geometry": { "type": "LineString", "coordinates": [ [ 1069.999999999993406, 2242.999999999995453 ], [ 1068.999999999675993, 2179.999999999894044 ], [ 1171.99999999968486, 2174.000000000120963 ] ] } },
{ "type": "Feature", "properties": { "Id": 32, "type": "road" }, "geometry": { "type": "LineString", "coordinates": [ [ 1162.999999999670081, 1984.000000000208274 ], [ 853.999999999643933, 1989.000000000019099 ] ] } },
{ "type": "Feature", "properties": { "Id": 33, "type": "road" }, "geometry": { "type": "LineString", "coordinates": [ [ 1304.000000000372211, 1933.999999999969532 ], [ 1313.999999999282636, 1819.000000000059799 ] ] } },
{ "type": "Feature", "properties": { "Id": 34, "type": "road" }, "geometry": { "type": "LineString", "coordinates": [ [ 1344.999999999175088, 1608.000000000231921 ], [ 1180.999999999698957, 1627.000000000222826 ] ] } },
{ "type": "Feature", "properties": { "Id": 35, "type": "road" }, "geometry": { "type": "LineString", "coordinates": [ [ 368.999999999175657, 1246.000000000080718 ], [ 400.000000000488853, 1089.999999999947022 ] ] } },
{ "type": "Feature", "properties": { "Id": 36, "type": "road" }, "geometry": { "type": "LineString", "coordinates": [ [ 638.999999999612214, 1235.000000000141881 ], [ 637.000000000398586, 1080.999999999932015 ] ] } },
{ "type": "Feature", "properties": { "Id": 37, "type": "road" }, "geometry": { "type": "LineString", "coordinates": [ [ 1255.000000000450427, 1619.00000000017053 ], [ 1256.999999999664169, 1525.000000000176442 ] ] } },
{ "type": "Feature", "properties": { "Id": 38, "type": "road" }, "geometry": { "type": "LineString", "coordinates": [ [ 186.999999999670791, 1763.000000000047748 ], [ 543.999999999300712, 1706.000000000074351 ], [ 838.00000000024977, 1622.000000000057071 ], [ 1196.000000000197133, 1537.000000000077307 ], [ 1645.999999999503871, 1453.000000000060481 ] ] } },
{ "type": "Feature", "properties": { "Id": 39, "type": "road" }, "geometry": { "type": "LineString", "coordinates": [ [ 861.999999999341185, 512.000000000156774 ], [ 659.000000000276145, 529.000000000223736 ], [ 744.999999999152124, 139.000000000066848 ], [ 874.99999999920442, 137.000000000142592 ] ] } },
{ "type": "Feature", "properties": { "Id": 40, "type": "road" }, "geometry": { "type": "LineString", "coordinates": [ [ 655.999999999323791, 656.000000000034447 ], [ 955.000000000438945, 619.999999999976353 ], [ 1252.999999999815373, 581.000000000031605 ], [ 1426.999999999623469, 561.000000000078103 ], [ 1628.99999999979218, 540.0000000001628 ] ] } },
{ "type": "Feature", "properties": { "Id": 41, "type": "road" }, "geometry": { "type": "LineString", "coordinates": [ [ 661.999999999807414, 780.99999999992076 ], [ 655.999999999323791, 656.000000000034447 ] ] } },
{ "type": "Feature", "properties": { "Id": 42, "type": "road" }, "geometry": { "type": "LineString", "coordinates": [ [ 946.999999999320835, 837.999999999894499 ], [ 955.000000000438945, 619.999999999976353 ] ] } },
{ "type": "Feature", "properties": { "Id": 43, "type": "road" }, "geometry": { "type": "LineString", "coordinates": [ [ 1229.999999999620286, 835.999999999970214 ], [ 1252.999999999815373, 581.000000000031605 ] ] } },
{ "type": "Feature", "properties": { "Id": 44, "type": "road" }, "geometry": { "type": "LineString", "coordinates": [ [ 422.999999999262855, 1445.000000000007503 ], [ 417.000000000200657, 1244.000000000156433 ] ] } },
{ "type": "Feature", "properties": { "Id": 45, "type": "road" }, "geometry": { "type": "LineString", "coordinates": [ [ 421.000000000049113, 1360.000000000028194 ], [ 525.00000000037528, 1350.000000000051614 ] ] } },
{ "type": "Feature", "properties": { "Id": 46, "type": "road" }, "geometry": { "type": "LineString", "coordinates": [ [ 212.999999999397062, 1631.000000000071623 ], [ 533.000000000072419, 1558.999999999955207 ], [ 838.00000000024977, 1533.000000000228738 ], [ 1210.00000000037744, 1452.000000000097998 ] ] } },
{ "type": "Feature", "properties": { "Id": 47, "type": "road" }, "geometry": { "type": "LineString", "coordinates": [ [ 1175.999999999533429, 2266.000000000190539 ], [ 1586.999999999250576, 2253.999999999934062 ] ] } },
{ "type": "Feature", "properties": { "Id": 48, "type": "road" }, "geometry": { "type": "LineString", "coordinates": [ [ 1319.99999999976626, 2261.999999999986812 ], [ 1318.999999999448619, 2197.999999999922238 ], [ 1377.999999999701686, 2195.000000000035925 ] ] } },
{ "type": "Feature", "properties": { "Id": 49, "type": "road" }, "geometry": { "type": "LineString", "coordinates": [ [ 840.999999999780812, 1680.999999999955435 ], [ 1000.999999999407919, 1663.99999999988836 ], [ 1017.999999999119609, 1793.999999999939973 ] ] } },
{ "type": "Feature", "properties": { "Id": 50, "type": "road" }, "geometry": { "type": "LineString", "coordinates": [ [ 941.000000000258524, 1509.000000000071623 ], [ 932.999999999140073, 1414.000000000115506 ] ] } },
{ "type": "Feature", "properties": { "Id": 51, "type": "road" }, "geometry": { "type": "LineString", "coordinates": [ [ 874.99999999920442, 137.000000000142592 ], [ 1122.999999999763304, 131.000000000014467 ], [ 1328.999999999780584, 261.000000000066791 ], [ 1433.000000000106638, 204.000000000093024 ], [ 1681.999999999561624, 197.999999999964956 ] ] } },
{ "type": "Feature", "properties": { "Id": 52, "type": "road" }, "geometry": { "type": "LineString", "coordinates": [ [ 1309.000000000537739, 479.999999999947192 ], [ 1635.999999999171678, 449.000000000054968 ], [ 1644.99999999918623, 342.000000000197758 ], [ 1703.999999999439751, 114.999999999909619 ] ] } },
{ "type": "Feature", "properties": { "Id": 53, "type": "road" }, "geometry": { "type": "LineString", "coordinates": [ [ 1628.99999999979218, 540.0000000001628 ], [ 1615.999999999929059, 949.999999999917691 ] ] } },
{ "type": "Feature", "properties": { "Id": 54, "type": "road" }, "geometry": { "type": "LineString", "coordinates": [ [ 1328.999999999780584, 951.000000000235218 ], [ 1277.999999999224428, 1440.000000000197133 ], [ 1619.999999999777629, 1360.000000000028194 ], [ 1615.999999999929059, 949.999999999917691 ] ] } },
{ "type": "Feature", "properties": { "Id": 55, "type": "road" }, "geometry": { "type": "LineString", "coordinates": [ [ 95.99999999920783, 2335.000000000065029 ], [ 1588.999999999885176, 2298.000000000044565 ] ] } },
{ "type": "Feature", "properties": { "Id": 56, "type": "road" }, "geometry": { "type": "LineString", "coordinates": [ [ 1328.999999999780584, 951.000000000235218 ], [ 1366.000000000156433, 831.000000000159389 ] ] } },
{ "type": "Feature", "properties": { "Id": 57, "type": "road" }, "geometry": { "type": "LineString", "coordinates": [ [ 1445.999999999969987, 826.999999999955662 ], [ 1456.999999999198053, 558.00000000019179 ] ] } },
{ "type": "Feature", "properties": { "Id": 58, "type": "road" }, "geometry": { "type": "LineString", "coordinates": [ [ 1021.000000000072077, 1408.999999999949523 ], [ 1028.999999999768988, 1491.000000000042746 ] ] } },
{ "type": "Feature", "properties": { "Id": 59, "type": "road" }, "geometry": { "type": "LineString", "coordinates": [ [ 1138.000000000261025, 349.999999999894897 ], [ 1143.000000000427235, 501.000000000217938 ], [ 861.999999999341185, 512.000000000156774 ] ] } },
{ "type": "Feature", "properties": { "Id": 60, "type": "road" }, "geometry": { "type": "LineString", "coordinates": [ [ 1274.999999999693273, 55.000000000049468 ], [ 1264.999999999361535, 111.000000000061078 ], [ 1413.999999999760348, 127.000000000165869 ], [ 1420.999999999140073, 70.000000000192131 ] ] } },
{ "type": "Feature", "properties": { "Id": 61, "type": "road" }, "geometry": { "type": "LineString", "coordinates": [ [ 1465.999999999212605, 345.000000000084356 ], [ 1478.000000000179398, 203.000000000130854 ] ] } },
{ "type": "Feature", "properties": { "Id": 62, "type": "road" }, "geometry": { "type": "LineString", "coordinates": [ [ 55.000000000404739, 2605.000000000146429 ], [ 139.000000000066848, 2052.000000000120508 ], [ 151.999999999929969, 1976.000000000155751 ], [ 186.999999999670791, 1763.000000000047748 ], [ 212.999999999397062, 1631.000000000071623 ], [ 239.999999999440718, 1250.999999999891315 ], [ 297.00000000048027, 1094.000000000150521 ], [ 458.999999999321176, 840.000000000174168 ], [ 592.000000000325826, 644.000000000133468 ], [ 616.999999999734655, 597.000000000136424 ], [ 726.000000000226578, 82.000000000093124 ], [ 749.999999999318106, 6.000000000128128 ] ] } },
{ "type": "Feature", "properties": { "Id": 63, "type": "road" }, "geometry": { "type": "LineString", "coordinates": [ [ 1140.999999999792408, 441.000000000002558 ], [ 1156.999999999186684, 441.000000000002558 ], [ 1465.000000000316277, 428.000000000139437 ], [ 1462.999999999681677, 345.000000000084356 ] ] } },
{ "type": "Feature", "properties": { "Id": 64, "type": "road" }, "geometry": { "type": "LineString", "coordinates": [ [ 93.999999999994131, 1970.999999999990223 ], [ 499.999999999545253, 1919.000000000182354 ], [ 848.99999999947795, 1815.000000000211003 ], [ 1161.000000000456339, 1774.999999999949523 ], [ 1663.999999999532974, 1694.000000000173713 ] ] } },
{ "type": "Feature", "properties": { "Id": 65, "type": "road" }, "geometry": { "type": "LineString", "coordinates": [ [ 1273.000000000479758, 2085.999999999899501 ], [ 1256.999999999664169, 1825.000000000188265 ] ] } },
{ "type": "Feature", "properties": { "Id": 66, "type": "road" }, "geometry": { "type": "LineString", "coordinates": [ [ 1268.999999999210104, 2022.000000000190767 ], [ 1371.999999999218744, 2016.000000000062755 ] ] } },
{ "type": "Feature", "properties": { "Id": 67, "type": "road" }, "geometry": { "type": "LineString", "coordinates": [ [ 1348.000000000127102, 1509.000000000071623 ], [ 1344.999999999175088, 1608.000000000231921 ], [ 1349.999999999340844, 1745.000000000019099 ] ] } },
{ "type": "Feature", "properties": { "Id": 68, "type": "road" }, "geometry": { "type": "LineString", "coordinates": [ [ 1442.000000000121418, 1730.000000000231466 ], [ 1461.000000000467935, 1488.000000000156206 ] ] } },
{ "type": "Feature", "properties": { "Id": 69, "type": "road" }, "geometry": { "type": "LineString", "coordinates": [ [ 1465.000000000316277, 428.000000000139437 ], [ 1469.000000000164846, 465.000000000159844 ] ] } },
{ "type": "Feature", "properties": { "Id": 70, "type": "road" }, "geometry": { "type": "LineString", "coordinates": [ [ 1282.999999999390639, 806.000000000040131 ], [ 1409.999999999911324, 797.00000000002558 ], [ 1426.999999999623469, 561.000000000078103 ] ] } },
{ "type": "Feature", "properties": { "Id": 71, "type": "road" }, "geometry": { "type": "LineString", "coordinates": [ [ 354.00000000009868, 1092.000000000226237 ], [ 446.999999999775468, 963.000000000136083 ], [ 852.000000000430418, 952.000000000197247 ] ] } },
{ "type": "Feature", "properties": { "Id": 72, "type": "road" }, "geometry": { "type": "LineString", "coordinates": [ [ 1596.999999999582542, 2477.000000000018645 ], [ 1564.000000000476575, 1745.000000000019099 ] ] } }
]
}
